ELECAUDITHEADERID,ID,AUDITYEAR,DBKEY,FYENDDATE,AUDITTYPE,PERIODCOVERED,NUMBERMONTHS,MULTIPLEEINS,EIN,EINSUBCODE,MULTIPLEDUNS,DUNS,AUDITEENAME,STREET1,STREET2,CITY,STATE,ZIPCODE,AUDITEECONTACT,AUDITEETITLE,AUDITEEPHONE,AUDITEEFAX,AUDITEEEMAIL,AUDITEEDATESIGNED,AUDITEENAMETITLE,CPAFIRMNAME,CPASTREET1,CPASTREET2,CPACITY,CPASTATE,CPAZIPCODE,CPACONTACT,CPATITLE,CPAPHONE,CPAFAX,CPAEMAIL,CPADATESIGNED,CPANAMETITLE,COG_OVER,COGAGENCY,TYPEREPORT_FS,REPORTABLECONDITION,MATERIALWEAKNESS,MATERIALNONCOMPLIANCE,GOINGCONCERN,TYPEREPORT_MP,DOLLARTHRESHOLD,LOWRISK,REPORTREQUIRED,TOTFEDEXPEND,COPIES,REPORTABLECONDITION_MP,MATERIALWEAKNESS_MP,QCOSTS,CYFINDINGS,PYSCHEDULE,DUP_REPORTS,COG_AGENCY,OVERSIGHTAGENCY,DATERECEIVED,DATEFIREWALL,PREVIOUSDATEFIREWALL,FINDINGREFNUM,TYPEOFENTITY,IMAGE,AGENCYCFDA,INITIALDATE,DATERECEIVEDOTHER,MULTIPLE_CPAS,AUDITEECERTIFYNAME,AUDITEECERTIFYTITLE,FACACCEPTEDDATE,AUDITOR_EIN,SD_MATERIALWEAKNESS,SD_MATERIALWEAKNESS_MP,SIGNIFICANTDEFICIENCY,SIGNIFICANTDEFICIENCY_MP,SP_FRAMEWORK,SP_FRAMEWORK_REQUIRED,TYPEREPORT_SP_FRAMEWORK,SUPPRESSION_CODE,ENTITY_TYPE,TYPEAUDIT_CODE,OPEID,DATETOED,DATEFINISHED,TYPEFINDING,TYPEFUNDING,FYSTARTDATE,CPAFOREIGN,UEI,MULTIPLEUEIS,CPACOUNTRY
1317966,1707672019,2019,170767,06/30/2019 00:00:00,S,A,,N,576000488,,N,126061936,HAMPTON COUNTY SCHOOL DISTRICT TWO,PO BOX 1028,,ESTILL,SC,29918,LAKISHA YOUMANS,DIRECTOR OF FINANCE,8036255012,,YOUMLAK@HAMPTON2.K12.SC.US,12/05/2019 16:58:52,LAKISHA YOUMANS-DIRECTOR OF FINANCE,"MCABEE, SCHWARTZ, HALLIDAY & CO.",824 EAST MAIN STREET,,SPARTANBURG,SC,29302,ANDREW P DOBSON,DIRECTOR,8645830886,,ADOBSON@MSHCPA.COM,12/06/2019 15:58:51,,O,,U,N,Y,N,N,U,750000,N,,1923827,,N,N,N,Y,N,N,,12,12/06/2019 00:00:00,01/08/2020 01:30:10,,N,505,1,x00,12/06/2019 00:00:00,,N,LAKISHA YOUMANS,DIRECTOR OF FINANCE,11/20/2019 00:00:00,570925346,Y,,N,N,,,,,Local government,UG,,01/28/2020 08:53:40,01/30/2020 08:57:21,N,G,07/01/2018 00:00:00,,,,US
1326288,2273512019,2019,227351,06/30/2019 00:00:00,S,A,,N,061716448,,N,829029995,"BIRMINGHAM GREEN ADULT DISABILITY SERVICES, INC. 000-HD054",8605 CENTREVILLE ROAD,,MANASSAS,VA,20110,MR. THOMAS DODSON,SENIOR VICE PRESIDENT,7032576237,,TDODSON@BIRMINGHAMGREEN.ORG,02/26/2020 12:12:25,THOMAS DODSON-SVP,WALKER HEALTHCARE SERVICES GROUP CPAS,2707 BRAMBLETON AVENUE,,ROANOKE,VA,24015,RUSSELL SHORES,PARTNER,5407722709,,RSHORES@KING-SHORESCPAS.COM,02/24/2020 10:30:41,,O,,U,N,N,N,N,U,750000,Y,,1460933,,N,N,N,N,N,N,,14,02/26/2020 00:00:00,03/07/2020 01:30:05,,N,903,1,x00,02/26/2020 00:00:00,,N,THOMAS DODSON,SVP,02/26/2020 00:00:00,541643141,N,,N,N,,,,,Non-profit,UG,,,,,,07/01/2018 00:00:00,,,,US
1341679,1833572019,2019,183357,12/31/2019 00:00:00,S,A,,N,351641643,,N,791279636,FORT WAYNE - ALLEN COUNTY AIRPORT AUTHORITY,"LT. PAUL BAER TERMINAL, SUITE 200",,FORT WAYNE,IN,468093194,DOUG ROBERTSON,FINANCE MANAGER,2607474146,,DROBERTSON@FWAIRPORT.COM,07/15/2020 10:14:23,DOUG ROBERTSON-CONTROLLER,"BKD, LLP","200 EAST MAIN STREET, SUITE 700",,FORT WAYNE,IN,468021900,MICHAEL EARLS,PARTNER,2604604000,,MEARLS@BKD.COM,07/14/2020 20:03:21,,O,,U,N,N,N,N,U,750000,N,,4989777,,N,N,N,N,N,N,,20,07/15/2020 00:00:00,07/17/2020 01:30:07,,N,401,1,x00,07/15/2020 00:00:00,,N,DOUG ROBERTSON,CONTROLLER,07/15/2020 00:00:00,440160260,N,,N,N,,,,,Local government,UG,,,,,,01/01/2019 00:00:00,,,,US
1336645,2239532019,2019,223953,12/31/2019 00:00:00,S,A,,N,841638773,,N,,OAK HOUSING OF NY CORP. ,1219 NORTH FOREST ROAD,,WILLIAMSVILLE,NY,14221,ANNE STONE,CFO,7166348132,,ASTONE@PEOPLE-INC.ORG,05/01/2020 11:40:59,ANNE STONE-CFO,"BRYANS & GRAMUGLIA CPAS, LLC","1 PINE WEST PLAZA, SUITE 107",,ALBANY,NY,12205,ROBERT GRAMUGLIA,PARTNER,5184528055,,RGRAMUGLIA@BGCPA.NET,04/30/2020 16:51:16,,O,,U,N,N,N,N,U,750000,Y,,4883629,,N,N,N,N,N,N,,14,05/01/2020 00:00:00,05/13/2020 01:30:11,,N,903,1,x00,05/01/2020 00:00:00,,N,ANNE STONE,CFO,05/01/2020 00:00:00,202954888,N,,N,N,,,,,Non-profit,UG,,,,,,01/01/2019 00:00:00,,,,US
1337129,2239302019,2019,223930,12/31/2019 00:00:00,S,A,,N,912171539,,N,614526890,PROVIDENCE ST. ELIZABETH ASSOCIATION ,3201 SW GRAHAM STREET ,,SEATTLE,WA,98126,DANILO MAGNO,DIRECTOR OF FINANCE SUPPORTIVE HOUSING,4256873688,,DANILO.MAGNO@PROVIDENCE.ORG,04/20/2020 12:50:45,DANILO MAGNO-DIRECTOR OF FINANCE PROVIDENCE SUPPORTIVE HOUSING,"LOVERIDGE HUNT & CO.,PLLC",14725 SE 36TH STREET SUITE 401,,BELLEVUE,WA,980061606,SAI CHEUNG,AUDIT MANAGER,4254532088,,SCHEUNG@LOVERIDGEHUNTCPA.COM,04/17/2020 19:40:24,,O,,U,N,N,N,N,U,750000,Y,,7091211,,N,N,N,N,N,N,,14,04/20/2020 00:00:00,05/08/2020 01:30:07,,N,903,1,x00,04/20/2020 00:00:00,,N,DANILO MAGNO,DIRECTOR OF FINANCE PROVIDENCE SUPPORTIVE HOUSING,04/20/2020 00:00:00,911347576,N,,N,N,,,,,Non-profit,UG,,,,,,01/01/2019 00:00:00,,,,US
1344359,2141862019,2019,214186,12/31/2019 00:00:00,P,A,,N,752294531,,N,,"ADVANCE CHILD CARE, INC.",523 W 1ST AVE,,CORSICANA,TX,75110,MAX TAYLOR,CEO,9038725231,,MAXT@ADVCC.ORG,08/03/2020 18:26:26,MAX TAYLOR-CEO,GOMEZ & COMPANY ,5177 RICHMOND AVE,,HOUSTON,TX,77056,BENJAMIN GOMEZ,CPA,7136665900,,BEN@GOMEZANDCO.COM,08/04/2020 11:31:36,,O,,U,N,N,N,N,U,750000,N,,16003434,,N,N,N,N,N,N,,10,08/04/2020 00:00:00,08/06/2020 01:30:08,,N,908,1,X,08/04/2020 00:00:00,,N,MAX TAYLOR,CEO,08/04/2020 00:00:00,760225893,N,,N,N,,,,,Non-profit,UG,,,,,,01/01/2019 00:00:00,,,,US
1328616,2117992019,2019,211799,06/30/2019 00:00:00,S,A,,N,521744007,,N,,CITY OF BALTIMORE DEVELOPMENT CORPORATION ,"36 S. CHARLES ST., #2100",,BALTIMORE,MD,212013015,JEFFREY PILLAS,CFO,4108379305,,JPILLAS@BALTIMOREDEVELOPMENT.COM,02/05/2020 08:49:46,JEFFREY PILLAS-VICE PRESIDENT,"K.L. HOFFMAN & COMPANY, PC","2809 BOSTON ST., #107",,BALTIMORE,MD,212244815,"KAREN L. HOFFMAN, CPA",PRESIDENT,4439901005,,KAREN@KLHOFFMANANDCOMPANY.COM,02/05/2020 08:23:52,,O,,U,Y,N,N,N,U,750000,N,,2252555,,N,N,N,Y,Y,N,,11,02/05/2020 00:00:00,02/28/2020 01:30:06,,N,909,1,x11x15,02/05/2020 00:00:00,,N,JEFFREY PILLAS,VICE PRESIDENT,02/05/2020 00:00:00,831053015,N,,Y,N,,,,,Non-profit,UG,,,,,,07/01/2018 00:00:00,,,,US
1331365,2444832019,2019,244483,09/30/2019 00:00:00,S,A,,N,561500678,,N,792121238,"ALICE AYCOCK POE CENTER FOR HEALTH EDUCATION, INC. ",224 SUNNYBROOK ROAD,,RALEIGH,NC,27610,ANN ROLLINS,EXECUTIVE DIRECTOR,9192314006,,A.ROLLINS@POEHEALTH.ORG,02/28/2020 12:02:35,ANN ROLLINS-EXECUTIVE DIRECTOR,CLIFTONLARSONALLEN LLP,"4601 SIX FORKS ROAD, SUITE 350",,RALEIGH,NC,27609,MICHELE PRATT,PARTNER,9192398549,,MICHELE.PRATT@CLACONNECT.COM,02/28/2020 10:55:13,,O,,U,N,N,N,N,U,750000,N,,1045611,,N,N,N,N,Y,N,,10,02/28/2020 00:00:00,03/11/2020 01:30:07,,N,888,1,x10x00,02/28/2020 00:00:00,,N,ANN ROLLINS,EXECUTIVE DIRECTOR,02/28/2020 00:00:00,410746749,N,,N,N,,,,,Non-profit,UG,,,,,,10/01/2018 00:00:00,,,,US
1323276,1343662019,2019,134366,06/30/2019 00:00:00,S,A,,N,943143920,,N,606805612,GATEWAY UNIFIED SCHOOL DISTRICT,4411 MOUNTAIN LAKES BLVD. ,,REDDING ,CA,96003,STEVE HENSON,DIRECTOR OF BUSINESS SERVICES,5302457915,,SHENSON@GWUSD.ORG,01/08/2020 11:28:20,STEVE HENSON-DIRECTOR OF BUSINESS SERVICES,"HORTON MCNULTY & SAETEURN, LLP","55 INDEPENDENCE CIRCLE, SUITE 102",,CHICO,CA,95973,KALAH M. HORTON,PARTNER,5305887427,,KALAH.HORTON@HMS-CPAS.COM,01/07/2020 22:24:29,,O,,U,Y,N,N,N,U,750000,Y,,3421552,,N,N,N,N,N,N,,84,01/08/2020 00:00:00,02/13/2020 01:30:09,,N,505,1,x00,01/08/2020 00:00:00,,N,STEVE HENSON,DIRECTOR OF BUSINESS SERVICES,01/08/2020 00:00:00,832061628,N,,Y,N,,,,,Local government,UG,,02/13/2020 14:49:45,02/20/2020 10:14:18,N,G,07/01/2018 00:00:00,,,,US
1309116,2411712019,2019,241171,06/30/2019 00:00:00,S,A,,N,454773481,,N,066698302,TRANSIT AUTHORITY OF CENTRAL KENTUCKY,1209 N. DIXIE HIGHWAY,,ELIZABETHTOWN,KY,42701,JOE REDMON,EXECUTIVE DIRECTOR,2707652612,,JREDMON@TACKTRANSIT.ORG,12/04/2019 14:14:52,JOE REDMON-EXECUTIVE DIRECTOR,"JONES & ASSOCIATES CPAS, PSC","2808 PALUMBO DRIVE, SUITE 101",,LEXINGTON,KY,40509,JUDY LAND JONES,MANAGING PARTNER,8596870303,,JUDY.JANDACPAS@GMAIL.COM,12/04/2019 13:55:34,,O,,U,N,N,N,N,Q,750000,Y,,1382849,,N,Y,N,Y,N,N,,20,12/04/2019 00:00:00,12/14/2019 01:30:09,,N,888,1,x00x20,12/04/2019 00:00:00,,N,JOE REDMON,EXECUTIVE DIRECTOR,11/20/2019 00:00:00,611305192,N,,N,N,,,,,Local government,UG,,,,,,07/01/2018 00:00:00,,,,US
1313549,1842282019,2019,184228,02/28/2019 00:00:00,S,A,,N,351990571,,N,612097998,"FAMILY DEVELOPMENT SERVICES, INC.",3637 MERIDIAN STREET,,INDIANAPOLIS,IN,46208,KIMBERLEY HAGLER-RHODES,EXECUTIVE DIRECTOR,3178033803,,KRHODES@FDS.ORG,11/19/2019 14:10:52,KIMBERLY HAGLER-RHODES-EXECUTIVE DIRECTOR,"COMER, NOWLING & ASSOCIATES, P.C.",8606 ALLISONVILLE RD. SUITE 120,,INDIANAPOLIS ,IN,46250,"DOUGLAS O. JONES, CPA",AUDIT PARNTER,3178413393,,DJONES@COMERNOWLING.COM,11/20/2019 10:27:52,,O,,U,N,N,N,N,U,750000,Y,,18287474,,N,N,N,N,N,N,,93,11/20/2019 00:00:00,12/12/2019 01:30:05,,N,908,1,x00,11/20/2019 00:00:00,,N,KIMBERLY HAGLER-RHODES,EXECUTIVE DIRECTOR,11/20/2019 00:00:00,352119569,N,,N,N,,,,,Non-profit,UG,,,,,,03/01/2018 00:00:00,,,,US
1316151,895442019,2019,89544,06/30/2019 00:00:00,S,A,,N,591905344,,N,021118286,"MENTAL HEALTH RESOURCE CENTER, INC. ","10550 DEERWOOD PARK BLVD, SUITE 600",,JACKSONVILLE,FL,32256,CLYDE M. BRUMFIELD,VICE PRESIDENT - FINANCE / CFO,9047431883,,CBRUMFIELD@MHRCFLORIDA.COM,11/19/2019 15:07:36,CLYDE BRUMFIELD-VP-FINANCE/CFO,"RALSTON & COMPANY, P.A.","8777 SAN JOSE BLVD, BLDG E",,JACKSONVILLE,FL,32217,R. BRUCE SHEALY,CPA,9047300440,,SHEALY@RALSTONCO.COM,11/18/2019 08:16:47,,O,,U,N,N,N,N,U,750000,Y,,4542692,,N,N,N,N,N,N,,14,11/19/2019 00:00:00,12/07/2019 01:30:06,,N,908,1,x00,11/19/2019 00:00:00,,N,CLYDE BRUMFIELD,VP-FINANCE/CFO,11/19/2019 00:00:00,591514060,N,,N,N,,,,,Non-profit,UG,,,,,,07/01/2018 00:00:00,,,,US
1338285,2362442019,2019,236244,12/31/2019 00:00:00,S,A,,N,431893417,,N,038108255,"LIBERTY APARTMENTS, INC. (FISHER HEIGHTS APARTMENTS) ",1425 S. 18TH STREET,,ST. LOUIS,MO,63104,KELLY WILSON,REGIONAL MANAGER,3145717659,,KWILSON@NDCONSULTING.COM,05/05/2020 10:58:13,KELLY WILSON-SUPPORTED HOUSING REGIONAL MANAGER,"MADDOX & ASSOCIATES, APC","5627 BANKERS AVENUE, BUILDING 2",,BATON ROUGE,LA,708082610,BRYAN BEALE,CPA,2259263360,,MAIL@MADDOXASSOCIATES.COM,05/06/2020 08:28:01,,O,,U,N,N,N,N,U,750000,Y,,1232776,,N,N,N,N,Y,N,,14,05/06/2020 00:00:00,05/13/2020 01:30:11,,N,903,1,x00x14,05/06/2020 00:00:00,,N,KELLY WILSON,SUPPORTED HOUSING REGIONAL MANAGER,05/06/2020 00:00:00,721314069,N,,N,N,,,,,Non-profit,UG,,,,,,01/01/2019 00:00:00,,,,US
1327530,1317612019,2019,131761,06/30/2019 00:00:00,S,A,,N,716038636,,N,030425649,ELKINS SCHOOL DISTRICT,349 N. CENTER STREET,,ELKINS,AR,727273313,JEREMY MANGRUM,SUPERINTENDENT,4796432172,,JMANGRUM@ELKINSDISTRICT.ORG,02/24/2020 11:34:01,JEREMY MANGRUM-SUPERINTENDENT,ARKANSAS LEGISLATIVE AUDIT,"500 WOODLANE STREET, STE 172",,LITTLE ROCK,AR,722011099,"PATRICK NUTT, CPA",DEPUTY LEGISLATIVE AUDITOR,5016838600,,DCF@ARKLEGAUDIT.GOV,02/24/2020 08:26:48,,O,,AS,N,N,N,N,U,750000,N,,884669,,N,N,N,N,N,N,,10,02/24/2020 00:00:00,03/06/2020 01:30:07,,N,505,1,x00,02/24/2020 00:00:00,,N,JEREMY MANGRUM,SUPERINTENDENT,02/24/2020 00:00:00,716042275,N,,N,N,REGULATORY,N,U,,Local government,UG,,04/08/2020 09:52:18,04/09/2020 11:22:58,,N,07/01/2018 00:00:00,,,,US
1314860,685752019,2019,68575,06/30/2019 00:00:00,S,A,,N,450364972,,N,184233179,SOURIS VALLEY SPECIAL SERVICES ,1370 20TH AVE SW,,MINOT,ND,58701,DARLENE PULLEN,BUSINESS MANAGER,7018574410,,DARLENE.PULLEN@SVSSND.ORG,11/12/2019 10:49:39,DARLENE PULLEN-BUSINESS MANAGER,"BRADY, MARTZ & ASSOCIATES, P.C.",207 EAST BROADWAY AVE,,BISMARCK,ND,585021297,"PATRICK BROWN, CPA",SHAREHOLDER,7012231717,,PATRICK.BROWN@BRADYMARTZ.COM,11/14/2019 10:03:24,,O,,U,N,Y,N,N,U,750000,N,,2434467,,N,N,N,N,N,N,,84,11/14/2019 00:00:00,11/16/2019 01:30:21,,N,505,1,x00,11/14/2019 00:00:00,,N,DARLENE PULLEN,BUSINESS MANAGER,11/14/2019 00:00:00,450310328,Y,,N,N,,,,,Local government,UG,,12/05/2019 16:32:48,12/12/2019 07:52:25,,N,07/01/2018 00:00:00,,,,US
1344730,1781682019,2019,178168,12/31/2019 00:00:00,S,A,,N,396005511,,N,025970799,"CITY OF MANITOWOC, WISCONSIN",900 QUAY STREET,,MANITOWOC,WI,54221,MR. STEVEN CORBEILLE,FINANCE DIRECTOR,9206866961,,SCORBEILLE@MANITOWOC.ORG,08/18/2020 16:34:52,STEVE CORBEILLE-FINANCE DIRECTOR TREASURER,CLIFTONLARSONALLEN LLP,"712 RIVERFRONT DRIVE, SUITE 301",,SHEBOYGAN,WI,53081,"BRYAN GRUNEWALD, CPA",PRINCIPAL,9208033147,,BRYAN.GRUNEWALD@CLACONNECT.COM,08/18/2020 16:41:04,,O,,U,N,N,N,N,U,750000,N,,4569185,,N,Y,N,Y,N,N,,20,08/18/2020 00:00:00,08/26/2020 01:30:03,,N,200,1,X,08/18/2020 00:00:00,,N,STEVE CORBEILLE,FINANCE DIRECTOR TREASURER,08/18/2020 00:00:00,410746749,N,,N,N,,,,,Local government,UG,,,,,,01/01/2019 00:00:00,,,,US
1328562,2357572019,2019,235757,06/30/2019 00:00:00,S,A,,N,911307564,,N,801560900,CLARK COUNTY FOOD BANK ,6502 N.E. 47TH AVENUE,,VANCOUVER,WA,98661,ALAN HAMILTON,PRESIDENT,3606930939,,ALAN.HAMILTON@CLARKCOUNTYFOODBANK.ORG,02/05/2020 21:44:29,ALAN HAMILTON-PRESIDENT,GARY MCGEE & CO. LLP,"808 S.W. THIRD AVENUE, SUITE 700",,PORTLAND,OR,97204,YEE LEE MCGEE,PARTNER,5032222515,,LEE@GARYMCGEE.COM,02/05/2020 17:01:44,,O,,U,Y,N,N,N,U,750000,Y,,1348134,,N,N,N,N,N,N,,97,02/05/2020 00:00:00,02/28/2020 01:30:06,,N,909,1,x00,02/05/2020 00:00:00,,N,ALAN HAMILTON,PRESIDENT,02/05/2020 00:00:00,274363029,N,,Y,N,,,,,Non-profit,UG,,,,,,07/01/2018 00:00:00,,,,US
1311048,960742019,2019,96074,06/30/2019 00:00:00,S,A,,N,640679139,,N,,NCBA ESTATES MISSISSIPPI 065-EH086-L8,"280 HERNANDO ST, SUITE 205",,MEMPHIS,TN,38126,DEBRA EDWARDS,MANAGEMENT AGENT,9015267155,,DEDWARDS@NORTHERNINCRES.COM,10/03/2019 18:17:24,DEBRA EDWARDS-MANAGEMENT AGENT,GRANTHAMPOOLE PLLC,"1062 HIGHLAND COLONY PKWY, SUITE 201",,RIDGELAND,MS,39157,ALAN G. ARRINGTON,PARTNER,6014992400,,AARRINGTON@GRANTHAMPOOLE.COM,10/04/2019 13:00:19,,O,,U,N,N,N,N,U,750000,Y,,4420231,,N,N,N,N,N,N,,14,10/04/2019 00:00:00,10/08/2019 01:30:28,,N,903,1,x00,10/04/2019 00:00:00,,N,DEBRA EDWARDS,MANAGEMENT AGENT,10/04/2019 00:00:00,640903390,N,,N,N,,,,,Non-profit,UG,,,,,,07/01/2018 00:00:00,,,,US
1333052,1844052019,2019,184405,06/30/2019 00:00:00,S,A,,N,231744721,,N,,"WEST PHILADELPHIA COMMUNITY MENTAL HEALTH CONSORTIUM, INC. ",3751 ISLAND AVENUE SUITE 303,,PHILADELPHIA,PA,191533237,ERIC SILVERMAN,CHIEF FINANCIAL OFFICER,2125968100,,ESILVERMAN@CONSORTIUM-INC.ORG,03/13/2020 15:56:30,ERIC SILVERMAN-VP & CFO,"ST. CLAIR CPAS, P.C.",101 W. ELM STREET SUITE 500,,CONSHOHOCKEN,PA,19428,JOSEPH ENGLAND,SHAREHOLDER,6108621998,,JENGLAND@STCLAIRCPA.COM,03/14/2020 13:47:39,,O,,U,Y,Y,N,Y,U,750000,N,,2451552,,N,N,N,Y,N,N,,93,03/14/2020 00:00:00,03/26/2020 01:30:07,,N,908,1,x00,03/14/2020 00:00:00,,N,ERIC SILVERMAN,VP & CFO,03/14/2020 00:00:00,232653765,Y,,Y,N,,,,,Non-profit,UG,,,,,,07/01/2018 00:00:00,,,,US
1317407,591252019,2019,59125,09/30/2019 00:00:00,S,A,,N,391043639,,N,,NORTHPORT APARTMENTS CORPORATION 075-55003 NP,3744 W. GREENTREE ROAD,,MILWAUKEE,WI,53209,COLLEEN KUMROW,ACCOUNTANT,4143527142,,KUMROWC@EXECPC.COM,01/22/2020 14:55:16,COLLEEN KUMROW-ACCOUNTANT,"CLIFTONLARSONALLEN, LLP","10401 W INNOVATION DRIVE, SUITE 300",,WAUWATOSA,WI,53226,JACOB LENELL,PRINCIPAL,4144761880,,JACOB.LENELL@CLACONNECT.COM,01/22/2020 14:38:31,,O,,U,N,N,N,N,U,750000,Y,,1158472,,N,N,N,N,N,N,,14,01/22/2020 00:00:00,02/21/2020 01:30:11,,N,903,1,x00,01/22/2020 00:00:00,,N,COLLEEN KUMROW,ACCOUNTANT,01/22/2020 00:00:00,410746749,N,,N,N,,,,,Non-profit,UG,,03/09/2020 14:18:22,03/12/2020 08:04:07,,N,10/01/2018 00:00:00,,,,US
1311564,879422019,2019,87942,05/31/2019 00:00:00,S,A,,N,590637903,,N,073199739,RINGLING COLLEGE OF ART AND DESIGN,2700 N. TAMIAMI TRAIL,,SARASOTA,FL,34234,MONICA WAID,ASSISTANT VP FOR FINANCE AND ADMIN,9413597514,,MWAID@RINGLING.EDU,10/22/2019 09:04:13,MONICA WAID-ASSISTANT VICE PRESIDENT FINANCE & ADMINISTRATION,CHERRY BEKAERT LLP,"800 NORTH MAGNOLIA AVENUE, SUITE 1300",,ORLANDO,FL,32803,RONALD A CONRAD,PARTNER,4074237911,,RACONRAD@CBH.COM,10/22/2019 08:50:51,,O,,U,N,N,N,N,U,750000,Y,,20532018,,N,N,N,N,N,N,,84,10/22/2019 00:00:00,10/24/2019 01:30:14,,N,904,1,x00,10/22/2019 00:00:00,,N,MONICA WAID,ASSISTANT VICE PRESIDENT FINANCE & ADMINISTRATION,10/22/2019 00:00:00,560574444,N,,N,N,,,,,Institution of higher education (IHE),UG,01257400,10/24/2019 14:09:51,10/31/2019 09:48:47,N,S,06/01/2018 00:00:00,,,,US
1324194,2183302019,2019,218330,06/30/2019 00:00:00,S,A,,N,721493224,,N,,"BELLE CHASSE ACADEMY, INC. AND AFFILIATE ",100 FIFTH ST NAS/JRB NO,,BELLE CHASSE,LA,70037,SHEILA GLASS,BUSINESS MANAGER,5044335850,,SGLASS@BELLECHASSEACADEMY.ORG,01/08/2020 10:34:06,SHEILA J. GLASS-BUSINESS MANAGER,BRUNO & TERVALON,4298 ELYSIAN FIELDS,,NEW ORLEANS,LA,70122,LAWRENCE JONES,DIRECTOR,5042848733,,LCJONES@BTCPAS.COM,01/07/2020 18:04:28,,O,,U,N,N,N,N,U,750000,N,,4885615,,N,N,N,N,N,N,,84,01/08/2020 00:00:00,02/13/2020 01:30:09,,N,505,1,x00,01/08/2020 00:00:00,,N,SHEILA J. GLASS,BUSINESS MANAGER,01/08/2020 00:00:00,720877929,N,,N,N,,,,,Non-profit,UG,,03/03/2020 13:52:31,03/05/2020 07:17:01,N,G,07/01/2018 00:00:00,,,,US
1308409,1607302019,2019,160730,06/30/2019 00:00:00,S,A,,N,116003118,,N,065947616,SACHEM CENTRAL SCHOOL DISTRICT ,51 SCHOOL STREET,,LAKE RONKONKOMA,NY,11779,JOHN O'KEEFE,ASSISTANT SUPERINTENDENT FOR BUSINESS,6314711321,,JOKEEFE@SACHEM.EDU,10/03/2019 16:08:18,JOHN O'KEEFE-DEPUTY SUPERINTENDENT OF SCHOOLS,"EFPR GROUP CPA'S, PLLC","6390 MAIN STREET, SUITE 200",,WILLIAMSVILLE,NY,14221,"DOUGLAS E. ZIMMERMAN, CPA",PARTNER,7166340700,,SFSAC@EFPRGROUP.COM,10/14/2019 10:58:58,,O,,U,N,N,N,N,U,750000,Y,,7039299,,N,N,N,N,N,N,,10,10/14/2019 00:00:00,10/17/2019 01:30:06,,N,505,1,x00,10/14/2019 00:00:00,,N,JOHN O'KEEFE,DEPUTY SUPERINTENDENT OF SCHOOLS,10/14/2019 00:00:00,474526160,N,,N,N,,,,,Non-profit,UG,,10/28/2019 15:28:48,10/31/2019 09:48:47,N,G,07/01/2018 00:00:00,,,,US
1326875,1741512019,2019,174151,08/31/2019 00:00:00,S,A,,N,746000647,,N,099584971,CUERO INDEPENDENT SCHOOL DISTRICT ,960 E BROADWAY,,CUERO,TX,77954,MARK IACOPONELLI,ASSISTANT SUPERINTENDENT,3612751913,,MIACOPONELLI@CUEROISD.ORG,01/22/2020 16:01:48,MARK IACOPONELLI-ASSISTANT SUPERINTENDENT,HARRY AFADAPA & ASSOCIATES,11104 W AIRPORT SUITE 117,,STAFFORD,TX,77477,HARRY AFADAPA,PRESIDENT,3462192665,,HARRY@AFADAPA.COM,01/23/2020 12:18:11,,O,,U,N,N,N,N,,750000,Y,,2793678,,N,N,N,N,N,N,,84,01/23/2020 00:00:00,02/22/2020 01:30:16,,N,505,1,x00,01/23/2020 00:00:00,,N,MARK IACOPONELLI,ASSISTANT SUPERINTENDENT,01/23/2020 00:00:00,760667729,N,,N,N,,,,,Local government,UG,,03/09/2020 15:14:24,03/12/2020 08:04:07,N,G,09/01/2018 00:00:00,,,,US
1317542,1867032019,2019,186703,06/30/2019 00:00:00,S,A,,N,216000052,,N,,ATLANTIC COUNTY VOCATIONAL SCHOOL DISTRICT,5080 ATLANTIC AVENUE,,MAYS LANDING,NJ,08330,LISA MOONEY,BUSINESS ADMINISTRATOR,6096252249,,LMOONEY@ACITECH.ORG,12/13/2019 16:27:42,LISA MOONEY-BUSINESS ADMINISTRATOR,"FORD, SCOTT & ASSOCIATES, L.L.C.",1535 HAVEN AVENUE,,OCEAN CITY,NJ,08226,LEON COSTELLO,CPA,6093996333,,LCOSTELLO@FORD-SCOTT.COM,12/10/2019 11:37:39,,O,,U,N,N,N,N,U,750000,Y,,1661517,,N,N,N,N,N,N,,84,12/13/2019 00:00:00,01/14/2020 01:30:14,,N,105,1,x00,12/13/2019 00:00:00,,N,LISA MOONEY,BUSINESS ADMINISTRATOR,11/20/2019 00:00:00,222087086,N,,N,N,,,,,Local government,UG,,02/12/2020 12:27:40,02/13/2020 10:36:38,N,G,07/01/2018 00:00:00,,,,US
1305404,2371532019,2019,237153,06/30/2019 00:00:00,S,A,,N,264194584,,N,,THE VILLAGE OF SAGE GROVE HOUSING CORP PVM KALAMAZOO SR HSG 047-EE049 ,"26200 LAHSER RD, SUITE 300",,SOUTHFIELD,MI,480337157,ANDRE DAVIS,VP OF FINANCE,2482812030,,ADAVIS@PVM.ORG,09/30/2019 06:45:53,ANDRE DAVIS-VP OF FINANCE,"PLANTE & MORAN, PLLC",27400 NORTHWESTERN HIGHWAY,,SOUTHFIELD,MI,480340307,YVONNE MCNULTY,PARTNER,2483522500,,PM.SINGLEAUDIT@PLANTEMORAN.COM,09/28/2019 17:35:58,,O,,U,N,N,N,N,U,750000,Y,,3615602,,N,N,N,N,N,N,,14,09/30/2019 00:00:00,10/02/2019 01:30:11,,N,903,1,x00,09/30/2019 00:00:00,,N,ANDRE DAVIS,VP OF FINANCE,09/30/2019 00:00:00,381357951,N,,N,N,,,,,Non-profit,UG,,,,,,07/01/2018 00:00:00,,,,US
1380673,2394112019,2019,239411,06/30/2019 00:00:00,S,A,,N,201257901,,N,796331770,FAMILY RESOURCE CENTER SOUTH ATLANTIC,3825 BAXTER DRIVE,,RALEIGH,NC,27609,DERRICK BYRD,EXECUTIVE DIRECTOR,9198349300,,DBYRD@FRCSA.ORG,05/10/2021 12:55:18,DERRICK BYRD-EXECUTIVE DIRECTOR,"JAMES A. WALL, JR., CPA",P.O. BOX 4035,,CARY,NC,27519,"JAMES A. WALL, JR",OWNER,9192195724,,JWALLCPA@GMAIL.COM,05/08/2021 14:07:16,,O,,U,N,N,N,N,U,750000,Y,,1462324,,N,N,N,Y,Y,N,,93,05/10/2021 00:00:00,05/12/2021 01:30:03,,N,888,1,x17x93,11/19/2020 00:00:00,,N,DERRICK BYRD,EXECUTIVE DIRECTOR,11/19/2020 00:00:00,471160108,N,,N,N,,,,,Non-profit,UG,,,,,,07/01/2018 00:00:00,,,,
1332624,2311002019,2019,231100,06/30/2019 00:00:00,S,A,,N,593717146,,N,,"RIDGEVIEW GLOBAL STUDIES ACADEMY, INC. ",1000 DUNSON ROAD,,LAKELAND,FL,33896,RALPH FRIER,EXECUTIVE DIRECOR,8634193171,,RALPH.FRIER@POLK-FL.NET,03/14/2020 15:17:48,RALPH FRIER-EXECUTIVE DIRECTOR,"MCCRADY AND ASSOCIATES, PLLC",107 WATER OAK LANE,,ALTAMONTE SPRINGS,FL,32714,STACY MCCRADY,MANAGING MEMBER,4079604429,,SMCCRADY@MCCRADYANDASSOCIATES.COM,03/14/2020 14:21:47,,O,,U,N,N,N,N,U,750000,N,,7183960,,N,N,N,N,N,N,,10,03/14/2020 00:00:00,03/19/2020 01:30:15,,N,905,1,x00,03/14/2020 00:00:00,,N,RALPH FRIER,EXECUTIVE DIRECTOR,03/14/2020 00:00:00,822180420,N,,N,N,,,,,Local government,UG,,04/20/2020 10:04:04,04/23/2020 14:04:50,,N,07/01/2018 00:00:00,,,,US
1350544,1863202019,2019,186320,12/31/2019 00:00:00,S,A,,N,416005826,,Y,080228497,LAKE COUNTY,601 THIRD AVE,,TWO HARBORS,MN,55616,LINDA LIBAL,COUNTY AUDITOR/TREASURER,2188348358,,LINDA.LIBAL@CO.LAKE.MN.US,12/15/2020 19:24:13,LINDA LIBAL-LAKE COUNTY AUDITOR-TREASURER,OFFICE OF THE STATE AUDITOR,525 PARK STREET SUITE 500,,ST. PAUL,MN,55103,JULIE BLAHA,STATE AUDITOR,6512965905,,STATE.AUDITOR@STATE.MN.US,12/28/2020 15:55:11,,O,,U,Y,N,N,N,U,750000,Y,,4224648,,N,N,N,N,N,N,,10,12/28/2020 00:00:00,01/01/2021 01:30:04,,N,100,1,x00,12/28/2020 00:00:00,,N,LINDA LIBAL,LAKE COUNTY AUDITOR-TREASURER,12/28/2020 00:00:00,416007162,N,,Y,N,,,,,Local government,UG,,01/09/2021 14:17:51,01/14/2021 06:24:59,,N,01/01/2019 00:00:00,,,,US
1309315,2103212019,2019,210321,06/30/2019 00:00:00,S,A,,N,520848408,,N,,"THE HARRY AND JEANETTE WEINBERG PLACE, INC.  052-SH009",5809 PARK HEIGHTS AVENUE,,BALTIMORE,MD,21215,ROY KIEWE,DIRECTOR OF ASSET MANAGEMENT,4105005312,,RKIEWE@CHAIBALTIMORE.ORG,10/03/2019 17:23:30,"ROY KIEWE-VP, ASSET MANAGEMENT",COHNREZNICK LLP,500 EAST PRATT STREET SUITE 400,,BALTIMORE,MD,21202,LUCAS MATESA,PARTNER,4107837186,,LUCAS.MATESA@COHNREZNICK.COM,10/04/2019 09:05:39,,O,,U,N,N,N,N,U,750000,Y,,1826394,,N,N,N,N,N,N,,14,10/04/2019 00:00:00,10/08/2019 01:30:28,,N,903,1,x00,10/04/2019 00:00:00,,N,ROY KIEWE,"VP, ASSET MANAGEMENT",10/04/2019 00:00:00,221478099,N,,N,N,,,,,Non-profit,UG,,,,,,07/01/2018 00:00:00,,,,US
1321622,2455442019,2019,245544,06/30/2019 00:00:00,S,A,,N,472461177,,N,079782576,SOUTH CENTRAL TRANSIT AUTHORITY ,45 ERICK ROAD,,LANCASTER,PA,17601,DAVID KILMER,EXECUTIVE DIRECTOR,7173975613,,DKILMER@SCTAPA.COM,12/27/2019 08:40:14,DAVID W. KILMER-EXECUTIVE DIRECTOR,RKL LLP,1800 FRUITVILLE PIKE,,LANCASTER,PA,176014063,MARK ZETTLEMOYER,PARTNER,7173945666,,MZETTLEMOYER@RKLCPA.COM,12/26/2019 16:16:44,,O,,U,N,N,N,N,U,750000,Y,,16160964,,N,N,N,N,N,N,,20,12/27/2019 00:00:00,02/05/2020 01:30:08,,N,888,1,x00,12/27/2019 00:00:00,,N,DAVID W. KILMER,EXECUTIVE DIRECTOR,11/20/2019 00:00:00,232108173,N,,N,N,,,,,Local government,UG,,,,,,07/01/2018 00:00:00,,,,US
1312339,643142019,2019,64314,05/31/2019 00:00:00,S,A,,N,420680332,,N,,IOWA WESLEYAN UNIVERSITY ,601 N. MAIN ST. ,,MT. PLEASANT,IA,52641,CHRIS PLUNKETT,PRESIDENT,3193856206,,CHRIS.PLUNKETT@IW.EDU,10/23/2019 13:06:11,CHRIS PLUNKETT-PRESIDENT,"TDT CPAS AND ADVISORS, P.C.","1245 JORDAN CREEK PKWY, STE 100",,WEST DES MOINES,IA,50266,COURTNEY L. DE RONDE,PRINCIPAL,6416289411,,COURTNEYDR@TDTPC.COM,10/23/2019 13:35:06,,O,,U,N,N,N,N,U,750000,N,,4986640,,N,N,N,N,N,N,,84,10/23/2019 00:00:00,10/25/2019 01:30:11,,N,904,1,x00,10/23/2019 00:00:00,,N,CHRIS PLUNKETT,PRESIDENT,10/23/2019 00:00:00,421029744,N,,N,N,,,,,Institution of higher education (IHE),UG,00187100,11/08/2019 08:51:13,11/14/2019 08:20:32,N,S,06/01/2018 00:00:00,,,,US
1326339,1746882019,2019,174688,08/31/2019 00:00:00,S,A,,N,746000412,,N,083472621,BRIDGE CITY ISD ,1031 W. ROUNDBUNCH RD,,BRIDGE CITY,TX,77611,MELINDA JAMES,BUSINESS MANAGER,4097351530,,MELINDA.JAMES@BRIDGECITYISD.NET,01/29/2020 10:22:26,MELINDA JAMES-BUSINESS MANAGER,KERI MICHUTKA CPA PLLC,1906 TEXAS AVE,,BRIDGE CITY,TX,77611,KERI MICHUTKA,OWNER,4097353535,,KERICPA@HOTMAIL.COM,01/30/2020 09:31:54,,O,,U,N,N,N,N,U,750000,Y,,2405623,,N,N,N,N,N,N,,84,01/30/2020 00:00:00,02/26/2020 01:30:08,,N,505,1,x00,01/30/2020 00:00:00,,N,MELINDA JAMES,BUSINESS MANAGER,01/30/2020 00:00:00,464950404,N,,N,N,,,,,State,UG,,03/13/2020 13:41:02,03/19/2020 07:44:01,N,G,09/01/2018 00:00:00,,,,US
1336992,2258812019,2019,225881,12/31/2019 00:00:00,S,A,,N,201910170,,N,614532419,GAMELIN WASHINGTON ASSOCIATION ,1423 FIRST AVE,,SEATTLE,WA,98101,DANILO MAGNO,DIRECTOR OF FINANCE SUPPORTIVE HOUSING,4256873688,,DANILO.MAGNO@PROVIDENCE.ORG,04/17/2020 18:23:43,DANILO MAGNO-DIRECTOR OF FINANCE PROVIDENCE SUPPORTIVE HOUSING,"LOVERIDGE HUNT & CO., PLLC","14725 SE 36TH ST, SUITE 401",,BELLEVUE,WA,980061606,SAI CHEUNG,AUDIT MANAGER,4254532088,,SCHEUNG@LOVERIDGEHUNTCPA.COM,04/17/2020 18:09:24,,O,,U,N,N,N,N,U,750000,Y,,5649517,,N,N,N,N,N,N,,14,04/17/2020 00:00:00,05/08/2020 01:30:07,,N,903,1,x00,04/17/2020 00:00:00,,N,DANILO MAGNO,DIRECTOR OF FINANCE PROVIDENCE SUPPORTIVE HOUSING,04/17/2020 00:00:00,911347576,N,,N,N,,,,,Non-profit,UG,,,,,,01/01/2019 00:00:00,,,,US
1343759,2276492019,2019,227649,06/30/2019 00:00:00,S,A,,N,331061332,,N,112318634,AIRPORT AUTHORITY OF THE COUNTY OF SCOTTSBLUFF WESTERN NE REGIONAL,250023 AIRPORT TERMINAL SUITE 10,,SCOTTSBLUFF,NE,69361,DANA J WEBER,ACCOUNTANT,3086353008,,DANA@DANAJWEBERCPA.COM,07/24/2020 17:33:43,DANA WEBER-ACCOUNTANT,"AMGL, PC",PO BOX 1407,,GRAND ISLAND,NE,688021407,"JOSEPH STUMP, CPA",SHAREHOLDER,3083811810,,JSTUMP@GICPAS.COM,07/23/2020 10:02:24,,O,,U,Y,N,N,N,U,750000,N,,866021,,N,N,N,N,N,N,,97,07/24/2020 00:00:00,07/28/2020 01:30:03,,N,401,1,x00,07/24/2020 00:00:00,,N,DANA WEBER,ACCOUNTANT,07/24/2020 00:00:00,470589915,N,,Y,N,,,,,Local government,UG,,,,,,07/01/2018 00:00:00,,,,US
1320521,229162019,2019,22916,06/30/2019 00:00:00,S,A,,N,222635303,,N,,"NORTHERN MAINE DEVELOMENT COMMISSION, INC. ",11 WEST PRESQUE ISLE ROAD,,CARIBOU,ME,04736,ROBERT CLARK,EXECUTIVE DIRECTOR,2074935762,,RCLARK@NMDC.ORG,01/02/2020 08:08:11,MARY DAHLGREN-FINANCE DIRECTOR,RHR SMITH & COMPANY,3 OLD ORCHARD ROAD,,BUXTON,ME,04093,MAUREEN FINGER,QUALITY CONTROL SPECIALIST,2073182802,,MFINGER@RHRSMITH.COM,01/02/2020 07:56:09,,O,,U,N,N,N,N,U,750000,Y,,3232315,,N,N,N,N,N,N,,11,01/02/2020 00:00:00,02/07/2020 01:30:07,,N,909,1,x00,01/02/2020 00:00:00,,N,MARY DAHLGREN,FINANCE DIRECTOR,01/02/2020 00:00:00,043383155,N,,N,N,,,,,Non-profit,UG,,,,,,07/01/2018 00:00:00,,,,US
1306889,2469542019,2019,246954,06/30/2019 00:00:00,S,A,,N,720439000,,Y,087648341,SAINT JOSEPH ABBEY AND SEMINARY COLLEGE,75376 RIVER ROAD,,SAINT BENEDICT,LA,70457,JENNIFER WHITEHOUSE,FINANCIAL DIRECTOR,9858672240,,JWHITEHOUSE@SJASC.EDU,09/26/2019 23:43:31,JENNIFER WHITEHOUSE-CFO,"PACIERA, GAUTREAU & PRIEST, LLC","3209 RIDGELAKE DR., STE. 200",,METAIRIE,LA,70002,TIMOTHY PRIEST,LLC MEMBER,5044865573,,TPRIEST@PGPCPA.COM,09/26/2019 11:32:59,,O,,Q,N,Y,N,N,U,750000,N,,3789566,,N,N,N,N,N,N,,84,09/27/2019 00:00:00,10/01/2019 01:30:19,,N,888,1,x00,09/27/2019 00:00:00,,N,JENNIFER WHITEHOUSE,CFO,09/27/2019 00:00:00,720600718,Y,,N,N,,,,,Non-profit,UG,00202700,10/01/2019 14:21:45,10/03/2019 13:44:47,N,S,07/01/2018 00:00:00,,,,US
1325161,1869702019,2019,186970,09/30/2019 00:00:00,S,A,,N,820474066,,N,155993603,FRIEDMAN MEMORIAL AIRPORT AUTHORITY ,1616 AIRPORT CIRCLE,,HAILEY,ID,83333,LISA EMERICK,CONTRACTS & FINANCE MANAGER,2087884956,,LISA@IFLYSUN.COM,01/13/2020 13:15:51,LISA EMERICK-CONTRACTS/FINANCE ADMINISTRATOR,HARRIS CPAS,2289 S BONITO WAY STE 100,,MERIDIAN,ID,83642,KEVIN CONGO,AUDIT MANAGER,2083338965,,KEVINCONGO@HARRISCPAS.COM,01/10/2020 10:37:59,,O,,U,N,N,N,N,U,750000,N,,1540903,,N,N,N,N,N,N,,20,01/13/2020 00:00:00,02/19/2020 01:30:14,,N,401,1,x00,01/13/2020 00:00:00,,N,LISA EMERICK,CONTRACTS/FINANCE ADMINISTRATOR,01/13/2020 00:00:00,264022510,N,,N,N,,,,,Local government,UG,,,,,,10/01/2018 00:00:00,,,,US
1316831,1026882019,2019,102688,07/31/2019 00:00:00,S,A,,N,742321009,,N,139504641,HILLTOP HEALTH SERVICES CORPORATION,1331 HERMOSA AVENUE,,GRAND JUNCTION ,CO,815064099,CARTER BAIR,CFO,9702424400,,CARTERB@HTOP.ORG,12/06/2019 16:57:35,CARTER BAIR-CHIEF FINANCIAL OFFICER,"EIDE BAILLY, LLP","7001 E BELLEVIEW AVENUE, SUITE 700",,"EIDE BAILLY, LLP",CO,802372733,PEGGY JENNINGS,PARTNER,3035395911,,PJENNINGS@EIDEBAILLY.COM,12/05/2019 11:09:56,,O,,U,N,N,N,N,U,750000,N,,4472888,,N,N,N,N,Y,N,,93,12/06/2019 00:00:00,12/31/2019 01:30:22,,N,908,1,x00x17,12/06/2019 00:00:00,,N,CARTER BAIR,CHIEF FINANCIAL OFFICER,11/20/2019 00:00:00,420250958,N,,N,N,,,,,Non-profit,UG,,,,,,08/01/2018 00:00:00,,,,US
1341760,2495572019,2019,249557,12/31/2019 00:00:00,S,A,,N,710448811,,N,,"CITY OF HUNTINGTON, ARKANSAS WATER & SEWER DEPARTMENT",P.O. BOX 27,,HUNTINGTON,AR,72940,SHARION TRANTHAM,RECORDER/TREASURER,4799285083,,CITY113@CENTURYTEL.NET,06/24/2020 10:11:00,SHARION TRANTHAM-RECORDER/TREASURER,"PRZYBYSZ & ASSOCIATES, CPAS, P.C.","4200 JENNY LIND RD., STE. B",,FORT SMITH,AR,72901,"MARC LUX, CPA",AUDIT PARTNER,4796490888,,MARCL@SELECTLANDING.COM,06/23/2020 09:23:45,,O,,U,N,N,N,N,U,750000,N,,898778,,N,N,N,N,N,N,,10,06/24/2020 00:00:00,06/27/2020 01:30:06,,N,888,1,x00,06/24/2020 00:00:00,,N,SHARION TRANTHAM,RECORDER/TREASURER,06/24/2020 00:00:00,202759879,N,,N,N,,,,,Local government,UG,,,,,,01/01/2019 00:00:00,,,,US
1357409,1847472019,2019,184747,12/31/2019 00:00:00,S,A,,N,911209091,,N,803857184,KITSAP COUNTY PUBLIC TRANSPORTATION BENEFIT AREA,60 WASHINGTON AVE SUITE 200,,BREMERTON,WA,98337,PAUL SHINNERS,FINANCE DIRECTOR,3608244908,,PAULS@KITSAPTRANSIT.COM,12/14/2020 15:18:53,PAUL SHINNERS-FINANCE DIRECTOR,OFFICE OF THE WASHINGTON STATE AUDITOR,451 SW SEDGWICK RD SUITE 200,,PORT ORCHARD,WA,98367,CAROL EHLINGER,PROGRAM MANAGER,3608956133,,EHLINGERC@SAO.WA.GOV,12/14/2020 15:49:12,,O,,U,N,N,N,N,U,750000,Y,,9145103,,N,N,N,N,N,N,,20,12/14/2020 00:00:00,12/16/2020 01:30:03,,N,406,1,x00,12/14/2020 00:00:00,,N,PAUL SHINNERS,FINANCE DIRECTOR,12/14/2020 00:00:00,916001098,N,,N,N,,,,,Local government,UG,,,,,,01/01/2019 00:00:00,,,,US
1339520,1816362019,2019,181636,12/31/2019 00:00:00,S,A,,N,061001581,,N,932920143,LYMES ELDERLY HOUSING INC,249 BOSTON POST ROAD,,OLD LYME,CT,063711315,MARIE LAPOINTE,"COMPTROLLER, EHM",2032304809,,MLAPOINTE@EHMCHM.ORG,05/27/2020 11:54:32,VIVIAN SENFT-SECRETARY,KIRCALDIE RANDALL & MCNAB LLC,605 WASHINGTON AVENUE,,NORTH HAVEN,CT,064731187,"BRAIN S BORGERSON, CPA",PARTNER,2032394478,,BBORG@KRMCPA.COM,05/21/2020 14:43:48,,O,,U,N,N,N,N,U,750000,Y,,1361077,,N,N,N,N,N,N,,10,05/27/2020 00:00:00,05/29/2020 01:30:06,,N,903,1,x00,05/27/2020 00:00:00,,N,VIVIAN SENFT,SECRETARY,05/27/2020 00:00:00,060415530,N,,N,N,,,,,Non-profit,UG,,,,,,01/01/2019 00:00:00,,,,US
1318420,2044182019,2019,204418,06/30/2019 00:00:00,S,A,,N,216000108,,N,,ABSECON BOARD OF EDUCATION,800 IRELAN AVENUE,,ABSECON,NJ,08201,TINA MARUCA,BUSINESS ADMINISTRATOR,6096415375,,TMARUCA@ABSECONSCHOOLS.ORG,12/16/2019 10:22:21,TINA MARUCA-BUSINESS ADMINISTRATOR,"FORD, SCOTT & ASSOCIATES, L.L.C.",1535 HAVEN AVENUE,,OCEAN CITY,NJ,08226,LEON COSTELLO,CPA,6093996333,,LCOSTELLO@FORD-SCOTT.COM,12/11/2019 15:27:35,,O,,U,N,N,N,N,U,750000,Y,,1237747,,N,N,N,N,N,N,,84,12/16/2019 00:00:00,01/16/2020 01:30:18,,N,505,1,x00,12/16/2019 00:00:00,,N,TINA MARUCA,BUSINESS ADMINISTRATOR,11/20/2019 00:00:00,222087086,N,,N,N,,,,,Local government,UG,,02/18/2020 15:51:13,02/20/2020 10:14:18,N,G,07/01/2018 00:00:00,,,,US
1327706,2154842019,2019,215484,08/31/2019 00:00:00,S,A,,N,746000203,,N,929860674,UNIVERSITY OF TEXAS-UNIVERSITY CHARTER SCHOOL,2200 EAST 6TH STREET,,AUSTIN,TX,78702,JENNY DAVIS,DIRECTOR OF FINANCE,5124711434,,JENNYDAVIS@AUSTIN.UTEXAS.EDU,01/29/2020 09:25:20,JENNY DAVIS-DIRECTOR OF FINANCE,"WEST, DAVIS & COMPANY, LLP","11824 JOLLYVILLE ROAD, SUITE 100",,AUSTIN,TX,78759,"GARY DAVIS, CPA",PARTNER,5123400222,,GARY@WESTDAVIS.COM,01/30/2020 16:07:23,,O,,U,N,N,N,N,U,750000,Y,,1425984,,N,N,N,N,N,N,,84,01/30/2020 00:00:00,02/26/2020 01:30:08,,N,905,1,x00,01/30/2020 00:00:00,,N,JENNY DAVIS,DIRECTOR OF FINANCE,01/30/2020 00:00:00,742638320,N,,N,N,,,,,Local government,UG,,03/13/2020 13:42:35,03/19/2020 07:44:01,N,G,09/01/2018 00:00:00,,,,US
1308774,1012322019,2019,101232,05/31/2019 00:00:00,S,A,,N,741159753,,N,007516735,BAYLOR UNIVERSITY,"700 S. UNIVERSITY PARKS DRIVE, SUITE 670",,WACO,TX,767061024,SUSAN ANZ,VICE PRESIDENT OF FINANCE,2547103731,,SUSAN_ANZ@BAYLOR.EDU,10/24/2019 21:52:07,SUSAN ANZ-VICE PRESIDENT OF FINANCE,GRANT THORNTON LLP,"1717 MAIN STREET, SUITE 1800",,DALLAS,TX,75201,DEBBIE ROLLINS,AUDIT PARTNER,2145612368,,DEBBIE.ROLLINS@US.GT.COM,10/22/2019 23:05:25,,C,84,U,N,N,N,N,U,750000,Y,,144538969,,Y,N,Y,Y,N,N,,,10/24/2019 00:00:00,10/26/2019 01:30:06,,N,904,1,x84x00,10/24/2019 00:00:00,,N,SUSAN ANZ,VICE PRESIDENT OF FINANCE,10/24/2019 00:00:00,366055558,N,,N,Y,,,,,Non-profit,UG,00354500,10/25/2019 10:48:28,10/31/2019 09:48:47,S,B,06/01/2018 00:00:00,,,,US
1342021,2390832019,2019,239083,12/31/2019 00:00:00,S,A,,N,450676029,,N,078634739,"SUSTAINABLE TERMINAL SERVICES, INC.",25 W 8TH ST ,,BAYONNE,NJ,07002,JOHN ATKINS,CHAIRMAN OF THE BOARD OF TRUSTEES,2017064001,,JATKINS@GLOBAL-TERMINAL.COM,07/21/2020 12:52:35,JOHN ATKINS-CHAIRMAN,WITHUMSMITH+BROWN,1 TOWER CENTER BLVD 14TH FLOOR,,EAST BRUNSWICK,NJ,08816,JIM MULROY,PARTNER,7329649359,,JMULROY@WITHUM.COM,07/06/2020 10:55:43,,O,,U,N,N,N,N,U,750000,N,,1091303,,N,N,N,N,N,N,,97,07/21/2020 00:00:00,07/24/2020 01:30:06,,N,888,1,x00,07/21/2020 00:00:00,,N,JOHN ATKINS,CHAIRMAN,07/21/2020 00:00:00,222027092,N,,N,N,,,,,Non-profit,UG,,,,,,01/01/2019 00:00:00,,,,US
1338307,2128622019,2019,212862,12/31/2019 00:00:00,S,A,,N,113289580,,N,,"MRC HOUSING DEVELOPMENT FUND COMPANY, INC 102-EE131 ",539 ALABAMA AVE ,,BROOKLYN ,NY,112076263,BEATA ZIELINSKA ,PROPERTY ACCOUNTANT ,8453682400,,BZIELINSKA@MMSGROUP.COM,05/04/2020 16:31:25,BEATA ZIELINSKA-PROPERTY ACCOUNTANT,CARTER & COMAPNY CPA LLC ,"543 HARBOR BLVD., SUITE 201",,DESTIN,FL,32541,DAVID BELL ,AUDIT PARTNER ,8506500125,,DAVID@CARTERCPA.NET,05/04/2020 11:34:05,,O,,U,N,N,N,N,U,750000,Y,,5711890,,N,N,N,N,N,N,,14,05/04/2020 00:00:00,05/06/2020 01:30:07,,N,903,1,x00,05/04/2020 00:00:00,,N,BEATA ZIELINSKA,PROPERTY ACCOUNTANT,05/04/2020 00:00:00,582646754,N,,N,N,,,,,Non-profit,UG,,,,,,01/01/2019 00:00:00,,,,US
1305112,1853032019,2019,185303,06/30/2019 00:00:00,S,A,,N,311488740,,N,105520956,"LUTHERAN SS CENTRAL  OH/ VILLAGE HSG, INC./VILLAGE PLACE 043EE049NPWAH","500 W. WILSON BRIDGE ROAD, SUITE 245",,WORTHINGTON,OH,43085,PHIL HELSER,CHIEF FINANCIAL OFFICER,6142285200,,PHELSER@LSSNETWORKOFHOPE.ORG,10/16/2019 12:35:47,PHIL HELSER-CFO,"PLANTE & MORAN, PLLC","250 SOUTH HIGH STREET, SUITE 100",,COLUMBUS,OH,43215,JASON GIHA,PARTNER,6148493000,,PM.SINGLEAUDIT@PLANTEMORAN.COM,09/30/2019 21:16:24,,O,,U,N,N,N,N,U,750000,Y,,2928028,,N,N,N,N,N,N,,14,10/17/2019 00:00:00,10/20/2019 01:30:06,,N,903,1,x00,10/17/2019 00:00:00,,N,PHIL HELSER,CFO,10/17/2019 00:00:00,381357951,N,,N,N,,,,,Non-profit,UG,,,,,,07/01/2018 00:00:00,,,,US
1314718,2012522019,2019,201252,06/30/2019 00:00:00,S,A,,N,310826922,,N,084751403,BUTLER TECHNOLOGY AND CAREER DEVELOPMENT SCHOOLS ,3603 HAMILTON MIDDLETOWN ROAD,,HAMILTON ,OH,45011,PAUL CARPENTER,TREASURER,5138681911,,CARPENTERP@BUTLERTECH.ORG,12/06/2019 07:31:34,PAUL CARPENTER-TREASURER/CFO,OHIO AUDITOR OF STATE,88 E. BROAD STREET,,COLUMBUS,OH,43215,LOREN CRISP,CHIEF AUDITOR,5133618550,,DCF-SOUTHWEST@OHIOAUDITOR.GOV,12/05/2019 12:32:23,,O,,U,N,N,N,N,U,750000,Y,,3043582,,N,N,N,N,N,N,,84,12/06/2019 00:00:00,12/24/2019 01:30:06,,N,505,1,x00,12/06/2019 00:00:00,,N,PAUL CARPENTER,TREASURER/CFO,11/20/2019 00:00:00,311334820,N,,N,N,,,,,Local government,UG,02192100,01/29/2020 14:52:04,01/30/2020 08:57:21,N,B,07/01/2018 00:00:00,,,,US
1344377,2486702019,2019,248670,12/31/2019 00:00:00,S,A,,N,473594688,,N,080603993,GLOBAL FUND TO END MODERN SLAVERY,"1201 WILSON BLVD, SUITE 26-103",,ARLINGTON,VA,22209,CRAIG SARSONY,SENIOR DIRECTOR OF FINANCE & OPERATIONS,3018070847,,CRAIG.SARSONY@GFEMS.ORG,08/04/2020 13:30:31,"CRAIG SARSONY-SR. DIRECTOR, FINANCE & OPERATIONS","BDO USA, LLP",8401 GREENSBORO DRIVE,,MCLEAN,VA,22102,LESLIE PINE,PARTNER,7037706334,,LPINE@BDO.COM,08/04/2020 12:54:47,,O,,U,N,N,N,N,U,750000,N,,7653088,,N,N,N,N,Y,N,,19,08/04/2020 00:00:00,08/06/2020 01:30:08,,N,888,1,X,08/04/2020 00:00:00,,N,CRAIG SARSONY,"SR. DIRECTOR, FINANCE & OPERATIONS",08/04/2020 00:00:00,135381590,N,,N,N,,,,,Non-profit,UG,,,,,,01/01/2019 00:00:00,,,,US
1316437,717702019,2019,71770,06/30/2019 00:00:00,S,A,,N,510175975,,N,081677395,"BORICUA COLLEGE, INC.",3755 BROADWAY,,NEW YORK,NY,10032,ELIAS OYOLA,DIRECTOR OF FINANCE,2126941000,,EOYOLA@BORICUACOLLEGE.EDU,11/15/2019 10:06:47,ELIAS OYOLA-FINANCE DIRECTOR,WITHUMSMITH&BROWN,1411 BROADWAY,,NEW YORK,NY,100183496,CATHERINE BENDALL,PARTNER,6466044180,,CBENDALL@WITHUM.COM,11/15/2019 09:54:54,,O,,U,N,N,N,N,U,750000,N,,11459772,,N,N,N,N,Y,N,,84,11/22/2019 00:00:00,12/12/2019 01:30:05,,N,904,1,x84x00,11/22/2019 00:00:00,,N,ELIAS OYOLA,FINANCE DIRECTOR,11/20/2019 00:00:00,222027092,N,,N,N,,,,,Institution of higher education (IHE),UG,01302900,01/21/2020 14:53:04,01/30/2020 08:57:21,N,S,07/01/2018 00:00:00,,,,US
1367478,1290862019,2019,129086,09/30/2019 00:00:00,S,A,,N,636001694,,N,075461137,SHELBY COUNTY COMMISSION,200 WEST COLLEGE STREET,,COLUMBIANA,AL,35051,CHERYL NAUGHER,CHIEF FINANCIAL OFFICER,2056706505,,CNAUGHER@SHELBYAL.COM,06/16/2021 09:34:05,CHERYL NAUGHER-CHIEF FINANCIAL OFFICER,STATE OF ALABAMA DEPARTMENT OF EXAMINERS OF PUBLIC ACCOUNTS,401 ADAMS AVENUE,,MONTGOMERY,AL,36104,GWYN GRIGGS,ASSISTANT COUNTY DIVISION DIRECTOR,2569278649,,GWYN.GRIGGS@EXAMINERS.ALABAMA.GOV,06/16/2021 09:53:55,,O,,U,N,N,N,N,U,750000,N,,828879,,N,N,N,N,N,N,,16,06/16/2021 00:00:00,06/19/2021 01:30:05,,N,100,1,x00,06/16/2021 00:00:00,,N,CHERYL NAUGHER,CHIEF FINANCIAL OFFICER,06/16/2021 00:00:00,636000619,N,,N,N,,,,,Local government,UG,,,,,,10/01/2018 00:00:00,,,,US
1338405,2222532019,2019,222253,12/31/2019 00:00:00,S,A,,N,421101630,,N,189026750,"ALLAMAKEE HOUSING, INC. ",607 2ND ST SW,,WAUKON,IA,52172,AUBREY FLICK,ACCOUNTING MANAGER,6087842935,,AFLICK@HORIZON-MANAGEMENT.NET,06/12/2020 16:21:15,AUBREY FLICK-ACCOUNTING MANAGER,"HACKER, NELSON & CO., P.C.",123 WEST WATER ST,,DECORAH,IA,52101,NEIL W. SCHRAEDER,PARTNER,5633823637,,NSCHRAEDER@HACKERNELSON.COM,06/01/2020 11:15:29,,O,,U,N,N,N,N,U,750000,Y,,772947,,N,N,N,N,N,N,,10,06/12/2020 00:00:00,06/16/2020 01:30:09,,N,903,1,x00,06/12/2020 00:00:00,,N,AUBREY FLICK,ACCOUNTING MANAGER,06/12/2020 00:00:00,421040336,N,,N,N,,,,,Non-profit,UG,,,,,,01/01/2019 00:00:00,,,,US
1320929,1577562019,2019,157756,06/30/2019 00:00:00,S,A,,N,216000241,,N,,MATAWAN-ABERDEEN REGIONAL SCHOOL DISTRICT,1 CREST WAY,,ABERDEEN,NJ,07747,ALEX FERREIRA,BUSINESS ADMINISTRATOR/BOARD SECRETARY,7327054016,,AFERREIRA@MARSD.ORG,04/14/2020 16:54:21,ALEX FERREIRA-SCHOOL BUSINESS ADMINISTRATOR / BOARD SECRETARY,"SUPLEE, CLOONEY & COMPANY",308 EAST BROAD STREET,,WESTFIELD,NJ,07090,JOHN SWISHER,PARTNER,9087899300,,JSWISHER@SCNCO.COM,04/09/2020 08:22:59,,O,,U,N,N,N,N,U,750000,Y,,2138280,,N,N,N,N,N,N,,84,04/14/2020 00:00:00,05/07/2020 01:30:06,,N,505,1,x00,04/14/2020 00:00:00,,N,ALEX FERREIRA,SCHOOL BUSINESS ADMINISTRATOR / BOARD SECRETARY,04/14/2020 00:00:00,211427684,N,,N,N,,,,,Local government,UG,,05/15/2020 10:45:24,05/21/2020 16:59:01,N,G,07/01/2018 00:00:00,,,,US
1343588,1821712019,2019,182171,12/31/2019 00:00:00,S,A,,N,346401331,,N,167496546,"MENTAL HEALTH AND RECOVERY SERVICES BOARD OF SENECA, SANDUSKY, AND WYA",1200 NORTH STATE ROUTE 53,,TIFFIN,OH,448839799,MIRCEA HANDRU,EXECUTIVE DIRECTOR,4194480640,,DIRECTOR@MHRSBSSW.ORG,08/20/2020 09:52:04,MIRCEA HANDRU-EXECUTIVE DIRECTOR,"KEITH FABER, AUDITOR OF STATE OF OHIO","88 EAST BROAD STREET, P.O. BOX 1140",,COLUMBUS,OH,432161140,"JONATHAN A. LAWLESS, CFE",CHIEF AUDITOR,4192453095,,DCF-NORTHWEST@OHIOAUDITOR.GOV,08/19/2020 09:38:26,,O,,S,N,N,N,N,U,750000,N,,1531103,,N,N,N,N,N,N,,93,08/26/2020 00:00:00,08/28/2020 01:30:03,,N,109,1,X,08/26/2020 00:00:00,,N,MIRCEA HANDRU,EXECUTIVE DIRECTOR,08/26/2020 00:00:00,311334820,N,,N,N,CASH,N,U,,Local government,UG,,,,,,01/01/2019 00:00:00,,,,US
1323512,1627572019,2019,162757,06/30/2019 00:00:00,S,A,,N,316000064,,N,043325158,CITY OF CINCINNATI ,801 PLUM STREET,,CINCINNATI,OH,45202,MARK ASHWORTH,FINANCE MANAGER,5133525375,,MARK.ASHWORTH@CINCINNATI-OH.GOV,03/03/2020 15:40:29,MARK ASHWORTH-FINANCE MANAGER,"KEITH FABER, AUDITOR OF STATE",88 EAST BROAD STREET,,COLUMBUS,OH,43215,LOREN CRISP,CHIEF AUDITOR,5133618550,,DCF-SOUTHWEST@OHIOAUDITOR.GOV,02/28/2020 16:39:22,,O,,U,N,N,N,N,U,1443870,Y,,48129171,,N,N,N,N,N,N,,14,03/03/2020 00:00:00,03/12/2020 01:30:11,,N,200,1,x00,03/03/2020 00:00:00,,N,MARK ASHWORTH,FINANCE MANAGER,03/03/2020 00:00:00,311334820,N,,N,N,,,,,Local government,UG,,,,,,07/01/2018 00:00:00,,,,US
1315751,2397152019,2019,239715,06/30/2019 00:00:00,S,A,,N,731415388,,N,967180683,HARRAH SENIOR HOUSING CORPORATION II 117-EE005,P.O BOX 1062,,HARRAH,OK,73045,PEARSON PROPERTY MANAGEMENT,MANAGEMENT AGENT,4052936311,,PEARSONPROPERTY@COXINET.NET,11/13/2019 17:16:05,BARBARA PEARSON-MANAGING AGENT,"JOHN FLUSCHE, CPA",6851 S CANTON,,TULSA,OK,74136,JOHN FLUSCHE,CPA,9182612758,,CPA@OKLAHOMA.NET,11/14/2019 11:54:42,,O,,U,N,N,N,N,U,750000,Y,,1873239,,N,N,N,N,N,N,,14,11/14/2019 00:00:00,11/16/2019 01:30:21,,N,888,1,x00,11/14/2019 00:00:00,,N,BARBARA PEARSON,MANAGING AGENT,11/14/2019 00:00:00,731513650,N,,N,N,,,,,Non-profit,UG,,,,,,07/01/2018 00:00:00,,,,US
1332031,1646032019,2019,164603,06/30/2019 00:00:00,S,A,,N,346400533,,N,020280665,FREMONT CITY SCHOOL DISTRICT ,500 WEST STATE STREET SUITE A,,FREMONT,OH,43420,"IRA HAMMAN, CPA",TREASURER,4193345453,,HAMMANI@FREMONTSCHOOLS.NET,03/31/2020 09:02:32,IRA HAMMAN-TREASURER,"KEITH FABER, AUDITOR OF STATE",88 EAST BROAD STREET,,COLUMBUS,OH,432161140,"JONATHAN LAWLESS, CFE",CHIEF AUDITOR,4192452811,,DCF-NORTHWEST@OHIOAUDITOR.GOV,03/30/2020 13:27:17,,O,,U,N,N,N,N,U,750000,N,,4294490,,N,N,N,N,N,N,,84,03/31/2020 00:00:00,05/01/2020 01:33:52,,N,505,1,x00,03/31/2020 00:00:00,,N,IRA HAMMAN,TREASURER,03/31/2020 00:00:00,311334820,N,,N,N,,,,,Local government,UG,,05/08/2020 12:25:02,05/14/2020 18:21:05,N,G,07/01/2018 00:00:00,,,,US
1330892,2279632019,2019,227963,12/31/2019 00:00:00,S,A,,N,113799182,,N,806901026,"OCL PROPERTIES XI, INC.  012-HD134",25 HOWARD PLACE,,RONKONKOMA,NY,117797206,KAREN SCHWARTZ,DIRECTOR OF FINANCIAL SERVICES,6313619020,,KSCHWARTZ@OPTIONSCL.ORG,04/06/2020 13:47:22,KAREN SCHWARTZ-DIRECTOR OF FINANCIAL SERVICES,"BAKER TILLY VIRCHOW KRAUSE, LLP",125 BAYLIS ROAD,,MELVILLE,NY,117473823,ELLEN LABITA,PARTNER OF THE FIRM,6317527400,,ELLEN.LABITA@BAKERTILLY.COM,04/06/2020 13:25:12,,O,,U,N,N,N,N,U,750000,Y,,1992081,,N,N,N,N,N,N,,14,04/06/2020 00:00:00,05/05/2020 01:30:06,,N,903,1,x00,04/06/2020 00:00:00,,N,KAREN SCHWARTZ,DIRECTOR OF FINANCIAL SERVICES,04/06/2020 00:00:00,390859910,N,,N,N,,,,,Non-profit,UG,,,,,,01/01/2019 00:00:00,,,,US
1339594,2376412019,2019,237641,12/31/2019 00:00:00,S,A,,N,391612844,,N,832761691,LANDFILL VENTURE GROUP ,PO BOX 1269,,EAGLE RIVER,WI,54521,DEBBIE BROWN,CLERK/TREASURER,7154798682,,DABROWNCLERKTREASURER@CI.EAGLE-RIVER.WI.US,09/16/2020 10:09:47,DEBRA BROWN-DEPUTY SECRETARY / TREASURER,KERBERROSE SC,115 E FIFTH STREET,,SHAWANO,WI,54166,GREG PITEL,CPA,7155269400,,GREG.PITEL@KERBERROSE.COM,09/15/2020 16:17:51,,O,,U,N,Y,N,N,U,750000,N,,2519540,,N,Y,N,Y,N,N,,10,09/16/2020 00:00:00,09/18/2020 01:30:05,,N,909,1,X,09/16/2020 00:00:00,,N,DEBRA BROWN,DEPUTY SECRETARY / TREASURER,09/16/2020 00:00:00,391658423,Y,,N,N,,,,,Local government,UG,,,,,,01/01/2019 00:00:00,,,,US
1328866,1939112019,2019,193911,06/30/2019 00:00:00,S,A,,N,026000517,,N,,CITY OF MANCHESTER ,ONE CITY HALL PLAZA,,MANCHESTER,NH,03101,MAUREEN CAIL,FINANCIAL ANALYST II,6037926617,,MCAIL@MANCHESTERNH.GOV,04/07/2020 15:38:18,MAUREEN CAIL-FINANCIAL ANALYST II,MELANSON HEATH,102 PERIMETER ROAD,,NASHUA,NH,03063,PATRICK MOHAN,CERTIFIED PUBLIC ACCOUNTANT,6038821111,,PMOHAN@MELANSONHEATH.COM,04/07/2020 15:48:01,,O,,U,N,N,N,N,U,750000,Y,,12870266,,N,N,N,Y,N,N,,14,04/07/2020 00:00:00,05/06/2020 01:30:07,,N,200,1,x00,04/07/2020 00:00:00,,N,MAUREEN CAIL,FINANCIAL ANALYST II,04/07/2020 00:00:00,020354851,N,,N,N,,,,,Local government,UG,,,,,,07/01/2018 00:00:00,,,,US
1320604,1576692019,2019,157669,06/30/2019 00:00:00,S,A,,N,226002387,,N,,SCHOOL DISTRICT OF WEEHAWKEN,53 LIBERTY PLACE,,WEEHAWKEN,NJ,07086,MATTHEW WHITFORD,SCHOOL BOARD ADMINISTRATOR,2014226153,,MWHITFOR@WEEHAWKENSCHOOLS.NET,12/17/2019 11:59:45,MATTHEW WHITFORD-BUSINESS ADMINISTRATOR,GARBARINI & CO P.C. CPA'S,285 DIVISION AVENUE & ROUTE 17 S.,,CARLSTADT,NJ,07072,PAUL W. GARBARINI,PARTNER,2019335566,,OFFICEMGR@GARBARINICPA.COM,12/17/2019 11:02:08,,O,,U,Y,Y,N,N,U,750000,N,,1086950,,N,N,N,Y,Y,N,,93,12/17/2019 00:00:00,01/22/2020 01:30:17,,N,505,1,x84x00,12/17/2019 00:00:00,,N,MATTHEW WHITFORD,BUSINESS ADMINISTRATOR,11/20/2019 00:00:00,222854914,Y,,Y,N,,,,,Local government,UG,,02/12/2020 08:56:13,02/13/2020 10:36:38,N,G,07/01/2018 00:00:00,,,,US
1319771,1344372019,2019,134437,06/30/2019 00:00:00,S,A,,N,946033759,,Y,624511416,SONOMA COUNTY JUNIOR COLLEGE DISTRICT,1501 MENDOCINO AVENUE,,SANTA ROSA,CA,95401,KATE JOLLEY,"INTERIM VP, FINANCE AND ADMIN SERVICES",7075274413,,KJOLLEY@SANTAROSA.EDU,12/18/2019 21:52:45,KATE JOLLEY-INTERIM VP FINANCE & ADMIN SVCS,GILBERT CPAS,"2880 GATEWAY OAKS DRIVE, SUITE 100",,SACRAMENTO,CA,95833,PEGGY A. VANDE VOOREN,SHAREHOLDER,9166466464,,PEGGY@GILBERTCPA.COM,12/18/2019 23:12:34,,O,,U,N,N,N,N,U,750000,Y,,17749243,,N,N,N,N,N,N,,84,12/18/2019 00:00:00,01/25/2020 01:30:19,,N,504,1,x00,12/18/2019 00:00:00,,N,KATE JOLLEY,INTERIM VP FINANCE & ADMIN SVCS,11/20/2019 00:00:00,680037990,N,,N,N,,,,,Institution of higher education (IHE),UG,00128700,02/11/2020 13:53:36,02/13/2020 10:36:38,N,B,07/01/2018 00:00:00,,,,US
1303196,2273362019,2019,227336,06/30/2019 00:00:00,S,A,,N,363736904,,N,002635945,"SALEM VILLAGE III, INC. 071-44173","1001 E. TOUHY AVENUE, SUITE 50",,DES PLAINES,IL,600185817,LISA SROGA,CHIEF FINANCIAL OFFICER,8476354588,,LISA.SROGA@LSSI.ORG,12/05/2019 09:41:47,LISA SROGA-CFO,"BAKER TILLY VIRCHOW KRAUSE, LLP","777 E. WISCONSIN AVENUE, 32ND FLOOR",,MILWAUKEE,WI,532029832,"KRISTA PANKOP, CPA",PARTNER,4147775500,,KRISTA.PANKOP@BAKERTILLY.COM,12/05/2019 09:50:01,,O,,U,N,Y,N,N,U,750000,N,,15823258,,N,N,N,N,N,N,,14,12/09/2019 00:00:00,01/08/2020 01:30:10,,N,903,1,x00,12/09/2019 00:00:00,,N,LISA SROGA,CFO,11/20/2019 00:00:00,390859910,Y,,N,N,,,,,Non-profit,UG,,,,,,07/01/2018 00:00:00,,,,US
1355143,2005752019,2019,200575,12/31/2019 00:00:00,S,A,,N,540566472,,N,038534376,CHESAPEAKE REDEVELOPMENT AND HOUSING AUTHORITY,1468 S. MILITARY HIGHWAY,,CHESAPEAKE,VA,233202604,JUSTIN BROOKS,EXECUTIVE DIRECOR,7572336428,,JUSTIN_BROOKS@CRHAVA.ORG,11/16/2020 10:00:16,JUSTIN BROOKS-EXECUTIVE DIRECTOR,"RUBINO AND COMPANY, CHARTERED","6903 ROCKLEDGE DRIVE, SUITE 300",,BETHESDA,MD,20817,PHILIPPE LINDSAY,SR ENGAGEMENT DIRECTOR,3015643636,,PLINDSAY@RUBINO.COM,11/16/2020 11:22:09,,O,,U,N,N,N,N,U,750000,Y,,17737661,,N,N,N,N,N,N,,14,11/16/2020 00:00:00,11/18/2020 01:30:04,,N,203,1,x00,11/16/2020 00:00:00,,N,JUSTIN BROOKS,EXECUTIVE DIRECTOR,11/16/2020 00:00:00,521186096,N,,N,N,,,,,Local government,UG,,,,,,01/01/2019 00:00:00,,,,US
1353177,570412019,2019,57041,12/31/2019 00:00:00,S,A,,N,382724796,,N,140133393,DETROIT HEALTH CARE FOR THE HOMELESS DBA ADVANTAGE HEALTH CENTERS,100 RIVER PLACE DR STE 450,,DETROIT,MI,48207,NINA ABUBAKARI,EXECUTIVE DIRECTOR,3134166259,,NABUBAKARI@AHCDETROIT.ORG,11/24/2020 17:16:35,NINA ABUBAKARI-PRESIDENT/CEO,"ALAN C.YOUNG & ASSOCIATES , P.C.",7310 WOODWARD AVENUE STE 740,,DETROIT,MI,48202,ANIL SAKHUJA,CHIEF OPERATING OFFICER,3138737500,,ASAKHUJA@ALANCYOUNG.COM,11/23/2020 19:42:08,,O,,U,Y,Y,N,N,U,750000,N,,6521425,,Y,Y,N,Y,Y,N,,93,11/24/2020 00:00:00,12/04/2020 01:30:04,,N,908,1,x93,10/28/2020 00:00:00,,N,NINA ABUBAKARI,PRESIDENT/CEO,11/24/2020 00:00:00,382463166,Y,,Y,Y,,,,,Non-profit,UG,,,,,,01/01/2019 00:00:00,,,,
1306277,1808542019,2019,180854,06/30/2019 00:00:00,S,A,,N,566001132,,N,054863865,WELDON CITY BOARD OF EDUCATION,301 MULBERRY STREET,,WELDON,NC,27890,MATILDA CAMPBELL,DIRECTOR OF FINANCE,2525364821,,CAMPBELLM@WELDONCITYSCHOOLS.K12.NC.US,10/07/2019 11:07:29,MATILDA CAMPBELL-FINANCE OFFICER,ANDERSON SMITH & WIKE PLLC,116 GREYLYN ROAD,,ROCKINGHAM,NC,28379,"DALE SMITH, CPA",MEMBER,9109971418,,DSMITH@ASW-CPA.COM,10/07/2019 11:22:58,,O,,U,N,N,N,N,U,750000,Y,,1668134,,N,N,N,N,N,N,,12,10/07/2019 00:00:00,10/09/2019 01:30:11,,N,105,1,x00,10/07/2019 00:00:00,,N,MATILDA CAMPBELL,FINANCE OFFICER,10/07/2019 00:00:00,271473864,N,,N,N,,,,,Local government,UG,,10/08/2019 10:31:42,10/10/2019 10:40:04,N,G,07/01/2018 00:00:00,,,,US
1316423,616562019,2019,61656,05/31/2019 00:00:00,S,A,,N,410795255,,N,071363121,"OAK HILLS FELLOWSHIP, INC.",1600 OAK HILLS RD SW,,BEMIDJI,MN,56601,MISHELE MCKAIN,DIRECTOR OF STUDENT FINANCIAL AID,2187518670,,MISHELEMCKAIN@OAKHILLS.EDU,11/19/2019 15:14:52,BRUCE KAEHNE-SENIOR ACCOUNTANT,CAPINCROUSE LLP,"55 SHUMAN BLVD, SUITE 300",,NAPERVILLE,IL,60563,"JULIE ADAMS, CPA",PARTNER,6306829797,,JADAMS@CAPINCROUSE.COM,11/15/2019 12:42:05,,O,,U,N,N,N,N,U,750000,Y,,794875,,Y,N,Y,Y,N,N,,84,11/19/2019 00:00:00,12/07/2019 01:30:06,,N,909,1,x00x84,11/19/2019 00:00:00,,N,BRUCE KAEHNE,SENIOR ACCOUNTANT,11/19/2019 00:00:00,363990892,N,,N,Y,,,,,Non-profit,UG,00999200,01/17/2020 13:17:22,01/23/2020 06:39:27,S,S,06/01/2018 00:00:00,,,,US
1336277,1646862019,2019,164686,06/30/2019 00:00:00,S,A,,N,346002030,,N,091630624,NILES CITY SCHOOL DISTRICT ,309 NORTH RHODES AVENUE,,NILES,OH,44446,RHONDA AMORGANOS,TREASURER,3309895095,,RHONDA.AMORGANOS@NILESMCKINLEY.ORG,05/27/2020 14:51:04,RHONDA AMORGANOS-CFO,"KEITH FABER, AUDITOR OF STATE",88 EAST BROAD STREET,,COLUMBUS,OH,43215,ERIK HOLESKO,SENIOR AUDIT MANAGER,3307979900,,ETHOLESKO@OHIOAUDITOR.GOV,05/27/2020 14:34:22,,O,,U,Y,N,Y,Y,Q,750000,N,,3091308,,N,Y,N,Y,N,N,,84,05/27/2020 00:00:00,05/29/2020 01:30:06,,N,505,1,x00,05/27/2020 00:00:00,,N,RHONDA AMORGANOS,CFO,05/27/2020 00:00:00,311334820,N,,Y,N,,,,,Local government,UG,,06/10/2020 11:04:13,06/11/2020 07:39:49,G,G,07/01/2018 00:00:00,,,,US
1319702,1604422019,2019,160442,06/30/2019 00:00:00,S,A,,N,166002856,,N,031008501,FAIRPORT CENTRAL SCHOOL DISTRICT,38 WEST CHURCH STREET,,FAIRPORT,NY,14450,MATTHEW STEVENS,ASSISTANT SUPERINTENDENT FOR BUSINESS,5854212000,,MSTEVENS@FAIRPORT.ORG,01/17/2020 14:50:17,MATTHEW STEVENS-ASSISTANT SUPERINTENDENT FOR BUSINESS,"MENGEL METZGER BARR & CO., LLP","100 CHESTNUT STREET, SUITE 1200",,ROCHESTER,NY,14604,THOMAS ZUBER,PARTNER,5854231860,,JNOBLES@MMB-CO.COM,01/20/2020 08:40:49,,O,,U,N,N,N,N,U,750000,Y,,2658973,,N,N,N,N,N,N,,84,01/20/2020 00:00:00,02/20/2020 01:30:04,,N,505,1,x00,01/20/2020 00:00:00,,N,MATTHEW STEVENS,ASSISTANT SUPERINTENDENT FOR BUSINESS,01/20/2020 00:00:00,161092347,N,,N,N,,,,,State,UG,,03/05/2020 14:58:50,03/06/2020 07:09:15,N,G,07/01/2018 00:00:00,,,,US
1313582,2193882019,2019,219388,06/30/2019 00:00:00,S,A,,N,760577257,,N,017049185,"ODYSSEY 2020 ACADEMY, INC.",2412 61ST STREET,,GALVESTON,TX,77551,MATTHEW SHERMAN,BUSINESS & OPERATIONS OFFICER,4097509289,,MSHERMAN@ODYSSEY-ACADEMY.COM,11/12/2019 13:42:52,MATTHEW SHERMAN-BUSINESS & OPERATIONS OFFICER,"BELT HARRIS PECHACEK, LLLP","3210 BINGLE ROAD, SUITE 300",,HOUSTON,TX,77055,"STEPHANIE E. HARRIS, CPA, CGMA",PARTNER,7132631123,,SHARRIS@TXAUDITORS.COM,11/04/2019 22:25:39,,O,,U,N,N,N,N,U,750000,Y,,1189827,,N,N,N,N,N,N,,84,11/12/2019 00:00:00,11/15/2019 01:30:15,,N,905,1,x00,11/12/2019 00:00:00,,N,MATTHEW SHERMAN,BUSINESS & OPERATIONS OFFICER,11/12/2019 00:00:00,262686915,N,,N,N,,,,,Local government,UG,,11/27/2019 09:51:05,12/05/2019 07:47:27,N,G,07/01/2018 00:00:00,,,,US
1315531,1575632019,2019,157563,06/30/2019 00:00:00,S,A,,N,216000135,,N,042155028,GLOUCESTER TOWNSHIP SCHOOL DISTRICT ,17 ERIAL RD,,BLACKWOOD,NJ,08021,JEAN GRUBB,BUSINESS ADMINISTRATOR,8562271400,,JGRUBB@GLOUCESTERTOWNSHIPSCHOOLS.ORG,01/09/2020 15:51:52,JEAN GRUBB-SCHOOL BUSINESS ADMINISTRATOR,BOWMAN & COMPANY LLP,601 WHITE HORSE ROAD,,VOORHEES,NJ,08043,TODD SALER,PARTNER,8567822889,,TSALER@BOWMANLLP.COM,12/15/2019 17:58:11,,O,,U,N,N,N,N,U,750000,Y,,5009132,,N,N,N,N,N,N,,84,01/09/2020 00:00:00,02/15/2020 01:30:06,,N,505,1,x00,01/09/2020 00:00:00,,N,JEAN GRUBB,SCHOOL BUSINESS ADMINISTRATOR,01/09/2020 00:00:00,210658561,N,,N,N,,,,,Local government,UG,,02/19/2020 11:17:29,02/20/2020 10:14:18,N,G,07/01/2018 00:00:00,,,,US
1332104,1643942019,2019,164394,06/30/2019 00:00:00,S,A,,N,316400976,,N,124653197,SOUTH POINT LOCAL SCHOOL DISTRICT ,302 HIGH STREET,,SOUTH POINT,OH,45680,TRESA BAKER,TREASURER,7403779177,,TBAKER@SOUTHPOINT.K12.OH.US,03/31/2020 13:09:57,TRESA BAKER-TREASURER,"KEITH FABER, AUDITOR OF STATE",88 EAST BROAD STREET,,COLUMBUS,OH,432153506,"LOREN S. CRISP, CPA",CHIEF AUDITOR,5133618550,,DCF-SOUTHWEST@OHIOAUDITOR.GOV,03/31/2020 11:42:36,,O,,U,N,N,N,N,U,750000,Y,,1995075,,N,N,N,N,N,N,,84,03/31/2020 00:00:00,05/01/2020 01:33:52,,N,505,1,x00,03/31/2020 00:00:00,,N,TRESA BAKER,TREASURER,03/31/2020 00:00:00,311334820,N,,N,N,,,,,Local government,UG,,05/08/2020 12:22:42,05/14/2020 18:21:05,,N,07/01/2018 00:00:00,,,,US
1343730,1782082019,2019,178208,12/31/2019 00:00:00,S,A,,N,396005532,,N,006434211,"CITY OF MILWAUKEE, WISCONSIN",200 E WELLS STREET,,MILWAUKEE,WI,53202,CLAUDIA I ORUGBANI,GRANTS FISCAL MANAGER,4142862309,,CORUGB@MILWAUKEE.GOV,07/29/2020 11:25:34,CLAUDIA I. ORUGBANI-GRANTS FISCAL MANAGER,"BAKER TILLY VIRCHOW KRAUSE, LLP",777 E WISCONSIN AVENUE,,MILWAUKEE,WI,53202,AMANDA BLOMBERG,FIRM DIRECTOR,6082402386,,AMANDA.BLOMBERG@BAKERTILLY.COM,07/29/2020 12:11:44,,C,14,U,N,N,N,N,U,2119043,Y,,70634783,,N,N,N,N,Y,N,,,07/29/2020 00:00:00,07/31/2020 01:30:06,,N,200,1,x14x00,07/29/2020 00:00:00,,N,CLAUDIA I. ORUGBANI,GRANTS FISCAL MANAGER,07/29/2020 00:00:00,390859910,N,,N,N,,,,,Local government,UG,,,,,,01/01/2019 00:00:00,,,,US
1337130,2158892019,2019,215889,06/30/2019 00:00:00,S,A,,N,232868660,,N,942971474,REAL ALTERNATIVES ,7810 ALLENTOWN BLVD. STE. 304,,HARRISBURG,PA,17112,CLIFF MCKEOWN,VICE PRESIDENT-ADMINISTRATION,7175411112,,RA-FINANCE@COMCAST.NET,04/21/2020 11:44:20,CLIFF MCKEOWN-VICE PRESIDENT OF ADMINISTRATION,MCKONLY & ASBURY,415 FALLOWFIELD ROAD,,CAMP HILL,PA,17011,GARY DUBAS,PARTNER,7177617910,,GDUBAS@MACPAS.COM,04/21/2020 10:49:04,,O,,U,N,N,N,N,U,750000,Y,,3781878,,N,N,N,N,N,N,,93,04/21/2020 00:00:00,05/08/2020 01:30:07,,N,908,1,x00,04/21/2020 00:00:00,,N,CLIFF MCKEOWN,VICE PRESIDENT OF ADMINISTRATION,04/21/2020 00:00:00,231909723,N,,N,N,,,,,Non-profit,UG,,,,,,07/01/2018 00:00:00,,,,US
1324089,2014652019,2019,201465,06/30/2019 00:00:00,S,A,,N,841488859,,N,026111059,SANTA FE TRAIL BOCES,302 COLORADO AVE,,LA JUNTA,CO,81050,TARA NEUGEBAUER,BUSINESS MANAGER,7193832627,,TARA.NEUGEBAUER@SFTBOCES.K12.CO.US,01/06/2020 12:30:30,TARA NEUGEBAUER-BUSINESS MANAGER,"DIXON, WALLER & CO., INC.",164 E MAIN ST,,TRINIDAD,CO,81082,TIM DIXON,PARTNER,7198469241,,TDIXON@DIXONWALLER.COM,01/03/2020 12:28:19,,O,,U,Y,N,N,N,U,750000,Y,,975905,,N,N,N,N,N,N,,84,01/06/2020 00:00:00,02/12/2020 01:30:07,,N,505,1,x00,01/06/2020 00:00:00,,N,TARA NEUGEBAUER,BUSINESS MANAGER,01/06/2020 00:00:00,840605728,N,,Y,N,,,,,Local government,UG,,02/28/2020 12:14:32,03/05/2020 07:17:01,,N,07/01/2018 00:00:00,,,,US
1319317,1869282019,2019,186928,06/30/2019 00:00:00,S,A,,N,930991812,,N,,MOUNTAIN VIEW WHISMAN SCHOOL DISTRICT,750-A SAN PIERRE WAY,,MOUNTAIN VIEW,CA,94043,REBECCA WESTOVER,CHIEF BUSINESS OFFICER,6505263500,,RWESTOVER@MVWSD.ORG,01/03/2020 16:24:28,REBECCA WESTOVER-CBO,CHRISTY WHITE INC.,348 OLIVE STREET,,SAN DIEGO,CA,92103,MICHAEL ASH,PARTNER,6192708222,,MASH@CHRISTYWHITE.COM,01/06/2020 11:12:54,,O,,U,N,N,N,N,U,750000,Y,,4136815,,N,N,N,N,N,N,,84,01/06/2020 00:00:00,02/12/2020 01:30:07,,N,505,1,x00,01/06/2020 00:00:00,,N,REBECCA WESTOVER,CBO,01/06/2020 00:00:00,272956198,N,,N,N,,,,,Local government,UG,,02/18/2020 16:18:41,02/20/2020 10:14:18,N,G,07/01/2018 00:00:00,,,,US
1334903,1302702019,2019,130270,06/30/2019 00:00:00,S,A,,N,860365905,,N,,LAKE HAVASU CITY ,2330 MCCULLOCH BLVD.N.,,LAKE HAVASU CITY,AZ,86403,TRINNA WARE,DIVISION MANAGER - FINANCE,9288540735,,WARET@LHCAZ.GOV,04/15/2020 18:49:00,TRINNA WARE-DIVISION MANAGER - FINANCE,CLIFTONLARSONALLEN,"20 E THOMAS ROAD, SUITE 2300",,PHOENIX,AZ,85012,SANDY CRONSTROM,PRINCIPAL,6026043610,,SANDY.CRONSTROM@CLACONNECT.COM,04/15/2020 19:04:41,,O,,U,N,Y,N,N,U,750000,Y,,1498360,,N,N,N,N,N,N,,16,04/15/2020 00:00:00,05/07/2020 01:30:06,,N,200,1,x00,04/15/2020 00:00:00,,N,TRINNA WARE,DIVISION MANAGER - FINANCE,04/15/2020 00:00:00,410746749,Y,,N,N,,,,,Local government,UG,,,,,,07/01/2018 00:00:00,,,,US
1344655,2482102019,2019,248210,08/31/2019 00:00:00,S,A,,N,746002564,,N,073899650,WHARTON INDEPENDENT SCHOOL DISTRICT,2100 NORTH FULTON STREET,,WHARTON,TX,77488,CRYSTAL VALDEZ,CHIEF FINANCIAL OFFICER,9795323612,,CVALDEZ@WHARTONISD.NET,08/06/2020 16:59:47,CRYSTAL VALDEZ-CHIEF FINANCIAL OFFICER,"TRLICEK & CO., P.C.",P.O. BOX 817,,LA GRANGE,TX,78945,GREG TRLICEK,OWNER,9795330925,,GLTRL@HOTMAIL.COM,08/06/2020 16:06:35,,O,,U,N,N,N,N,U,750000,Y,,3471668,,N,N,N,N,N,N,,84,08/06/2020 00:00:00,08/08/2020 01:30:06,,N,888,1,x00,08/06/2020 00:00:00,,N,CRYSTAL VALDEZ,CHIEF FINANCIAL OFFICER,08/06/2020 00:00:00,271668936,N,,N,N,,,,,State,UG,,08/07/2020 12:46:33,08/13/2020 12:28:34,N,G,09/01/2018 00:00:00,,,,US
1318083,1985002019,2019,198500,06/30/2019 00:00:00,S,A,,N,330542733,,N,,"HIGH DESERT ""PARTNERSHIP IN ACADEMIC EXCELLENCE"" FOUNDATION, INC.",17500 MANA ROAD,,APPLE VALLEY,CA,92307,DAVID GRUBER,FINANCIAL OFFICER,7609465414,,DGRUBER@LCER.ORG,12/09/2019 13:56:47,DAVID GRUBER-DIRECTOR OF FINANCE,"NIGRO & NIGRO, PC",25220 HANCOCK AVE SUITE 400,,MURRIETA,CA,92562,MICHAEL KLEIN,PARTNER,9516988783,,MKLEIN@NNCPAS.COM,12/16/2019 18:55:39,,O,,U,N,N,N,N,U,750000,N,,1198917,,N,N,N,N,N,N,,84,12/16/2019 00:00:00,01/17/2020 01:30:14,,N,909,1,x00,12/16/2019 00:00:00,,N,DAVID GRUBER,DIRECTOR OF FINANCE,11/20/2019 00:00:00,300636241,N,,N,N,,,,,Local government,UG,,02/04/2020 16:13:42,02/06/2020 07:15:02,N,G,07/01/2018 00:00:00,,,,US
1319816,2283212019,2019,228321,06/30/2019 00:00:00,S,A,,Y,371535969,,Y,014073730,SOUTHEAST LOUISIANA FLOOD PROTECTION AUTHORITY - EAST,6920 FRANKLIN AVENUE,,NEW ORLEANS,LA,70122,KELLI CHANDLER,REGIONAL FINANCE DIRECTOR,5046504793,,KCHANDLER@FLOODAUTHORITY.ORG,12/17/2019 09:49:24,KELLI CHANDLER-DIRECTOR OF FINANCE,ERICKSEN KRENTEL LLP,4227 CANAL BLVD,,NEW ORLEANS,LA,70119,JIM TONGLET,PARTNER,9857270777,,JTONGLET@ERICKSENKRENTEL.COM,12/17/2019 09:53:33,,O,,U,N,N,N,N,U,750000,N,,4777449,,N,N,N,N,N,N,,20,12/17/2019 00:00:00,01/18/2020 01:30:56,,N,409,1,x00,12/17/2019 00:00:00,,N,KELLI CHANDLER,DIRECTOR OF FINANCE,11/20/2019 00:00:00,720549733,N,,N,N,,,,,Local government,UG,,,,,,07/01/2018 00:00:00,,,,US
1322700,2252122019,2019,225212,06/30/2019 00:00:00,S,A,,N,310979404,,N,166837294,"GOD'S PANTRY FOOD BANK, INC. ",1685 JAGGIE FOX WAY,,LEXINGTON,KY,40511,MIKE HALLIGAN,CHIEF EXECUTIVE OFFICER,8592556592,,MHALLIGAN@GODSPANTRY.ORG,01/03/2020 09:55:15,MIKE HALLIGAN-CEO,"MCM CPAS & ADVISORS, LLP","333 W. VINE STREET, SUITE 1000",,LEXINGTON,KY,40507,DEBBIE SMITH,PARTNER,8595147773,,DEBBIE.SMITH@MCMCPA.COM,01/02/2020 10:27:06,,O,,U,N,N,N,N,U,750000,Y,,23761391,,N,N,N,N,N,N,,97,01/06/2020 00:00:00,02/11/2020 01:30:07,,N,908,1,x00,01/06/2020 00:00:00,,N,MIKE HALLIGAN,CEO,01/06/2020 00:00:00,271235638,N,,N,N,,,,,Non-Profit,UG,,,,,,07/01/2018 00:00:00,,,,US
1310983,2208052019,2019,220805,06/30/2019 00:00:00,S,A,,N,050508869,,N,,"OLMSTED GARDENS, INC.  016-EE-030","185 DARTMOUTH STREET, 9TH FLOOR",,BOSTON,MA,02116,WALLY CASANOVA,ASSISTANT CONTROLLER,8572218695,,WCASANOVA@TCBINC.ORG,10/23/2019 11:41:44,MORGAN WILSON-CHIEF FINANCIAL OFFICER,NOVOGRADAC & COMPANY LLP,"12 POST OFFICE SQUARE, 4TH FLOOR",,BOSTON,MA,02109,CHARLES A. RHUDA III,PARTNER,6173301920,,CHARLIE.RHUDA@NOVOCO.COM,10/03/2019 12:01:12,,O,,U,N,N,N,N,U,750000,Y,,4593400,,N,N,N,N,N,N,,14,10/23/2019 00:00:00,10/25/2019 01:30:11,,N,903,1,x00,10/23/2019 00:00:00,,N,MORGAN WILSON,CHIEF FINANCIAL OFFICER,10/23/2019 00:00:00,943108253,N,,N,N,,,,,Non-profit,UG,,,,,,07/01/2018 00:00:00,,,,US
1311727,1601722019,2019,160172,06/30/2019 00:00:00,S,A,,N,166004015,,N,048584817,NORTH COLONIE CENTRAL SCHOOL DISTRICT,91 FIDDLERS LANE,,LATHAM,NY,12110,SCOTT M. HOOT,ASSISTANT SUPERINTENDENT FOR BUSINESS,5187858591,,SCOTTHOOT@NCOLONIE.ORG,10/10/2019 14:30:26,SCOTT M. HOOT-ASST SUPT FOR BUSINESS,"MARVIN AND COMPANY, PC",11 BRITISH AMERICAN BOULEVARD,,LATHAM,NY,12110,"HEATHER R. LEWIS, CPA",DIRECTOR,5187850134,,HLEWIS@MARVINCPA.COM,10/10/2019 13:26:57,,O,,U,N,N,N,N,U,750000,Y,,3233558,,Y,N,N,Y,N,N,,84,10/10/2019 00:00:00,10/12/2019 01:30:13,,N,505,1,x00,10/10/2019 00:00:00,,N,SCOTT M. HOOT,ASST SUPT FOR BUSINESS,10/10/2019 00:00:00,141567343,N,,N,Y,,,,,Local government,UG,,10/25/2019 11:00:07,10/31/2019 09:48:47,N,G,07/01/2018 00:00:00,,,,US
1353488,1871352019,2019,187135,12/31/2019 00:00:00,S,A,,N,240862780,,N,,REDEVELOPMENT AUTHORITY OF MONROE COUNTY,701 MAIN STREET,,STROUDSBURG,PA,18360,MARTHA ROBBINS,EXECUTIVE DIRECTOR,5704214300,,EXDIRECTOR@MONROECOUNTYRDA.ORG,11/03/2020 10:29:07,MARTHA ROBBINS-EXECUTIVE DIRECTOR,CAMPBELL RAPPOLD & YURASITS LLP,1033 S CEDER CREST BLVD,,ALLENTOWN,PA,18103,MELISSA GRUBE,PARTNER,6104357489,,MGRUBE@CRYCPAS.COM,11/04/2020 08:25:23,,O,,U,Y,N,N,N,U,750000,Y,,1345152,,N,N,N,N,N,Y,,14,11/04/2020 00:00:00,11/06/2020 01:30:04,,N,409,1,x00,11/04/2020 00:00:00,,N,MARTHA ROBBINS,EXECUTIVE DIRECTOR,11/04/2020 00:00:00,231386942,N,,Y,N,,,,,Local government,UG,,,,,,01/01/2019 00:00:00,,,,US
1323683,1793322019,2019,179332,06/30/2019 00:00:00,S,A,,N,391049563,,N,100082536,DEFOREST AREA SCHOOL DISTRICT ,520 EAST HOLUM STREET,,DEFOREST,WI,53532,KATHLEEN DAVIS,DIRECTOR OF BUSINESS AND AUX SERVICES,6088426504,,KDAVIS@DEFORESTSCHOOLS.ORG,01/07/2020 10:11:38,KATHLEEN DAVIS-DIRECTOR OF BUSINESS & AUXILIARY SERVICES,JOHNSON BLOCK & COMPANY INC.,2500 BUSINESS PARK ROAD,,MINERAL POINT,WI,53565,TARA BAST,AUDIT MANAGER,6082742002,,TBAST@JOHNSONBLOCK.COM,12/31/2019 15:11:13,,O,,U,Y,N,N,N,U,750000,Y,,1743805,,N,N,N,N,N,N,,84,01/07/2020 00:00:00,02/12/2020 01:30:07,,N,505,1,x00,01/07/2020 00:00:00,,N,KATHLEEN DAVIS,DIRECTOR OF BUSINESS & AUXILIARY SERVICES,01/07/2020 00:00:00,391628949,N,,Y,N,,,,,Local government,UG,,02/18/2020 16:08:02,02/20/2020 10:14:18,N,G,07/01/2018 00:00:00,,,,US
1324817,2201702019,2019,220170,06/30/2019 00:00:00,S,A,,N,133530299,,N,078112300,"COMUNILIFE, INC. AND SUBSIDIARIES ","462 7TH AVENUE, 3RD FLOOR",,NEW YORK,NY,10018,DR. ROSA M. GIL,PRESIDENT AND CEO,2122191618,,RGIL@COMUNILIFE.ORG,03/19/2020 11:57:30,ROSA GIL-PRESIDENT AND CEO,"BKD, LLP","1155 AVENUE OF THE AMERICAS, SUITE 1200",,NEW YORK,NY,100362711,ANNA SHAFEROVA,PARTNER,2128674000,,ASHAFEROVA@BKD.COM,03/13/2020 16:10:33,,O,,U,N,N,N,N,U,750000,Y,,5128575,,N,N,N,N,N,Y,,14,03/19/2020 00:00:00,04/08/2020 01:30:06,,N,908,1,x00,03/19/2020 00:00:00,,N,ROSA GIL,PRESIDENT AND CEO,03/19/2020 00:00:00,440160260,N,,N,N,,,,,Non-profit,UG,,,,,,07/01/2018 00:00:00,,,,US
1306180,922462019,2019,92246,06/30/2019 00:00:00,S,A,,N,611012290,,N,,"CHRYSALIS HOUSE, INC. ",1589 HILLRISE DRIVE,,LEXINGTON,KY,40504,KAMA MCKINNEY,FINANCE DIRECTOR,8599772503,,KAMAMCKINNEY@CHRYSALISHOUSE.ORG,09/24/2019 12:20:42,KAMA MCKINNEY-KAMA MCKINNEY,MCM CPAS & ADVISORS LLP,333 WEST VINE STREET SUITE 1000,,LEXINGTON,KY,40507,DEBBIE SMITH,PARTNER,8595147773,,DEBBIE.SMITH@MCMCPA.COM,09/23/2019 17:04:08,,O,,U,N,N,N,N,U,750000,Y,,1524786,,N,N,N,N,N,N,,93,09/24/2019 00:00:00,09/26/2019 01:30:14,,N,903,1,x00,09/24/2019 00:00:00,,N,KAMA MCKINNEY,KAMA MCKINNEY,09/24/2019 00:00:00,271235638,N,,N,N,,,,,Non-profit,UG,,,,,,07/01/2018 00:00:00,,,,US
1329178,1965802019,2019,196580,12/31/2019 00:00:00,S,A,,N,391788223,,N,964739333,"LSS HOUSING, WOODVIEW, INC. ","6737 WEST WASHINGTON STREET, SUITE 2275",,WEST ALLIS,WI,53214,RANDY OLESZAK,CHIEF FINANCIAL OFFICER,4142462353,,RANDY.OLESZAK@LSSWIS.ORG,04/03/2020 08:56:26,RANDY OLESZAK-CFO,"BAKER TILLY VIRCHOW KRAUSE, LLP","777 E. WISCONSIN AVE., 32ND FLOOR",,MILWAUKEE,WI,53202,"PAUL BATCHELOR, CPA",PARTNER,4147775500,,PAUL.BATCHELOR@BAKERTILLY.COM,03/29/2020 12:12:01,,O,,U,N,N,N,N,U,750000,Y,,827028,,N,N,N,N,N,N,,14,04/03/2020 00:00:00,04/29/2020 01:30:05,,N,903,1,x00,04/03/2020 00:00:00,,N,RANDY OLESZAK,CFO,04/03/2020 00:00:00,390859910,N,,N,N,,,,,Non-profit,UG,,,,,,01/01/2019 00:00:00,,,,US
1329158,1700612019,2019,170061,06/30/2019 00:00:00,S,A,,N,231669490,,N,,WARRIOR RUN SCHOOL DISTRICT ,4800 SUSQUEHANNA TRAIL,,TURBOTVILLE,PA,17772,"ALAN HACK, ED.D.",SUPERINTENDENT,5706495138,,AHACK@WRSD.ORG,03/11/2020 23:13:32,ALAN HACK-SUPERINTENDENT,"HERRING, ROLL & SOLOMON, P.C.",41 S. FIFTH STREET,,SUNBURY,PA,17801,COURTNEY SOLOOM,CPA,5702865895,,CSOLOMON@PTD.NET,03/13/2020 22:28:03,,O,,U,N,N,N,N,U,750000,Y,,1480344,,N,N,N,N,N,N,,84,03/13/2020 00:00:00,03/19/2020 01:30:15,,N,505,1,x00,03/13/2020 00:00:00,,N,ALAN HACK,SUPERINTENDENT,03/13/2020 00:00:00,232297880,N,,N,N,,,,,Local government,UG,,04/20/2020 09:51:03,04/23/2020 14:04:50,,N,07/01/2018 00:00:00,,,,US
1344269,220892019,2019,22089,12/31/2019 00:00:00,S,A,,N,222470652,,N,,SCIENCENTER DISCOVERY MUSEUM,601 FIRST STREET,,ITHACA,NY,14850,CHRIS FAGAN,CFO AND VP OF ADMINISTRATION,6072720600,,CFAGAN@SCIENCENTER.ORG,07/31/2020 12:15:04,CHRIS FAGAN-CFO,"SCIARABBA WALKER & CO., LLP",410 EAST UPLAND ROAD,,ITHACA,NY,14850,RENATA DABROWSKA,PARTNER,6072725550,,RDABROWSKA@SWCLLP.COM,08/03/2020 08:13:48,,O,,U,N,N,N,N,U,750000,N,,891462,,N,N,N,N,Y,N,,47,08/03/2020 00:00:00,08/05/2020 01:30:06,,N,909,1,X,08/03/2020 00:00:00,,N,CHRIS FAGAN,CFO,08/03/2020 00:00:00,161071694,N,,N,N,,,,,Non-profit,UG,,,,,,01/01/2019 00:00:00,,,,US
1332769,1818562019,2019,181856,12/31/2019 00:00:00,S,A,,N,742989751,,N,,MRC CRESTVIEW PLACE 114-11234,"1440 LAKE FRONT CIRCLE, SUITE 140",,THE WOODLANDS,TX,77380,DON STEPHENS,CFO,2812100138,,DSTEPHENS@MRCAFF.ORG,03/27/2020 09:05:11,DON STEPHENS-CFO,CLIFTONLARSONALLEN LLP,220 SOUTH SIXTH STREET SUITE #300,,MINNEAPOLIS,MN,55402,ABIGAIL ZOELLNER,DIRECTOR,9723835705,,ABIGAIL.ZOELLNER@CLACONNECT.COM,03/26/2020 20:38:56,,O,,U,N,N,N,N,U,750000,Y,,2243174,,N,N,N,N,Y,N,,14,03/27/2020 00:00:00,04/29/2020 01:30:05,,N,903,1,x00x14,03/27/2020 00:00:00,,N,DON STEPHENS,CFO,03/27/2020 00:00:00,411746749,N,,N,N,,,,,Non-profit,UG,,,,,,01/01/2019 00:00:00,,,,US
1312410,553422019,2019,55342,06/30/2019 00:00:00,S,A,,N,381673400,,N,080366982,GRACE CHRISTIAN UNIVERSITY,1011 ALDON SE,,WYOMING,MI,495091921,DOUG VRIESMAN,VP OF FINANCE & BUSINESS SERVICES,6165380599,,DVRIESMAN@GRACECHRISTIAN.EDU,11/20/2019 06:26:17,DOUG VRIESMAN-VP OF FINANCE & BUSINESS SERVICES,BEENE GARTER LLP,"56 GRANDVILLE AVE SW, SUITE 100",,GRAND RAPIDS,MI,49503,ROXANNE PAGE,PARTNER,6162355200,,RPAGE@BEENEGARTER.COM,11/19/2019 14:23:59,,O,,U,N,N,N,N,U,750000,N,,9667592,,N,N,N,N,N,N,,84,11/20/2019 00:00:00,12/12/2019 01:30:05,,N,904,1,x00,11/20/2019 00:00:00,,N,DOUG VRIESMAN,VP OF FINANCE & BUSINESS SERVICES,11/20/2019 00:00:00,381337372,N,,N,N,,,,,Institution of higher education (IHE),UG,00226500,01/17/2020 14:57:43,01/23/2020 06:39:27,N,S,07/01/2018 00:00:00,,,,US
1321512,1235252019,2019,123525,06/30/2019 00:00:00,S,A,,N,951644026,,N,076192186,UNIVERSITY OF LA VERNE ,1950 THIRD ST.,,LA VERNE,CA,91750,LORI GORDIEN CASE,ASSOC. VP OF FINANCE,9094484100,,LGORDIEN@LAVERNE.EDU,12/19/2019 11:54:04,LORI GORDIEN-ASSOCIATE VICE PRESIDENT OF FINANCE,"GRANT THORNTON, LLP","515 S. FLOWER STREET, 7TH FLOOR",,LOS ANGELES,CA,90071,FREDERICK WENTZEL JR.,PARTNER,2136881730,,RICK.WENTZEL@US.GT.COM,12/18/2019 20:20:39,,C,84,U,N,N,N,N,U,750000,Y,,96084114,,N,N,N,Y,Y,N,,,12/19/2019 00:00:00,01/25/2020 01:30:19,,N,904,1,x84,12/19/2019 00:00:00,,N,LORI GORDIEN,ASSOCIATE VICE PRESIDENT OF FINANCE,11/20/2019 00:00:00,366055558,N,,N,N,,,,,Institution of higher education (IHE),UG,00121600,02/19/2020 14:03:53,02/20/2020 10:14:18,S,B,07/01/2018 00:00:00,,,,US
1308923,1924482019,2019,192448,06/30/2019 00:00:00,S,A,,N,346400939,,N,054163241,NAPOLEON AREA CITY SCHOOL DISTRICT,701 BRIARHEATH DRIVE,,NAPOLEON,OH,435451298,MICHAEL BOSTELMAN,TREASURER,4195997015,,TREASURER@NAPOLEONAREASCHOOLS.ORG,12/05/2019 15:40:59,MICHAEL BOSTELMAN-TREASURER/CFO,"KEITH FABER, AUDITOR OF STATE",88 EAST BROAD STREET,,COLUMBUS,OH,432153506,JONATHAN A. LAWLESS,CHIEF AUDITOR,4192452811,,DCF-NORTHWEST@OHIOAUDITOR.GOV,12/05/2019 09:03:45,,O,,S,N,N,Y,N,U,750000,N,,1319253,,N,N,N,N,N,N,,84,12/05/2019 00:00:00,12/20/2019 01:30:11,,N,505,1,x00,12/05/2019 00:00:00,,N,MICHAEL BOSTELMAN,TREASURER/CFO,11/20/2019 00:00:00,311334820,N,,N,N,CASH,N,U,,Local government,UG,,01/27/2020 14:51:47,01/30/2020 08:57:21,N,G,07/01/2018 00:00:00,,,,US
1308242,1713762019,2019,171376,06/30/2019 00:00:00,S,A,,Y,626000544,,N,783233513,CROCKETT COUNTY TENNESSEE,10 SOUTH BELLS STREET,,ALAMO,TN,38001,GARY REASONS,COUNTY MAYOR,7316965460,,CROCKETTCOUNTYMAYOR@GMAIL.COM,02/24/2020 15:07:42,GARY REASONS-COUNTY MAYOR,"COMPTROLLER OF THE TREASURY, DIVISION OF LOCAL GOVERNMENT AUDIT","CORDELL HULL BUILDING, 425 FIFTH AVE NORTH",,NASHVILLE,TN,372433400,GREG WORLEY,AUDIT REVIEW SPECIALIST,6154017846,,GREG.WORLEY@COT.TN.GOV,02/24/2020 09:13:20,,O,,U,Y,N,N,N,U,750000,N,,2462213,,N,N,N,N,N,N,,84,02/24/2020 00:00:00,03/06/2020 01:30:07,,N,100,1,x00,02/24/2020 00:00:00,,N,GARY REASONS,COUNTY MAYOR,02/24/2020 00:00:00,626001445,N,,Y,N,,,,,Local government,UG,,04/07/2020 12:01:19,04/09/2020 11:22:58,N,G,07/01/2018 00:00:00,,,,US
1318721,1707602019,2019,170760,06/30/2019 00:00:00,S,A,,N,576000354,,N,100669746,THE SCHOOL DISTRICT OF GEORGETOWN COUNTY ,2018 CHURCH STREET,,GEORGETOWN,SC,29440,"LISA O. JOHNSON, CPA",ASSOC. SUPERINTENDENT FOR FINANCE & TECH,8434367070,,LJOHNSON@GCSD.K12.SC.US,12/10/2019 11:08:43,LISA JOHNSON-ASSOCIATE SUPT. FOR FINANCE & TECHNOLOGY,"DARVERKELLY, LLP","101 N. MAIN STREET, SUITE 1510",,GREENVILLE,SC,29601,"HARRIS J. DARVER, CPA",PARTNER,8647516556,,HDARVER@DARVERKELLY.COM,12/10/2019 11:27:44,,O,,U,N,N,N,N,U,750000,Y,,11665166,,N,N,N,N,N,N,,12,12/10/2019 00:00:00,01/09/2020 01:30:05,,N,505,1,x00,12/10/2019 00:00:00,,N,LISA JOHNSON,ASSOCIATE SUPT. FOR FINANCE & TECHNOLOGY,11/20/2019 00:00:00,842256306,N,,N,N,,,,,Local government,UG,,02/10/2020 11:19:37,02/13/2020 10:36:38,N,G,07/01/2018 00:00:00,,,,US
1322817,2205292019,2019,220529,06/30/2019 00:00:00,S,A,,N,223634375,,N,,"NEW HORIZONS COMMUNITY CHARTER SCHOOL OF NEWARK, NEW JERSEY",45-59 HAYES STREET,,"NEWARK,",NJ,07103,TOM OMWEGA,BUSINESS ADMINISTARTOR,9736231090,,SLOEF@AOL.COM,12/23/2019 17:01:14,SCOTT J LOEFFLER-CPA,"GERALD D LONGO,CPA",62 OLD QUEENS ROAD,,MANALAPAN,NJ,07726,"GERALD D LONGO, CPA",CPA,7324464768,,GLONGOCPA@GMAIL.COM,12/23/2019 16:56:09,,O,,U,N,N,N,N,U,750000,Y,,1150576,,N,N,N,N,N,N,,84,12/23/2019 00:00:00,02/04/2020 01:30:06,,N,505,1,x00,12/23/2019 00:00:00,,N,SCOTT J LOEFFLER,CPA,11/20/2019 00:00:00,222466916,N,,N,N,,,,,Non-profit,UG,,02/25/2020 12:50:15,03/06/2020 07:09:15,,N,07/01/2018 00:00:00,,,,US
1323325,1701722019,2019,170172,06/30/2019 00:00:00,S,A,,N,236003784,,N,084860378,HANOVER PUBLIC SCHOOL DISTRICT ,403 MOUL AVENUE,,HANOVER,PA,17331,TROY WENTZ,BUSINESS MANAGER,7176304602,,TWENTZ@HANOVERPUBLIC.ORG,01/30/2020 08:10:30,TROY WENTZ-BUSINESS MANAGER,SMITH ELLIOT KEARNS & COMPANY,804 WAYNE AVENUE,,CHAMBERSBURG,PA,17201,"CRAIG E. WITMER, CPA, CGFM",MEMBER OF THE FIRM,7172633910,,CWITMER@SEK.COM,01/30/2020 08:13:40,,O,,U,N,N,N,N,U,750000,N,,1925978,,N,N,N,N,N,N,,84,01/30/2020 00:00:00,02/26/2020 01:30:08,,N,505,1,x00,01/30/2020 00:00:00,,N,TROY WENTZ,BUSINESS MANAGER,01/30/2020 00:00:00,520783935,N,,N,N,,,,,State,UG,,03/13/2020 13:34:40,03/19/2020 07:44:01,N,G,07/01/2018 00:00:00,,,,US
1300332,1097752019,2019,109775,01/31/2019 00:00:00,S,A,,N,840743432,,N,002541399,CLINICA CAMPESINA FAMILY HEALTH SERVICES ,1735 SOUTH PUBLIC ROAD SUITE 200,,LAFAYETTE,CO,80026,GRETCHEN CROKER,ACCOUNTING MANAGER,3036653036,,GCROKER@CLINICA.ORG,07/02/2019 12:47:33,GRETCHEN CROKER-CONTROLLER,CLIFTONLARSONALLEN LLP,370 INTERLOCKEN PKWY SUITE 500,,BROOMFIELD,CO,80021,JAMES MANN,PRINCIPAL,3034668822,,JAMES.MANN@CLACONNECT.COM,06/24/2019 11:44:02,,O,,U,N,N,N,N,U,750000,Y,,9566158,,Y,N,N,Y,N,N,,93,07/02/2019 00:00:00,08/02/2019 01:30:40,,N,908,1,x93x00,07/02/2019 00:00:00,,N,GRETCHEN CROKER,CONTROLLER,07/02/2019 00:00:00,410746749,N,,N,Y,,,,,Non-profit,UG,,,,,,02/01/2018 00:00:00,,,,US
1341023,778142019,2019,77814,12/31/2019 00:00:00,S,A,,N,530196568,,N,077795672,AMERICAN ASSOCIATION FOR THE ADVANCEMENT OF SCIENCE,1200 NEW YORK AVENUE NW,,WASHINGTON,DC,20005,TANISHA LEWIS,"DIRECTOR, GRANT & CONTRACT MANAGEMENT",2023268978,,TLEWIS@AAAS.ORG,07/06/2020 12:39:26,STEPHEN ISSING-DIRECTOR OF FINANCE,"BDO USA, LLP","12505 PARK POTOMAC AVENUE, SUITE 700",,POTOMAC,MD,20854,LAURIE DE ARMOND,PARTNER,3013542500,,LDEARMOND@BDO.COM,06/22/2020 08:37:30,,O,,U,N,N,N,N,U,750000,Y,,14184815,,N,N,N,N,N,N,,47,07/06/2020 00:00:00,07/08/2020 09:45:27,,N,909,1,x00,07/06/2020 00:00:00,,N,STEPHEN ISSING,DIRECTOR OF FINANCE,07/06/2020 00:00:00,135381590,N,,N,N,,,,,Non-profit,UG,,07/08/2020 10:31:09,07/09/2020 12:02:51,N,G,01/01/2019 00:00:00,,,,US
1334485,2497522019,2019,249752,06/30/2019 00:00:00,S,A,,N,134070992,,N,,BETHANY DEVELOPMENT OUTREACH HDFC,63 WEST 124 STREET,,NEW YORK,NY,10027,ISMAIL SHAMSID-DEAN,PRESIDENT,2122345810,,DEVELOPMENTOUTREACH@NYC.RR.COM,09/29/2020 14:59:54,ISMAIL SHAMSID-DEAN-MANAGEMENT AGENT,"JOHN W DAVIS, CPA",1736 E ELIZABETH AVE,,LINDEN,NJ,07036,JOHN DAVIS,SOLE PROP,9082753382,,JOHNWDAVISCPA@AOL.COM,03/24/2020 14:55:40,,O,,U,N,N,N,N,U,750000,Y,,7775843,,N,N,N,N,N,N,,14,09/29/2020 00:00:00,10/07/2020 01:30:04,,N,888,1,X,09/29/2020 00:00:00,,N,ISMAIL SHAMSID-DEAN,MANAGEMENT AGENT,09/29/2020 00:00:00,113411996,N,,N,N,,,,,Non-profit,UG,,,,,,07/01/2018 00:00:00,,,,US
1337323,1716462019,2019,171646,06/30/2019 00:00:00,S,A,,N,626000278,,N,079028627,"CITY OF DAYTON, TENNESSEE ","399 FIRST AVENUE, P.O. BOX 226",,DAYTON,TN,37321,MS. MICHELLE HORTON,CITY RECORDER,4237751817,,M.HORTON@DAYTONTN.NET,05/18/2020 10:38:04,MS. MICHELLE HORTON-CITY RECORDER,"NEAL, SCOUTEN & MCCONNELL, P.C.","633 CHESTNUT STREET, SUITE 1440",,CHATTANOOGA,TN,37450,SCOTT SCOUTEN,AUDIT PARTNER,4232674400,,SSCOUTEN@NSMCPA.COM,05/18/2020 16:27:53,,O,,U,Y,Y,N,N,U,750000,N,,2573412,,Y,Y,N,Y,N,N,,20,05/18/2020 00:00:00,05/20/2020 01:30:13,,N,200,1,x00,05/18/2020 00:00:00,,N,MS. MICHELLE HORTON,CITY RECORDER,05/18/2020 00:00:00,621646921,Y,,Y,Y,,,,,Local government,UG,,06/01/2020 12:34:31,06/04/2020 11:49:01,G,G,07/01/2018 00:00:00,,,,US
1315420,917512019,2019,91751,06/30/2019 00:00:00,S,A,,N,610470593,,N,074081407,"UNIVERSITY OF THE CUMBERLANDS, INC. ",6180 COLLEGE STATION DRIVE,,WILLIAMSBURG,KY,40769,QUENTIN YOUNG,VICE PRESIDENT OF FINANCE,6065394597,,QUENTIN.YOUNG@UCUMBERLANDS.EDU,12/06/2019 08:16:08,QUENTIN YOUNG-QUENTIN YOUNG,"BLACKBURN, CHILDERS, & STEAGALL, PLC",801B SUNSET DRIVE,,JOHNSON CITY,TN,37604,CHAD KISNER,PARTNER,4232824511,,CHAD@BCSCPA.COM,11/07/2019 18:35:59,,C,84,U,N,N,N,N,U,750000,N,,62144928,,N,N,Y,Y,Y,N,,,12/07/2019 00:00:00,01/01/2020 01:30:19,,N,904,1,x84,11/06/2019 00:00:00,,N,QUENTIN YOUNG,QUENTIN YOUNG,11/06/2019 00:00:00,620647474,N,,N,N,,,,,Non-profit,UG,00196200,11/21/2019 15:51:39,12/05/2019 07:47:27,S,S,07/01/2018 00:00:00,,,,
1332937,2479522019,2019,247952,06/30/2019 00:00:00,S,A,,N,815122244,,N,,ADDISON NORTHWEST SCHOOL DISTRICT ,"11 MAIN STREET, SUITE B100",,VERGENNES,VT,05491,ELIZABETH JENNINGS,DIRECTOR OF FINANCE & OPERATIONS,8028773332,,EJENNINGS@ANWSD.ORG,03/12/2020 15:07:16,ELIZABETH JENNINGS-DIRECTOR OF FINANCE & OPERATIONS,RHR SMITH & COMPANY,3 OLD ORCHARD RD,,BUXTON,ME,04093,CHRISTINA SMITH,SENIOR AUDITOR,2079294606,,CSMITH@RHRSMITH.COM,03/12/2020 14:48:24,,O,,U,N,N,N,N,U,750000,Y,,1121566,,N,N,N,N,N,N,,84,03/12/2020 00:00:00,03/18/2020 01:30:15,,N,888,1,x00,03/12/2020 00:00:00,,N,ELIZABETH JENNINGS,DIRECTOR OF FINANCE & OPERATIONS,03/12/2020 00:00:00,043383155,N,,N,N,,,,,Local government,UG,,04/15/2020 13:19:46,04/16/2020 15:40:01,,N,07/01/2018 00:00:00,,,,US
1311803,1434522019,2019,143452,06/30/2019 00:00:00,S,A,,N,356002486,,N,075967992,INDIANAPOLIS PUBLIC SCHOOLS ,120 E WALNUT STREET,,INDIANAPOLIS,IN,46204,WESTON YOUNG,CHIEF FINANCIAL OFFICER,3172264428,,YOUNGW@MYIPS.ORG,01/02/2020 23:18:54,WESTON YOUNG-CHIEF FINANCIAL OFFICER,"BKD, LLP","201 N. ILLINOIS STREET, SUITE 700",,INDIANAPOLIS,IN,46204,ANDY RINZEL,PARTNER,3173833682,,ARINZEL@BKD.COM,01/02/2020 12:43:31,,C,84,AS,N,N,Y,N,Q,1738216,N,,57940531,,N,Y,N,Y,N,N,,,01/02/2020 00:00:00,02/08/2020 01:30:08,,N,505,1,x00,01/02/2020 00:00:00,,N,WESTON YOUNG,CHIEF FINANCIAL OFFICER,01/02/2020 00:00:00,440160260,N,,N,N,REGULATORY,N,U,,Non-profit,UG,,02/27/2020 13:07:40,03/05/2020 07:17:01,N,G,07/01/2018 00:00:00,,,,US
1416516,1896802019,2019,189680,09/30/2019 00:00:00,S,A,,N,826000243,,N,,CITY OF PLUMMER,880 C STREET,,PLUMMER,ID,83851,SARA ALLEN,CLERK,2086861641,,SARA@CITYOFPLUMMER.ORG,02/01/2022 13:23:59,SARA ALLEN-CITY CLERK-TREASURER,SCOTT HOOVER CPA PLLC,2040 N. COUNTRY VISTA BLVD.,,LIBERTY LAKE,WA,99019,SCOTT HOOVER,CPA,2087242265,,SHOOVERCPA@GMAIL.COM,02/01/2022 12:12:15,,O,,U,N,N,N,N,U,750000,N,,1085000,,N,N,N,N,N,N,,10,02/01/2022 00:00:00,02/04/2022 01:30:03,,N,200,1,x00,02/01/2022 00:00:00,,N,SARA ALLEN,CITY CLERK-TREASURER,02/01/2022 00:00:00,475230703,N,,N,N,,,,,Local government,UG,,,,,,10/01/2018 00:00:00,,,,US
1327152,1994492019,2019,199449,06/30/2019 00:00:00,S,A,,N,371130252,,N,825715352,EASTERN ILLINOIS FOODBANK ,2405 N. SHORE DR.,,URBANA,IL,61802,KELLY DALY,SENIOR VICE PRESIDENT,2173283663,,KDALY@EIFOODBANK.ORG,01/29/2020 15:04:28,KELLY DALY-SENIOR VICE PRESIDENT,RSM US LLP,"2021 S. 1ST STREET, SUITE 110",,CHAMPAIGN,IL,61820,RYAN CALDWELL,SENIOR MANAGER,2175233325,,RYAN.CALDWELL@RSMUS.COM,01/30/2020 10:12:01,,O,,U,N,N,N,N,U,750000,Y,,2845389,,N,N,N,N,N,N,,10,01/31/2020 00:00:00,02/26/2020 01:30:08,,N,908,1,x00,01/31/2020 00:00:00,,N,KELLY DALY,SENIOR VICE PRESIDENT,01/31/2020 00:00:00,420714325,N,,N,N,,,,,Non-Profit,UG,,,,,,07/01/2018 00:00:00,,,,US
1341127,1386352019,2019,138635,11/30/2019 00:00:00,S,A,,N,376000896,,N,075619130,"FULTON COUNTY, ILLINOIS",100 N. MAIN STREET,,LEWISTOWN,IL,61542,AUDRA MILES,ADMINISTRATIVE COMPTROLLER,3095473041,,AMILES@FULTONCO.ORG,06/17/2020 11:15:33,AUDRA MILES-ADMINISTRATIVE COMPTROLLER,GRAY HUNTER STENN LLP,500 MAINE STREET,,QUINCY,IL,62301,JEFFREY MCPHERSON,PARTNER,2172220304,,JAM@GRAY-HUNTER-STENN.COM,06/17/2020 11:46:52,,O,,U,N,Y,N,N,U,750000,N,,1561555,,N,Y,N,Y,N,N,,93,06/17/2020 00:00:00,06/19/2020 01:30:08,,N,100,1,x00,06/17/2020 00:00:00,,N,AUDRA MILES,ADMINISTRATIVE COMPTROLLER,06/17/2020 00:00:00,363077757,Y,,N,N,,,,,Local government,UG,,,,,,12/01/2018 00:00:00,,,,US
1312400,1413982019,2019,141398,06/30/2019 00:00:00,S,A,,N,366004510,,N,046611059,DOWNERS GROVE GRADE SCHOOL DISTRICT NO. 58 ,1860 63RD STREET,,DOWNERS GROVE,IL,60516,TODD DRAFALL,ASSISTANT SUPERINTEDENT FOR BUSINESS,6307195829,,TDRAFALL@DG58.ORG,01/07/2020 09:29:22,TODD DRAFALL-ASST. SUPERINTENDENT OF BUSINESS,"MILLER COOPER & CO., LTD.",1751 LAKE COOK ROAD,,DEERFIELD,IL,60015,BETSY ALLEN,PRINCIPAL,8472055000,,BALLEN@MILLERCOOPER.COM,01/03/2020 12:28:05,,O,,U,Y,N,N,N,U,750000,Y,,1921800,,N,N,N,N,N,N,,84,01/07/2020 00:00:00,02/12/2020 01:30:07,,N,505,1,x00,01/07/2020 00:00:00,,N,TODD DRAFALL,ASST. SUPERINTENDENT OF BUSINESS,01/07/2020 00:00:00,362897372,N,,Y,N,,,,,Local government,UG,,02/18/2020 16:10:13,02/20/2020 10:14:18,N,G,07/01/2018 00:00:00,,,,US
1382763,1570702019,2019,157070,12/31/2019 00:00:00,S,A,,N,226002005,,N,,TOWNSHIP OF IRVINGTON,1 CIVIC SQUARE,,IRVINGTON,NJ,07111,FAHEEM RA'OOF,DIRECTOR OF REVENUE AND FINANCE,9733996710,,FRAOOF@IRVINGTONNJ.ORG,10/06/2021 13:15:51,FAHEEM RA'OOF-CFO,SAMUEL KLEIN AND COMPANY,"550 BROAD STREET, 11TH FLOOR",,NEWARK,NJ,07102,JOSEPH J. FACCONE,SENIOR PARTNER,9736246100,,JFACCONE@SKLEIN-CPA.COM,09/22/2021 09:54:10,,O,,S,Y,Y,Y,N,U,750000,N,,2209937,,N,N,N,N,N,N,,14,10/06/2021 00:00:00,10/08/2021 01:30:03,,N,300,1,x00,10/06/2021 00:00:00,,N,FAHEEM RA'OOF,CFO,10/06/2021 00:00:00,221481139,Y,,Y,N,REGULATORY,Y,Q,,Local government,UG,,,,,,01/01/2019 00:00:00,,,,US
1314536,1541752019,2019,154175,06/30/2019 00:00:00,S,A,,N,446001394,,N,048859284,FORSYTH R-III SCHOOL DISTRICT,178 PANTHER STREET,,FORSYTH,MO,65653,DR. JEFF MINGUS,SUPERINTENDENT,4175466384,,TPERSINGER@FORSYTHR3.K12.MO.US,11/08/2019 10:13:08,JEFF MINGUS-SUPERINTENDENT,"ROBERTS, MCKENZIE, MANGAN & CUMMINGS",4035 S. FREMONT,,SPRINGFIELD,MO,65804,ROBERT W. REBMANN,PARTNER,4178835348,,RWR@RMMC-CPA.COM,11/11/2019 16:20:06,,O,,S,N,N,N,N,U,750000,N,,1413589,,N,N,N,N,N,N,,12,11/11/2019 00:00:00,11/14/2019 01:30:13,,N,505,1,x00,11/11/2019 00:00:00,,N,JEFF MINGUS,SUPERINTENDENT,11/11/2019 00:00:00,431244312,N,,N,N,CASH,N,U,,Local government,UG,,11/27/2019 10:33:24,12/05/2019 07:47:27,N,G,07/01/2018 00:00:00,,,,US
1335823,2493352019,2019,249335,06/30/2019 00:00:00,S,A,,N,770324641,,N,,MONTECITO FIRE DEPARTMENT,595 SAN YSIDRO ROAD,,SANTA BARBARA,CA,93108,ARACELI NAHAS,DISTRICT ACCOUNTANT,8059697762,,ANAHAS@MONTECITOFIRE.COM,03/31/2020 21:58:56,ARACELI NAHAS-DISTRICT ACCOUNTANT,"FECHTER AND COMPANY, CERTIFIED PUBLIC ACCOUNTANTS",3345 AMERICAN RIVER DRIVE,,SACRAMENTO,CA,95864,LAMAR EDWARDS,AUDIT MANAGER,9163335360,,LEDWARDS@FECHTERCPA.COM,03/31/2020 20:36:29,,O,,U,N,N,N,N,U,750000,Y,,4669969,,N,N,N,N,N,N,,97,03/31/2020 00:00:00,05/02/2020 01:30:05,,N,888,1,x00,03/31/2020 00:00:00,,N,ARACELI NAHAS,DISTRICT ACCOUNTANT,03/31/2020 00:00:00,208710580,N,,N,N,,,,,Local government,UG,,,,,,07/01/2018 00:00:00,,,,US
1342211,463672019,2019,46367,12/31/2019 00:00:00,S,A,,N,351404782,,N,086777620,"FAMILY & CHILDREN'S CENTER COUNSELING AND DEVELOPMENT SERVICES, INC.","300 S. ST. LOUIS BLVD., SUITE 100",,SOUTH BEND,IN,46617,MARK P. MULLANEY,DIRECTOR OF BUSINESS OPERATIONS,5749689660,,MMULLANEY@FCCIN.ORG,08/28/2020 15:25:07,MARK MULLANEY-DIRECTOR OF BUSINESS OPERATIONS,"CULLAR & ASSOCIATES, PC, CPA'S","218 W. WASHINGTON STREET, SUITE 300",,SOUTH BEND,IN,46601,RICHARD J. CULLAR,PRESIDENT,5742888320,,RCULLAR@CULLAR.COM,08/28/2020 12:53:49,,O,,U,N,N,N,N,U,750000,N,,1330250,,N,N,N,N,N,N,,93,08/28/2020 00:00:00,09/02/2020 01:30:05,,N,908,1,X,08/28/2020 00:00:00,,N,MARK MULLANEY,DIRECTOR OF BUSINESS OPERATIONS,08/28/2020 00:00:00,351814762,N,,N,N,,,,,Non-profit,UG,,,,,,01/01/2019 00:00:00,,,,US
1309115,1011112019,2019,101111,05/31/2019 00:00:00,S,A,,N,741109631,,N,136152840,OUR LADY OF THE LAKE UNIVERSITY OF SAN ANTONIO ,411 S.W. 24TH STREET,,SAN ANTONIO,TX,782074689,COURTNEY NEVILL,CONTROLLER,2104313921,,CANEVILL@OLLUSA.EDU,12/06/2019 17:56:35,COURTNEY NEVILL-CONTROLLER,"BKD, LLP","10001 REUNION PLACE, SUITE 400",,SAN ANTONIO,TX,782164137,MAKAYLA MATHESON,DIRECTOR,2102681934,,MMATHESON@BKD.COM,12/10/2019 14:21:49,,O,,U,N,N,N,N,U,750000,Y,,48075760,,N,N,N,N,N,N,,84,12/11/2019 00:00:00,01/11/2020 01:30:20,,N,904,1,x00,12/11/2019 00:00:00,,N,COURTNEY NEVILL,CONTROLLER,11/20/2019 00:00:00,440160260,N,,N,N,,,,,Institution of higher education (IHE),UG,00359800,02/06/2020 15:27:30,02/13/2020 10:36:38,N,B,06/01/2018 00:00:00,,,,US
1313187,1613242019,2019,161324,06/30/2019 00:00:00,S,A,,N,566001333,,N,079053468,CITY OF SHELBY,300 S WASHINGTON STREET,,SHELBY,NC,28150,JUSTIN MERRITT,FINANCE DIRECTOR,7044846834,,JUSTIN.MERRITT@CITYOFSHELBY.COM,11/14/2019 14:56:42,JUSTIN MERRITT-ASSISTANT CITY MANAGER/DIRECTOR OF FINANCE,"MARTIN STARNES & ASSOCIATES, CPAS, P.A.",730 13TH AVENUE DRIVE SOUTHEAST,,HICKORY,NC,28602,MARCIE SPIVEY,PARTNER,8283272727,,MBRASWELL@MARTINSTARNES.COM,11/15/2019 10:17:00,,O,,U,N,N,N,N,U,750000,N,,11204374,,N,N,N,N,N,N,,14,11/15/2019 00:00:00,11/19/2019 01:30:12,,N,200,1,x00,11/15/2019 00:00:00,,N,JUSTIN MERRITT,ASSISTANT CITY MANAGER/DIRECTOR OF FINANCE,11/15/2019 00:00:00,561761202,N,,N,N,,,,,Local government,UG,,,,,,07/01/2018 00:00:00,,,,US
1345351,2092852019,2019,209285,12/31/2019 00:00:00,S,A,,N,111672777,,N,072807423,MENORAH HOME AND HOSPITAL FOR THE AGED AND INFIRM 01243208,6323 7TH AVENUE,,BROOKLYN,NY,11220,ALEXANDER BALKO,PRESIDENT,7184917221,,ABALKO@MJHS.ORG,09/14/2020 10:33:45,ALEX BALKO-PRESIDENT,"BKD, LLP",1155 AVENUE OF THE AMERICAS,,NEW YORK,NY,10036,ALLAN BLUM,PARTNER,2128674000,,ABLUM@BKD.COM,09/12/2020 20:56:36,,O,,U,N,N,N,N,U,750000,Y,,38052103,,N,N,N,N,N,N,,14,09/14/2020 00:00:00,09/16/2020 01:30:05,,N,903,1,X,09/14/2020 00:00:00,,N,ALEX BALKO,PRESIDENT,09/14/2020 00:00:00,440160260,N,,N,N,,,,,Non-profit,UG,,,,,,01/01/2019 00:00:00,,,,US
1333115,2245922019,2019,224592,12/31/2019 00:00:00,S,A,,N,731676594,,N,185342510,SOUTH SEVEN SENIOR VILLAGE 127EE036,823 COMMERCE LOOP,,PORT TOWNSEND,WA,98368,GREG PEARSON,FINANCE DIRECTOR,3603852571,,GPEARSON@OLYCAP.ORG,03/13/2020 18:34:15,GREG PEARSON-FINANCE DIRECTOR,"AIKEN & SANDERS, INC., PS",324 SO. MAIN STREET,,MONTESANO,WA,98563,TERRY SODDERS,CPA,3605333370,,TERRY@AIKEN-SANDERS.COM,03/13/2020 18:43:44,,O,,U,N,N,N,N,U,750000,Y,,2215340,,N,N,N,N,N,N,,14,03/13/2020 00:00:00,03/19/2020 01:30:15,,N,903,1,x00,03/13/2020 00:00:00,,N,GREG PEARSON,FINANCE DIRECTOR,03/13/2020 00:00:00,910870697,N,,N,N,,,,,Non-profit,UG,,,,,,01/01/2019 00:00:00,,,,US
1328582,2320872019,2019,232087,08/31/2019 00:00:00,S,A,,N,741961460,,N,096396106,WEBB CONSOLIDATED INDEPENDENT SCHOOL DISTRICT ,P.O. BOX 206,,BRUNI,TX,78344,JENETTE BLACK,CHIEF FINANCIAL OFFICER,3617475415,,JENETTE.BLACK@WEBBCISD.COM,02/05/2020 15:53:59,JENETTE BLACK-CHIEF FINANCIAL OFFICER,"JOHN WOMACK & CO., P.C.",P.O. BOX 1147,,KINGSVILLE,TX,78364,MARGARET KELLY,AUDITOR,3615922671,,MKELLYCPA@YAHOO.COM,02/05/2020 17:43:02,,O,,U,N,N,N,N,U,750000,N,,870462,,N,N,N,N,N,N,,84,02/05/2020 00:00:00,02/28/2020 01:30:06,,N,505,1,x00,02/05/2020 00:00:00,,N,JENETTE BLACK,CHIEF FINANCIAL OFFICER,02/05/2020 00:00:00,742695731,N,,N,N,,,,,Local government,UG,,03/25/2020 13:36:13,04/02/2020 11:19:35,N,G,09/01/2018 00:00:00,,,,US
1347229,1831272019,2019,183127,12/31/2019 00:00:00,S,A,,N,581395913,,N,847524402,"GARNETT SENIOR HOUSING FOUNDATION, INC. ",P.O. BO 450049,,ATLANTA,GA,31145,GLENDA LEDUC,PRESIDENT - MANAGEMENT AGENT,6783302003,,GLEDUC@MANSERMAR.COM,10/19/2020 16:31:15,GLENDA LEDUC-PRESIDENT OF MANAGING AGENT,"APRIO,LLP","5 CONCOURSE PKWY, SUITE 1000",,ATLANTA,GA,30328,STACY COOPER,SENIOR MANAGER,4048929651,,STACY.COOPER@APRIO.COM,09/14/2020 15:38:26,,O,,U,N,N,N,N,U,750000,N,,1055013,,N,N,N,N,N,N,,14,10/19/2020 00:00:00,10/23/2020 01:30:06,,N,903,1,x00,09/04/2020 00:00:00,,N,GLENDA LEDUC,PRESIDENT OF MANAGING AGENT,10/19/2020 00:00:00,571157523,N,,N,N,,,,,Non-profit,UG,,,,,,01/01/2019 00:00:00,,,,
1352784,2175092019,2019,217509,09/30/2019 00:00:00,S,A,,N,911438473,,N,,MOUNTAINVIEW DAYCARE NUTRITION PROGRAM,PO BOX F,,MARYSVILLE,WA,98270,JANICE KIRBY,EXECUTIVE DIRECTOR,3066537273,,JANICE@MDNP.ORG,10/28/2020 11:37:17,JANICE KIRBY-EXECUTIVE DIRECTOR,"BRANCH RICHARDS & CO., P.S.",155 NE 100TH ST. SUITE 410,,SEATTLE,WA,98125,LARRY BUSSARD,AUDIT MANAGER,2067290114,,LARRYB@BRACO.COM,10/28/2020 12:39:26,,O,,U,N,N,N,N,U,750000,Y,,1255057,,N,N,N,N,N,N,,10,10/28/2020 00:00:00,10/30/2020 01:30:03,,N,909,1,x00,10/28/2020 00:00:00,,N,JANICE KIRBY,EXECUTIVE DIRECTOR,10/28/2020 00:00:00,900889988,N,,N,N,,,,,Non-profit,UG,,,,,,10/01/2018 00:00:00,,,,US
1344907,2484422019,2019,248442,12/31/2019 00:00:00,S,A,,N,953508058,,N,,"PECAN COMMUNITY ASSOCIATION, INC.",5185 COMANCHE DRIVE   SUITE D,,LA MESA,CA,91942,DEBRA DAILEY,PROPERTY MANAGER,6196973191,,DDAILEY@CBMGMT.COM,08/13/2020 20:40:32,DEBRA DAILEY-COMMUNITY/PROPERTY MANAGER,EDWARD A ROSE JR CPA PC,3027 MARINA BAY DRIVE SUITE 208  ,,LEAGUE CITY,TX,77573,EDWARD A ROSE JR,CPA,7135816029,,EDROSE@EDROSEATORNEYCPA.COM,08/14/2020 16:20:32,,O,,U,N,N,N,N,U,750000,Y,,2601657,,N,N,N,N,Y,N,,14,08/14/2020 00:00:00,08/25/2020 01:30:03,,N,888,1,X,08/14/2020 00:00:00,,N,DEBRA DAILEY,COMMUNITY/PROPERTY MANAGER,08/14/2020 00:00:00,330916692,N,,N,N,,,,,Non-profit,UG,,,,,,01/01/2019 00:00:00,,,,US
1350679,1779282019,2019,177928,12/31/2019 00:00:00,S,A,,N,396005742,,N,,"SAWYER COUNTY, WISCONSIN","10610 MAIN STREET, SUITE 10",,HAYWARD,WI,54843,MIKE KEEFE,ACCOUNTING MANAGER,7156383218,,MIKE.KEEFE@SAWYERCOUNTYGOV.ORG,10/22/2020 14:37:34,MICHAEL KEEFE-ACCOUNTING MANAGER,CLIFTONLARSONALLEN LLP,"3402 OAKWOOD MALL DRIVE, SUITE 100",,EAU CLAIRE ,WI,54701,APRIL ANDERSON,PRINCIPAL,7158521167,,APRIL.ANDERSON@CLACONNECT.COM,10/23/2020 06:58:53,,O,,U,N,Y,N,N,U,750000,N,,1920696,,N,N,N,N,N,N,,16,10/23/2020 00:00:00,10/28/2020 01:30:05,,N,100,1,x00,10/23/2020 00:00:00,,N,MICHAEL KEEFE,ACCOUNTING MANAGER,10/23/2020 00:00:00,410746749,Y,,N,N,,,,,Local government,UG,,10/28/2020 12:13:11,10/29/2020 15:28:20,,N,01/01/2019 00:00:00,,,,US
1317106,2299282019,2019,229928,06/30/2019 00:00:00,S,A,,N,043067595,,N,008106689,"ST. BONIFACE HAITI FOUNDATION, INC.",40 GLEN AVE,,NEWTON,MA,02459,JUDI GALE,CHIEF ACCOUNTING OFFICER,6172449800,,JGALE@HAITIHEALTH.ORG,12/09/2019 09:54:28,JUDI GALE-CHIEF FINANCIAL OFFICER,"CITRIN COOPERMAN & COMPANY, LLP",10 FORBES ROAD WEST,,BRAINTREE,MA,02184,ALEXANDRIA REGAN,PARTNER,7813562000,,AREGAN@CITRINCOOPERMAN.COM,12/07/2019 11:17:10,,O,,U,N,N,N,N,U,750000,N,,1135805,,N,N,N,N,N,N,,98,12/09/2019 00:00:00,01/03/2020 01:30:13,,N,909,1,x00,12/09/2019 00:00:00,,N,JUDI GALE,CHIEF FINANCIAL OFFICER,11/20/2019 00:00:00,222428965,N,,N,N,,,,,Non-profit,UG,,,,,,07/01/2018 00:00:00,,,,US
1329214,2468762019,2019,246876,06/30/2019 00:00:00,S,A,,N,813036685,,N,080377093,BRAZOS VALLEY COMMUNITY ACTION PROGRAMS ,"1733 BRIARCREST, SUITE 111",,BRYAN,TX,77093,DARLA PATTERSON,CFO,9792134186,,DPATTERSON@CAPBV.ORG,02/20/2020 15:14:20,DARLA PATERSON-DARLA PATTERSON,WIPFLI LLP,PO BOX 8700,,MADISON,WI,537088700,"JOHN HEMMING, CPA",PARTNER,6082741980,,JHEMMING@WIPFLI.COM,02/20/2020 15:19:47,,O,,U,N,N,N,N,U,750000,Y,,12125958,,N,N,N,N,N,N,,93,02/20/2020 00:00:00,03/06/2020 01:30:07,,N,888,1,x00,02/20/2020 00:00:00,,N,DARLA PATERSON,DARLA PATTERSON,02/20/2020 00:00:00,390758449,N,,N,N,,,,,Non-profit,UG,,,,,,07/01/2018 00:00:00,,,,US
1324691,1665022019,2019,166502,06/30/2019 00:00:00,S,A,,N,936008560,,N,033363433,LAKE OSWEGO SCHOOL DISTRICT NO 7J ,2455 SW COUNTRY CLUB ROAD POB 70,,LAKE OSWEGO,OR,97034,STUART KETZLER,ASSISTANT SUPERINTENDENT OF BUS SVCS,5035342308,,KETZLERS@LOSWEGO.K12.OR.US,01/22/2020 19:16:30,STUART KETZLER-DEPUTY CLERK,"GROVE, MUELLER & SWANK, P.C.",475 COTTAGE STREET NE STE 200,,SALEM,OR,97301,LARRY GRANT,SHAREHOLDER,5035817788,,LARRY.GRANT@GMSCPA.COM,01/22/2020 17:38:23,,O,,U,N,N,N,N,U,750000,Y,,2238387,,N,N,N,N,N,N,,84,01/22/2020 00:00:00,02/21/2020 01:30:11,,N,505,1,x00,01/22/2020 00:00:00,,N,STUART KETZLER,DEPUTY CLERK,01/22/2020 00:00:00,930874157,N,,N,N,,,,,Local government,UG,,03/09/2020 14:59:27,03/12/2020 08:04:07,N,G,07/01/2018 00:00:00,,,,US
1351929,1956762019,2019,195676,09/30/2019 00:00:00,S,A,,N,741946779,,N,804332062,CAMERON COUNTY HOUSING AUTHORITY,P. O. BOX 5806,,BROWNSVILLE,TX,78523,DAISY FLORES,EXECUTIVE DIRECTOR,9565414983,,DFLORES@CCHATX.ORG,10/20/2020 14:48:09,DAISY FLORES-EXECUTIVE DIRECTOR,"JOHN A. BLAKEWAY, CPA",P. O. BOX 570,,KENNEDALE,TX,76060,JOHN A. BLAKEWAY,CERTIFIED PUBLIC ACCOUNTANT,8174834851,,MELISSA@BLAKEWAYCPA.COM,10/20/2020 14:49:29,,O,,U,N,N,N,N,U,750000,Y,,6950587,,N,N,N,N,N,N,,14,10/20/2020 00:00:00,10/23/2020 01:30:06,,N,403,1,x00,10/20/2020 00:00:00,,N,DAISY FLORES,EXECUTIVE DIRECTOR,10/20/2020 00:00:00,751907824,N,,N,N,,,,,Local government,UG,,,,,,10/01/2018 00:00:00,,,,US
1316088,2459452019,2019,245945,12/31/2019 00:00:00,S,A,,N,391806915,,N,964385798,BAYBARRY CORPORATION,2961 DECKER DRIVE,,RICE LAKE,WI,54868,TERRA PAWLIUK-MCGIFFIN,VICE PRESIDENT OF ACCOUNTING,7154341710,,TERRA.MCGIFFIN@IMPACTSEVEN.ORG,05/13/2020 19:10:57,TERRA PAWLIUK MCGIFFIN-VP OF ACCOUNTING,"BAKER TILLY VIRCHOW KRAUSE, LLP","777 E. WISCONSIN AVE, 32ND FLOOR",,MILWAUKEE,WI,53202,"KRISTA K PANKOP, CPA",PARTNER,4147775355,,KRISTA.PANKOP@BAKERTILLY.COM,05/05/2020 10:54:59,,O,,U,N,N,N,N,U,750000,Y,,1035217,,N,N,N,N,Y,N,,14,05/14/2020 00:00:00,05/16/2020 01:30:15,,N,888,1,x00x14,05/14/2020 00:00:00,,N,TERRA PAWLIUK MCGIFFIN,VP OF ACCOUNTING,05/14/2020 00:00:00,390859910,N,,N,N,,,,,Non-profit,UG,,,,,,01/01/2019 00:00:00,,,,US
1317905,2231082019,2019,223108,09/30/2019 00:00:00,S,A,,N,510418090,,N,127741937,"NCR OR HARBORCREEK, PA, INC. EASTLAKE WOODS 033-EE105",2335 NORTH BANK DRIVE,,COLUMBUS,OH,43220,ELIZABETH KING,HOUSING ACCOUNTING SUPPORT SUPERVISOR,6144512151,,NCRAUDITTEAM@NATIONALCHURCHRESIDENCES.ORG,12/13/2019 13:53:32,JULIE FRATIANNE-TREASURER,"TIDWELL GROUP, LLC","4249 EASTON WAY, STE 210",,COLUMBUS,OH,43219,"ANDREW GANTZER, CPA",PARTNER,6145994022,,ANDY.GANTZER@TIDWELLGROUP.COM,12/13/2019 12:06:03,,O,,U,N,N,N,N,U,750000,Y,,4212495,,N,N,N,N,N,N,,14,12/13/2019 00:00:00,01/14/2020 01:30:14,,N,903,1,x00,12/13/2019 00:00:00,,N,JULIE FRATIANNE,TREASURER,11/20/2019 00:00:00,271490692,N,,N,N,,,,,Non-profit,UG,,,,,,10/01/2018 00:00:00,,,,US
1342852,1507072019,2019,150707,12/31/2019 00:00:00,S,A,,N,416005808,,N,037346483,ISANTI COUNTY,555 18TH AVENUE SW,,CAMBRIDGE,MN,550081536,CHAD STRUSS,AUDITOR/TREASURER,7636891644,,CHAD.STRUSS@CO.ISANTI.MN.US,08/11/2020 10:33:23,CHAD STRUSS-AUDITOR-TREASURER,MINNESOTA STATE AUDITOR'S OFFICE,"525 PARK STREET, SUITE 500",,SAINT PAUL,MN,55103,JULIE BLAHA,STATE AUDITOR,6512962551,,STATE.AUDITOR@STATE.MN.US,08/07/2020 10:47:58,,O,,U,Y,N,N,N,U,750000,N,,4278611,,N,N,N,N,N,N,,93,08/12/2020 00:00:00,08/14/2020 01:30:04,,N,100,1,X,08/12/2020 00:00:00,,N,CHAD STRUSS,AUDITOR-TREASURER,08/12/2020 00:00:00,416007162,N,,Y,N,,,,,Local Government,UG,,08/14/2020 13:11:31,08/20/2020 07:42:38,,N,01/01/2019 00:00:00,,,,US
1320380,415582019,2019,41558,06/30/2019 00:00:00,S,A,,N,330413730,,N,627599988,LA SIERRA UNIVERSITY,4500 RIVERWALK PARKWAY,,RIVERSIDE,CA,92515,DAVID GERIGUIS,VICE PRESIDENT - FINANCE,9517822002,,DGERIGUI@LASIERRA.EDU,02/10/2020 12:31:29,DAVID GERIGUIS-CHIEF FINANCIAL OFFICER,"BKD, LLP","200 EAST MAIN STREET, SUITE 700",,FORT WAYNE,IN,468021900,ADAM SMITH,PARTNER,2604604000,,ASMITH@BKD.COM,02/08/2020 08:32:38,,O,,U,N,N,N,N,U,750000,N,,29242175,,N,N,N,N,N,N,,84,02/10/2020 00:00:00,02/29/2020 01:30:06,,N,904,1,x00,02/10/2020 00:00:00,,N,DAVID GERIGUIS,CHIEF FINANCIAL OFFICER,02/10/2020 00:00:00,440160260,N,,N,N,,,,,Institution of higher education (IHE),UG,00121500,03/30/2020 13:53:46,04/09/2020 11:22:58,N,B,07/01/2018 00:00:00,,,,US
1303959,2270512019,2019,227051,03/31/2019 00:00:00,S,A,,N,200508924,,N,187493655,TRINITY HOMES FOR ELDERLY INC RENAISSANCE SQUARE APTS 087-EE048-NP-WAH,407 E. MAIN ST,,MORRISTOWN,TN,37814,MARY HAZELWOOD,ASSISTANT DIRECTOR,4235861494,,MARYH@DOUGLASCHEROKEE.ORG,07/26/2019 08:06:47,SUSAN LUKER-PRESIDENT,"PURKEY, CARTER, COMPTON, SWANN & CARTER, PLLC",P.O. BOX 727,,MORRISTOWN,TN,378150727,"R. SUSIE CARTER, CPA",MEMBER,4235864850,,SCARTER@PCCSC.COM,07/26/2019 07:54:35,,O,,U,N,N,N,N,U,750000,Y,,3344986,,N,N,N,N,N,N,,14,07/26/2019 00:00:00,08/02/2019 01:30:40,,N,903,1,x00,07/26/2019 00:00:00,,N,SUSAN LUKER,PRESIDENT,07/26/2019 00:00:00,620882329,N,,N,N,,,,,Non-profit,UG,,,,,,04/01/2018 00:00:00,,,,US
1312451,2007422019,2019,200742,06/30/2019 00:00:00,S,A,,N,870267073,,N,070027933,CENTRAL UTAH WATER CONSERVANCY DISTRICT,1426 E 750 N ST STE. 400,,OREM,UT,84097,SHAWN LAMBERT,CHIEF FINANCIAL OFFICER,8012267171,,SHAWN@CUWCD.COM,10/18/2019 22:43:05,SHAWN LAMBERT-CFO,KPMG,15 W SOUTH TEMPLE SUITE 1500,,SALT LAKE CITY,UT,84101,ERIC DENNING,AUDIT PARTNER,8012371433,,EDENNING@KPMG.COM,10/18/2019 23:22:33,,O,,U,N,N,N,N,U,750000,Y,,10938759,,N,N,N,N,N,N,,15,10/18/2019 00:00:00,10/22/2019 01:30:05,,N,407,1,x00,10/18/2019 00:00:00,,N,SHAWN LAMBERT,CFO,10/18/2019 00:00:00,135565207,N,,N,N,,,,,Local government,UG,,,,,,07/01/2018 00:00:00,,,,US
1314058,59072019,2019,5907,06/30/2019 00:00:00,S,A,,N,050258956,,N,075705533,RHODE ISLAND SCHOOL OF DESIGN ,TWO COLLEGE STREET,,PROVIDENCE,RI,029036100,THOMAS MATTOS,CONTROLLER,4014546649,,TMATTOS@RISD.EDU,12/11/2019 16:58:52,THOMAS MATTOS-CONTROLLER,"BAKER TILLY VIRCHOW KRAUSE, LLP", 1 PENN PLAZA SUITE 3000,, NEW YORK ,NY,10119,ANDREA CALADIE,PARTNER,5708200174,,ANDREA.CALADIE@BAKERTILLY.COM,12/06/2019 11:01:26,,O,,U,N,N,N,N,U,750000,Y,,21140634,,Y,N,N,Y,N,N,,84,12/11/2019 00:00:00,01/11/2020 01:30:20,,N,904,1,x84x00,12/11/2019 00:00:00,,N,THOMAS MATTOS,CONTROLLER,11/20/2019 00:00:00,390859910,N,,N,Y,,,,,Institution of higher education (IHE),UG,00340900,02/06/2020 14:20:08,02/13/2020 10:36:38,S,S,07/01/2018 00:00:00,,,,US
1329208,2239442019,2019,223944,06/30/2019 00:00:00,S,A,,N,810532842,,N,186704339,NORTH CENTRAL MONTANA REGIONAL WATER AUTHORITY ,P.O. BOX 2456,,HAVRE,MT,59501,JODY HELLEGAARD,GENERAL MANAGER,4069454343,,JODY@NCMRWA.COM,02/10/2020 18:49:31,JODY HELLEGAARD-GENERAL MANAGER,"DOUGLAS WILSON & COMPANY, P.C.",1000 1ST AVE S,,GREAT FALLS,MT,59401,MELISSA SOLDANO,SHAREHOLDER,4067614645,,MELISSA.SOLDANO@DWCOGF.COM,02/10/2020 18:23:37,,O,,U,N,N,N,N,U,750000,Y,,5571658,,N,N,N,N,N,N,,15,02/10/2020 00:00:00,02/29/2020 01:30:06,,N,907,1,x00,02/10/2020 00:00:00,,N,JODY HELLEGAARD,GENERAL MANAGER,02/10/2020 00:00:00,810446334,N,,N,N,,,,,Local government,UG,,,,,,07/01/2018 00:00:00,,,,US
1342349,1801332019,2019,180133,06/30/2019 00:00:00,S,A,,N,660433481,,N,118162700,OFFICE OF THE GOVERNOR OF THE COMMONWEALTH OF PUERTO RICO,PO BOX 9020092,,SAN JUAN,PR,009020082,CARMEN COLON,DIRECTOR,7877217000,,CMCOLON51@FORTALEZA.PR.GOV,07/02/2020 16:14:18,CARMEN COLON-EXECUTIVE DIRECTOR,"AQUINO, DE CORDOVA, ALFARO & CO.,LLP",PO BOX 70262,,CAROLINA,PR,009368262,VELVETTE BARNESS,SENIOR AUDIT MANAGER,7872539595,,VBARNESS@ADACPA.COM,07/02/2020 16:16:44,,O,,S,N,N,N,N,U,750000,N,,1424049,,N,N,N,N,Y,N,,94,07/02/2020 00:00:00,07/08/2020 09:45:27,,N,709,1,x94x00,07/02/2020 00:00:00,,N,CARMEN COLON,EXECUTIVE DIRECTOR,07/02/2020 00:00:00,660546032,N,,N,N,CASH,N,U,,Local government,UG,,,,,,07/01/2018 00:00:00,,,,US
1336567,895352019,2019,89535,09/30/2019 00:00:00,S,A,,N,591898543,,N,621619188,"CLEARWATER NEIGHBORHHOD HOUSING SERVICES, INC ",608 N. GARDEN AVENUE,,CLEARWATER,FL,33755,ISAY GULLEY,PRESIDENT,7274424155,,IMGULLEY@CNHS1.ORG,04/14/2020 14:30:36,ISAY GULLEY-PRESIDENT/CEO,MAYER HOFFMAN MCCANN P.C.,"13577 FEATHER SOUND DR., SUITE 400",,CLEARWATER,FL,33762,CRAIG A. GILMAN,SHAREHOLDER,7275721400,,CGILMAN@CBIZ.COM,04/10/2020 14:58:24,,O,,U,N,N,N,N,U,750000,N,,1026458,,N,N,N,N,Y,N,,21,04/14/2020 00:00:00,05/07/2020 01:30:06,,N,908,1,x00x21,04/14/2020 00:00:00,,N,ISAY GULLEY,PRESIDENT/CEO,04/14/2020 00:00:00,431947695,N,,N,N,,,,,Non-profit,UG,,,,,,10/01/2018 00:00:00,,,,US
1327718,2036692019,2019,203669,12/31/2019 00:00:00,S,A,,N,751179147,,N,077034403,"ST. FRANCIS VILLAGE, INC. ",4070 ST. FRANCIS ROAD,,CROWLEY,TX,76063,DAVID TOLSON,EXECUTIVE DIRECTOR,8172942989,,DAVIDT@SAINTFRANCISVILLAGE.COM,07/14/2020 11:02:27,DAVID TOLSON-EXECUTIVE DIRECTOR,"J. TAYLOR & ASSOCIATES, LLC","4800 OVERTON PLAZA, SUITE 360",,FORT WORTH,TX,76109,JAN NEAL,PARTNER,8179245900,,JNEAL@JTAYLOR.COM,07/14/2020 11:45:51,,O,,U,N,N,N,N,U,750000,N,,14963894,,N,Y,N,Y,Y,N,,14,07/14/2020 00:00:00,07/17/2020 01:30:07,,N,903,1,x14,07/14/2020 00:00:00,,N,DAVID TOLSON,EXECUTIVE DIRECTOR,07/14/2020 00:00:00,752795393,N,,N,N,,,,,Non-profit,UG,,,,,,01/01/2019 00:00:00,,,,US
1348038,2223562019,2019,222356,12/31/2019 00:00:00,S,A,,N,630496920,,N,077916880,BOARD OF WATER AND SEWER COMMISSIONERS OF THE CITY OF MOBILE,4725 A MOFFETT RD,,MOBILE,AL,366182256,TIMBERLY CROOK,DEPUTY COMPTROLLER,2516943465,,TCROOK@MAWSS.COM,09/27/2020 14:09:53,DEDRA CASSIDEY-COMPTROLLER,JACKSON THORNTON & CO PC,200 COMMERCE ST,,MONTGOMERY,AL,36104,ERICA BAILEY,SENIOR MANAGER,3342403627,,ERICA.BAILEY@JACKSONTHORNTON.COM,09/29/2020 13:11:20,,O,,U,N,N,N,N,U,750000,N,,7771900,,N,N,N,N,N,N,,66,09/29/2020 00:00:00,10/01/2020 01:30:05,,N,207,1,x00,09/29/2020 00:00:00,,N,DEDRA CASSIDEY,COMPTROLLER,09/29/2020 00:00:00,631035228,N,,N,N,,,,,Local government,UG,,,,,,01/01/2019 00:00:00,,,,US
1330217,2207772019,2019,220777,06/30/2019 00:00:00,S,A,,N,010631375,,N,149388816,EMBRACE FAMILIES COMMUNITY BASED CARE FKA COMM BASED CARE CENTRAL FL  ,4001 PELEE STREET,,ORLANDO,FL,32817,CATHERINE MACINA,CHIEF FINANCIAL OFFICER,3214412085,,CATHERINE.MACINA@EMBRACEFAMILIES.ORG,02/21/2020 07:23:03,CATHERINE MACINA-CATHERINE MACINA,RSM US LLP,333 S. GARLAND AVENUE,,ORLANDO,FL,32801,JEFFREY GERVASE,SENIOR DIRECTOR,4075813568,,JEFFREY.GERVASE@RSMUS.COM,02/19/2020 08:10:27,,O,,U,N,N,N,N,U,984006,Y,,32731527,,N,N,N,N,N,N,,93,02/21/2020 00:00:00,03/06/2020 01:30:07,,N,908,1,x00,02/21/2020 00:00:00,,N,CATHERINE MACINA,CATHERINE MACINA,02/21/2020 00:00:00,420714325,N,,N,N,,,,,Non-profit,UG,,,,,,07/01/2018 00:00:00,,,,US
1329794,1750112019,2019,175011,09/30/2019 00:00:00,S,A,,N,741666921,,N,062390661,SOUTH TEXAS DEVELOPMENT COUNCIL ,1002 DICKY LANE,,LAREDO,TX,78043,MARIA M. JIMENEZ,FISCAL OFFICER,9567223995,,MJIMENEZ@STDC.COG.TX.US,09/11/2020 11:26:26,ROBERT MENDIOLA-EXECUTIVE DIRECTOR,DE LA GARZA CPA FIRM,312 GILMAN D,,LAREDO,TX,78046,BENJAMIN DE LA GARZA,CPA,9562203785,,BEN@DLGCPAFIRM.COM,09/10/2020 11:36:46,,O,,U,N,N,N,N,U,750000,Y,,7581123,,N,N,N,N,N,N,,93,09/11/2020 00:00:00,09/16/2020 01:30:05,,N,909,1,x00,09/11/2020 00:00:00,,N,ROBERT MENDIOLA,EXECUTIVE DIRECTOR,09/11/2020 00:00:00,844807660,N,,N,N,,,,,Local government,UG,,,,,,10/01/2018 00:00:00,,,,US
1306753,1853732019,2019,185373,06/30/2019 00:00:00,S,A,,N,820353464,,N,039209267,CHRISTIAN CHURCH HOMES OF ID INC DBA VALLEY VISTA VILLAGE 124-EH014,1605 GRANDVIEW DRIVE N. #37,,TWIN FALLS,ID,83301,KURT HOLCOMB,BOARD MEMBER,2087347264,,KHOLCOMB@FARMERSBANKIDAHO.COM,09/30/2019 11:25:04,EVAN MCLAUGHLIN-DIRECTOR OF ACCOUNTING,"DAUBY O'CONNOR & ZALESKI, LLC",501 CONGRESSIONAL BLVD.,,CARMEL,IN,46032,EMILY M. LANE,PRINCIPAL,3178485700,,ELANE@DOZ.NET,10/01/2019 09:12:20,,O,,U,N,N,N,N,U,750000,N,,945208,,N,N,N,N,Y,N,,14,10/01/2019 00:00:00,10/04/2019 01:30:15,,N,908,1,x00x14,10/01/2019 00:00:00,,N,EVAN MCLAUGHLIN,DIRECTOR OF ACCOUNTING,10/01/2019 00:00:00,351750664,N,,N,N,,,,,Non-profit,UG,,,,,,07/01/2018 00:00:00,,,,US
1334143,2435102019,2019,243510,06/30/2019 00:00:00,S,A,,N,237168334,,N,034841711,"NOANK COMMUNITY SUPPORT SERVICES, INC. ",306 THAMES ST.,,GROTON,CT,06340,CHRISTINE WALTERS,FINANCE DIRECTOR,8603331623,,CWALTERS@NOANKCSS.ORG,03/22/2020 15:30:49,CHRISTINE WALTERS-FINANCE DIRECTOR,"SOLAKIAN AND COMPANY, LLC",P.O. BOX 716,,NORTH BRANFORD,CT,06471,MICHAEL SOLAKIAN,MANAGING MEMBER,2034838115,,SOLAKIAN@SOLAKIANCPA.COM,03/22/2020 17:36:23,,O,,U,N,N,N,N,U,750000,N,,989106,,N,N,N,N,N,N,,93,03/22/2020 00:00:00,03/26/2020 01:30:07,,N,888,1,x00,11/09/2019 00:00:00,,N,CHRISTINE WALTERS,FINANCE DIRECTOR,11/09/2019 00:00:00,461036695,N,,N,N,,,,,Non-profit,UG,,,,,,07/01/2018 00:00:00,,,,
1330615,274542019,2019,27454,06/30/2019 00:00:00,S,A,,N,232389101,,N,097884928,"CARBON MONROE PIKE DRUG & ALCOHOL COMMISSION, INC. ","724 PHILLIPS STREET, SUITE 203",,STROUDSBURG,PA,18360,JAMIE DRAKE,EXECUTIVE DIRECTOR,5704211960,,JDRAKE@CMPDA.COG.PA.US,02/24/2020 08:47:20,JAMIE DRAKE-EXECUTIVE DIRECTOR,"BAKER TILLY VIRCHOW KRAUSE, LLP","46 PUBLIC SQUARE, SUITE 400",,WILKES-BARRE,PA,18701,WILLIAM MCGOWAN,PARTNER,5708200199,,WILLIAM.MCGOWAN@BAKERTILLY.COM,02/21/2020 17:02:21,,O,,U,N,N,N,N,U,750000,N,,1107800,,N,N,N,N,N,N,,93,02/24/2020 00:00:00,03/06/2020 01:30:07,,N,908,1,x00,02/24/2020 00:00:00,,N,JAMIE DRAKE,EXECUTIVE DIRECTOR,02/24/2020 00:00:00,390859910,N,,N,N,,,,,Non-profit,UG,,,,,,07/01/2018 00:00:00,,,,US
1362357,1938582019,2019,193858,12/31/2019 00:00:00,S,A,,Y,436001345,,Y,807100602,"FRANKLIN COUNTY, MISSOURI",400 EAST LOCUST ROOM 201,,UNION,MO,63084,TIM BAKER,COUNTY CLERK,6365836355,,TBAKER@FRANKLINMO.NET,12/31/2020 16:48:48,TIM BAKER-COUNTY CLERK,"HOCHSCHILD, BLOOM & COMPANY","1000 WASHINGTON SQUARE, P.O. BOX 1457",,WASHINGTON,MO,630908457,"TAMBER M. ALSOP, CPA",PARTNER,6362394785,,TAMMY@HBCLP.COM,12/31/2020 15:40:40,,O,,U,N,N,N,N,U,750000,Y,,2196175,,N,N,N,N,N,N,,16,12/31/2020 00:00:00,01/06/2021 01:30:05,,N,100,1,x00,12/31/2020 00:00:00,,N,TIM BAKER,COUNTY CLERK,12/31/2020 00:00:00,430673920,N,,N,N,,,,,Local government,UG,,,,,,01/01/2019 00:00:00,,,,US
1380770,1616492019,2019,161649,06/30/2019 00:00:00,S,A,,N,566000228,,Y,080739751,"CITY OF GOLDSBORO, NORTH CAROLINA","PO DRAWER A, 200 NORTH CENTER STREET",,GOLDSBORO,NC,27530,CATHERINE GWYNN,FINANCE DIRECTOR,9195804356,,CGWYNN@GOLDSBORONC.GOV,05/14/2021 12:55:21,CATHERINE GWYNN-FINANCE DIRECTOR,DIXON HUGHES GOODMAN LLP,1829 EASTCHESTER DRIVE,,HIGH POINT,NC,27265,JOHN FRANK,PARTNER,3368895156,,JOHN.FRANK@DHG.COM,05/18/2021 11:11:01,,O,,U,N,Y,Y,N,U,750000,N,,5404959,,N,Y,N,Y,N,N,,20,05/19/2021 00:00:00,05/21/2021 01:30:03,,N,200,1,x00,05/19/2021 00:00:00,,N,CATHERINE GWYNN,FINANCE DIRECTOR,05/19/2021 00:00:00,560747981,Y,,N,N,,,,,Local government,UG,,,,,,07/01/2018 00:00:00,,,,US
1322349,1860822019,2019,186082,06/30/2019 00:00:00,S,A,,N,770434126,,N,616486135,"DELA VINA HOUSING, INC. 121-HD038-NP-CMI",PO BOX 3222,,MONTEREY,CA,93942,PALI WEERASEKERA,DIRECTOR OF FINANCE,8316494522,,PWEERASEKERA@INTERIMINC.ORG,12/23/2019 16:54:11,PALI WEERASEKERA-DIRECTOR OF FINANCE,HAYASHI WAYLAND LLP,1188 PADRE DRIVE SUITE 101,,SALINAS,CA,93901,AUTUMN ROSSI,PARTNER,8317596300,,AUTUMNR@HW-CPA.COM,12/23/2019 17:05:23,,O,,U,N,N,N,N,U,750000,Y,,1278357,,N,N,N,N,N,N,,14,12/23/2019 00:00:00,02/04/2020 01:30:06,,N,903,1,x00,12/23/2019 00:00:00,,N,PALI WEERASEKERA,DIRECTOR OF FINANCE,11/20/2019 00:00:00,201939256,N,,N,N,,,,,Non-profit,UG,,,,,,07/01/2018 00:00:00,,,,US
1349195,2244272019,2019,224427,12/31/2019 00:00:00,S,A,,N,753036330,,N,808101583,CENTER FOR CHILDREN AND FAMILY FUTURES,"25371 COMMERCENTRE DR., SUITE 250",,LAKE FOREST ,CA,92630,CHARLES WILLIAMS,CHIEF FINANCIAL OFFICER,7145053525,,CWILLIAMS@CFFUTURES.ORG,09/29/2020 15:15:05,CHARLES WILLIAMS-CHIEF FINANCIAL OFFICER,"PDM, LLP","3460 TORRANCE BLVD, SUITE 200",,TORRANCE,CA,90503,ANTHONY BOZANIC,PARTNER,3105404118,,ABOZANIC@PDMCPAS.COM,09/29/2020 17:43:16,,O,,U,N,N,N,N,U,750000,Y,,8675512,,N,N,N,N,N,N,,93,09/29/2020 00:00:00,10/01/2020 01:30:05,,N,908,1,x00,09/29/2020 00:00:00,,N,CHARLES WILLIAMS,CHIEF FINANCIAL OFFICER,09/29/2020 00:00:00,330783700,N,,N,N,,,,,Non-profit,UG,,,,,,01/01/2019 00:00:00,,,,US
1306942,1857252019,2019,185725,06/30/2019 00:00:00,S,A,,N,721263715,,N,188206671,"PLACER COUNTY VOA ELDERLY HOUSING, INC.  (ROLLING OAKS) 136-EE007",1660 DUKE STREET,,ALEXANDRIA,VA,22314,VANESSA TRAN,"CONTROLLER, HOUSING",7033415000,,VTRAN@VOA.ORG,10/28/2019 18:05:56,VANESSA TRAN-CONTROLLER,"MADDOX & ASSOCIATES, APC","5627 BANKERS AVENUE, BUILDING 2",,BATON ROUGE,LA,708082610,JEFF MADDOX,CPA,2259263360,,MAIL@MADDOXASSOCIATES.COM,10/29/2019 12:55:04,,O,,U,N,N,N,N,U,750000,Y,,6093841,,N,N,N,N,N,N,,14,10/29/2019 00:00:00,10/31/2019 01:30:14,,N,903,1,x00,10/29/2019 00:00:00,,N,VANESSA TRAN,CONTROLLER,10/29/2019 00:00:00,721314069,N,,N,N,,,,,Non-profit,UG,,,,,,07/01/2018 00:00:00,,,,US
1335804,1030082019,2019,103008,08/31/2019 00:00:00,S,A,,N,742481167,,N,199778358,"SOUTHWEST KEY PROGRAMS, INC. AND AFFILIATES  ",6002 JAINE LANE,,AUSTIN,TX,78721,ERIC MARIN,CHEIF FINANCIAL OFFICER,5125832511,,EMARIN@SWKEY.ORG,04/01/2020 17:05:49,ERIC MARIN-CFO,"PMB HELIN DONOVAN, LLP","12301 RESEARCH BLVD. BLDG 5, STE. 160",,AUSTIN,TX,78759,DAVID FORREST,PARTNER,8323013002,,DFORREST@PMBHD.COM,03/31/2020 18:37:45,,C,93,U,N,N,N,N,U,3000000,Y,,454584709,,N,N,Y,Y,N,Y,,,04/01/2020 00:00:00,04/08/2020 01:30:06,,N,908,1,x93x00,03/09/2020 00:00:00,,N,ERIC MARIN,CFO,03/09/2020 00:00:00,743001153,N,,N,N,,,,,Non-profit,UG,,05/12/2020 13:09:23,05/14/2020 18:21:05,N,G,09/01/2018 00:00:00,,,,
1315335,2465502019,2019,246550,06/30/2019 00:00:00,S,A,,N,510258984,,N,147774269,"FOOD BANK OF DELAWARE, INC ",222 LAKE DRIVE,,NEWARK,DE,19702,PATRICIA BEEBE,CEO,3022921305,,PBEEBE@FBD.ORG,12/05/2019 14:37:49,PATRICIA BEEBE-PRESIDENT & CEO,"WHISMAN GIORDANO & ASSOCIATES, LLC",111 CONTINENTAL DRIVE SUITE 210,,NEWARK,DE,19713,JOSEPH GIORDANO,MANAGING PARTNER,3022660202,,JVG@WHISMANGIORDANO.COM,12/04/2019 15:21:05,,O,,U,N,N,N,N,U,750000,Y,,1440536,,N,N,N,N,N,N,,97,12/05/2019 00:00:00,12/20/2019 01:30:11,,N,888,1,x00,12/05/2019 00:00:00,,N,PATRICIA BEEBE,PRESIDENT & CEO,11/20/2019 00:00:00,203934956,N,,N,N,,,,,Non-profit,UG,,,,,,07/01/2018 00:00:00,,,,US
1322766,2478572019,2019,247857,06/30/2019 00:00:00,S,A,,N,593188546,,N,,"SALVARE, INC. DBA DAWN CENTER OF HERNANDO COUNTY",P.O. BOX 6179,,SPRING HILL,FL,34611,SHANNON SOKOLOWSKI,EXECUTIVE DIRECTOR,3526847191,,SSOKOLOWSKI@DAWNCENTER.ORG,12/23/2019 13:36:49,SHANNON SOKOLOWSKI-EXECUTIVE DIRECTOR,BAGGETT REUTIMANN & ASSOC CPAS PA,6815 DAIRY ROAD,,ZEPHYRHILLS,FL,33542,MARCI REUTIMANN,PARTNER,8137882155,,MREUTIMANN@BODINEPERRY.COM,12/23/2019 12:19:09,,O,,U,N,N,N,N,U,750000,N,,765767,,N,N,N,N,N,N,,16,12/23/2019 00:00:00,02/01/2020 01:30:06,,N,888,1,x00,12/23/2019 00:00:00,,N,SHANNON SOKOLOWSKI,EXECUTIVE DIRECTOR,11/20/2019 00:00:00,592916030,N,,N,N,,,,,Non-profit,UG,,,,,,07/01/2018 00:00:00,,,,US
1323168,359902019,2019,35990,06/30/2019 00:00:00,S,A,,N,251086440,,N,,LARK ENTERPRISES INC ,318 GREENTREE DRIVE STE 1A,,NEW CASTLE,PA,16105,DARLA MOSER,CFO,7246572001,,DMOSER@LARKENT.ORG,12/27/2019 11:18:49,DARLA MOSER-CFO,"PHILIP WEINER AND COMPANY, LTD",14 N. MERCER STREET SUITE 662,,NEW CASTLE,PA,16101,ROBERT A. IZZO,CPA,7577577757,,BOB_IZZO@MSN.COM,12/27/2019 11:14:25,,O,,U,N,N,N,N,U,750000,N,,3405284,,N,N,N,N,N,N,,93,12/27/2019 00:00:00,02/06/2020 01:30:09,,N,908,1,x00,12/27/2019 00:00:00,,N,DARLA MOSER,CFO,11/20/2019 00:00:00,251660419,N,,N,N,,,,,Local government,UG,,,,,,07/01/2018 00:00:00,,,,US
1335581,1305202019,2019,130520,06/30/2019 00:00:00,S,A,,N,866000557,,N,,TOLTEC SCHOOL DISTRICT NO.22 ,3315 N. TOLTEC RD,,ELOY,AZ,85131,TIM MCCAIN,BUSINESS MANAGER,5204662360,,TIMMCCAIN@TOLTECSD.ORG,12/17/2020 18:24:47,TIM MCCAIN-BUSINESS MANAGER,"DOBRIDGE & COMPANY, PC",1930 S ALMA SCHOOL RD SUITE A-214,,MESA,AZ,85210,WILLIAM DOBRIDGE,EXECUTIVE DIRECTOR,6233419050,,BILL@DOBRIDGECPA.COM,04/24/2020 12:56:55,,O,,U,Y,Y,Y,N,U,750000,N,,1281938,,Y,N,N,Y,Y,N,,10,12/17/2020 00:00:00,12/19/2020 01:30:04,,N,505,1,x10x00,12/17/2020 00:00:00,,N,TIM MCCAIN,BUSINESS MANAGER,12/17/2020 00:00:00,271672659,Y,,Y,Y,,,,,Local government,UG,,01/04/2021 12:44:33,01/07/2021 11:13:13,,N,07/01/2018 00:00:00,,,,US
1313404,1565522019,2019,156552,06/30/2019 00:00:00,S,A,,N,221804242,,N,076950807,MERCER COUNTY COMMUNITY COLLEGE,1200 OLD TRENTON ROAD ,,WEST WINDSOR,NJ,08550,BRIAN MCCLOSKEY,EXECUTIVE DIRECTOR OF FINANCE,6095703275,,MCCLOSKB@MCCC.EDU,03/04/2020 14:54:31,BRIAN MCCLOSKEY-EXECUTIVE DIRECTOR FINANCIAL AND ACCOUNTING SERVIC, BOWMAN AND COMPANY LLP,601 WHITE HORSE ROAD,,VOORHEES,NJ,08043,CAROL MCALLISTER ,PARTNER,8564356200,,CMCALLISTER@BOWMANLLP.COM,03/04/2020 12:26:13,,O,,U,N,N,N,N,U,750000,N,,15680399,,Y,N,N,Y,Y,N,,84,03/04/2020 00:00:00,03/14/2020 01:30:14,,N,104,1,x84,03/04/2020 00:00:00,,N,BRIAN MCCLOSKEY,EXECUTIVE DIRECTOR FINANCIAL AND ACCOUNTING SERVIC,03/04/2020 00:00:00,210658561,N,,N,Y,,,,,Institution of higher education (IHE),UG,00474000,04/13/2020 13:18:58,04/16/2020 15:40:01,B,B,07/01/2018 00:00:00,,,,US
1336790,1812422019,2019,181242,09/30/2019 00:00:00,S,A,,N,580660607,,N,,"THE SALVATION ARMY - HOUSTON, TEXAS AREA COMMAND - OPERATING FUND ",1500 AUSTIN ST.,,HOUSTON,TX,77002,MAJOR ZACHARY BELL,COMMANDING OFFICER,7137520677,,ZACH.BELL@USS.SALVATIONARMY.ORG,05/13/2020 17:48:23,ZACH BELL-AREA COMMANDER,"BKHM, P.A.","1560 ORANGE AVENUE, SUITE 600",,WINTER PARK,FL,32789,NANCY S. DISALVO,AUDIT PARTNER,4079989000,,NDISALVO@BKHMCPA.COM,05/13/2020 15:47:24,,O,,U,N,N,N,N,U,750000,Y,,3429564,,N,N,N,N,N,N,,64,05/13/2020 00:00:00,05/15/2020 01:30:25,,N,908,1,x00,05/13/2020 00:00:00,,N,ZACH BELL,AREA COMMANDER,05/13/2020 00:00:00,593023516,N,,N,N,,,,,Non-profit,UG,,05/27/2020 11:59:16,06/02/2020 08:27:57,N,G,10/01/2018 00:00:00,,,,US
1328633,1096212019,2019,109621,10/31/2019 00:00:00,S,A,,N,300056876,,N,040728321,TRINITY HOUSING CORPORATION OF GREELEY ,119 14TH AVENUE,,GREELEY,CO,80631,DICK MAXFIELD,MANAGING AGENT,9703810115,,RICHARD.MAXFIELD@COMCAST.NET,02/05/2020 12:51:31,RICHARD MAXFIELD-AGENT,"ANDERSON & WHITNEY, P.C.","5801 WEST 11TH STREET, SUITE 300",,GREELEY,CO,80634,ALAN HOLMBERG,SHAREHOLDER,9703527990,,ALAN@AWHITNEY.COM,02/05/2020 10:15:23,,O,,U,N,N,N,N,U,750000,Y,,2977855,,N,N,N,N,N,N,,14,02/05/2020 00:00:00,02/28/2020 01:30:06,,N,903,1,x00,02/05/2020 00:00:00,,N,RICHARD MAXFIELD,AGENT,02/05/2020 00:00:00,841016028,N,,N,N,,,,,Non-profit,UG,,,,,,11/01/2018 00:00:00,,,,US
1338140,2038152019,2019,203815,12/31/2019 00:00:00,S,A,,N,042521025,,N,076574102,"WOLLASTON LUTHERAN CHURCH APARTMENTS, INC. (DBA FENNO HOUSE) ",540 HANCOCK STREET,,QUINCY,MA,02170,TIMOTHY WISMAR,PRESIDENT,6174790248,,TIM@TOWNBROOKHOUSE.ORG,04/30/2020 13:56:24,TIMOTHY WISMAR-PRESIDENT,"COCIO & RICHARDSON, CPA",21 FRANKLIN STREET,,QUINCY,MA,02170,BRENT RICHARDSON,PARTNER,6177735875,,BRENT23@BELD.NET,05/01/2020 08:59:09,,O,,U,N,N,N,N,U,750000,N,,1333943,,N,N,N,N,N,N,,14,05/01/2020 00:00:00,05/06/2020 01:30:07,,N,903,1,x00,05/01/2020 00:00:00,,N,TIMOTHY WISMAR,PRESIDENT,05/01/2020 00:00:00,043312453,N,,N,N,,,,,Non-profit,UG,,,,,,01/01/2019 00:00:00,,,,US
1338622,188622019,2019,18862,12/31/2019 00:00:00,S,A,,N,160910303,,N,079335755,"CATTARAUGUS COMMUNITY ACTION, INC. AND SUBSIDIARIES ",25 JEFFERSON STREET,,SALAMANCA,NY,147790308,TINA ZERBIAN,EXECUTIVE DIRECTOR,7169451041,,TZERBIAN@CCACTION.ORG,05/28/2020 08:46:08,TINA ZERBIAN-CEO,"EFPR GROUP, CPA'S PLLC","6390 MAIN STREET, SUITE 200",,WILLIAMSVILLE,NY,14221,"DOUGLAS E. ZIMMERMAN, CPA",PARTNER,7166340700,,SFSAC@EFPRGROUP.COM,05/27/2020 16:09:49,,O,,U,N,N,N,N,U,750000,Y,,4850288,,N,N,N,N,N,N,,14,05/28/2020 00:00:00,05/30/2020 01:30:38,,N,908,1,x00,05/28/2020 00:00:00,,N,TINA ZERBIAN,CEO,05/28/2020 00:00:00,474526160,N,,N,N,,,,,Non-profit,UG,,,,,,01/01/2019 00:00:00,,,,US
1352115,1884822019,2019,188482,12/31/2019 00:00:00,S,A,,N,911157595,,N,139402507,HOUSING AUTHORITY OF CHELAN COUNTY AND THE CITY OF WENATCHEE,1555 S METHOW STREET,,WENATCHEE,WA,98801,TEKLE BUSHEN ,DIRECTOR OF FINANCE,5096637421,,TEKLE@CCWHA.COM,12/21/2020 14:09:50,TEKLE BUSHEN-CFO,WASHINGTON STATE AUDITOR'S OFFICE,"1014 5TH STREET, SUITE 202",,WENATCHEE,WA,98801,JAKE SANTISTEVAN,AUDIT MANAGER,5096620440,,JAKE.SANTISTEVAN@SAO.WA.GOV,12/19/2020 00:04:13,,O,,U,N,N,N,N,U,750000,Y,,11642316,,N,N,N,N,N,N,,10,12/21/2020 00:00:00,12/23/2020 01:30:03,,N,403,1,x00,12/21/2020 00:00:00,,N,TEKLE BUSHEN,CFO,12/21/2020 00:00:00,916001098,N,,N,N,,,,,Local government,UG,,,,,,01/01/2019 00:00:00,,,,US
1322290,1344482019,2019,134448,06/30/2019 00:00:00,S,A,,N,946002388,,N,,CERES UNIFIED SCHOOL DISTRICT ,2503 LAWRENCE STREET,,CERES,CA,95307,ROBIN CLAYTON,CHIEF FINANCIAL OFFICER,2095561563,,RCLAYTON@CERES.K12.CA.US,12/20/2019 18:32:35,ROBIN CLAYTON-CHIEF FINANCIAL OFFICES/DIRECTOR FISCAL SERVICES,"EIDE BAILLY, LLP","6051 N. FRESNO STREET, SUITE 101",,FRESNO,CA,93710,DAVE RANDEL,PARTNER,5592480871,,DRANDEL@EIDEBAILLY.COM,12/20/2019 15:06:04,,O,,U,N,N,N,N,U,750000,Y,,17436844,,N,N,N,N,N,N,,10,12/20/2019 00:00:00,01/31/2020 01:30:14,,N,505,1,x00,12/20/2019 00:00:00,,N,ROBIN CLAYTON,CHIEF FINANCIAL OFFICES/DIRECTOR FISCAL SERVICES,11/20/2019 00:00:00,450250958,N,,N,N,,,,,Local government,UG,,02/25/2020 12:01:01,03/06/2020 07:09:15,N,G,07/01/2018 00:00:00,,,,US
1325349,2240582019,2019,224058,09/30/2019 00:00:00,S,A,,N,300155895,,N,195117606,L.C. HOTCHKISS TERRACE 121-EE163-WAH-NP,51 BARSTOW AVENUE,,CLOVIS,CA,93612,BETH BURKE,"ASSISTANT CONTROLLER, AFFORDABLE HOUSING",8182470420,,BETH.BURKE@HUMANGOOD.ORG,01/15/2020 23:11:37,ANDREW J. MCDONALD-CFO,"COHNREZNICK, LLP","1900 AVENUE OF THE STARS, 28TH FLOOR",,LOS ANGELES,CA,90067,MICHAEL J. GOOD,PARTNER,3106224346,,MICHAEL.GOOD@COHNREZNICK.COM,01/17/2020 00:21:19,,O,,U,N,N,N,N,U,750000,Y,,8476016,,N,N,N,N,N,N,,14,01/17/2020 00:00:00,02/20/2020 01:30:04,,N,903,1,x00,01/17/2020 00:00:00,,N,ANDREW J. MCDONALD,CFO,01/17/2020 00:00:00,221478099,N,,N,N,,,,,Non-profit,UG,,,,,,10/01/2018 00:00:00,,,,US
1318105,1115712019,2019,111571,06/30/2019 00:00:00,S,A,,N,472507725,,N,074450750,GRAND CANYON UNIVERSITY,3300 W CAMELBACK RD,,PHOENIX,AZ,85017,JUNETTE WEST,VP OF BUSINESS AND FINANCE,6026398878,,JUNETTE.WEST@GCU.EDU,12/11/2019 10:54:16,JUNETTE WEST-VP OF BUSINESS & FINANCE,WEWORSKI AND ASSOCIATES,"4660 LA JOLLA VILLAGE DRIVE, SUITE 825",,SAN DIEGO,CA,92122,BRETT INGLE,PARTNER,8585461505,,BINGLE@WEWORSKI.COM,12/11/2019 11:05:04,,C,84,U,N,N,N,N,U,750000,N,,1046941096,,N,N,N,N,N,N,,,12/11/2019 00:00:00,01/11/2020 01:30:20,,N,904,1,x00,12/11/2019 00:00:00,,N,JUNETTE WEST,VP OF BUSINESS & FINANCE,11/20/2019 00:00:00,330516783,N,,N,N,,,,,Non-profit,UG,00107400,02/10/2020 15:29:30,02/13/2020 10:36:38,N,S,07/01/2018 00:00:00,,,,US
1325445,2454232019,2019,245423,06/30/2019 00:00:00,S,A,,N,475280523,,N,,SRUF CAMPUS HOUSING INC. AND SUBSIDIARY ,104 MALTBY AVENUE SUITE 100,,SLIPPERY ROCK,PA,16057,EDWARD BUCHA,EXECUTIVE DIRECTOR,7247382183,,EBUCHA@SRUFOUNDATION.ORG,01/16/2020 11:54:06,EDWARD BUCHA-EXECUTIVE DIRECTOR,H2R CPA,875 GREENTREE ROAD,,PITTSBURGH,PA,15220,JOE DELISI,PRINCIPAL,4123912920,,JDELISI@H2RCPA.COM,01/13/2020 13:43:32,,C,10,U,N,N,N,N,U,750000,N,,111533994,,N,N,N,N,N,N,,,01/16/2020 00:00:00,02/19/2020 01:30:14,,N,888,1,x00,01/16/2020 00:00:00,,N,EDWARD BUCHA,EXECUTIVE DIRECTOR,01/16/2020 00:00:00,251031723,N,,N,N,,,,,Non-profit,UG,,,,,,07/01/2018 00:00:00,,,,US
1335766,736602019,2019,73660,09/30/2019 00:00:00,S,A,,N,520954828,,N,,"ROSEMOUNT CENTER, INC. ",2000 ROSEMOUNT AVENUE NW,,WASHINGTON,DC,20010,JACQUES RONDEAU,"PRESIDENT, CEO",2022657051,,JACQUES.RONDEAU@ROSEMOUNTCENTER.COM,03/31/2020 17:10:57,JACQUES RONDEAU-PRESIDENT/CEO,"ROGERS AND COMPANY, PLLC","8300 BOONE BOULEVARD, SUITE 600",,VIENNA,VA,22182,MARINA POLYAKOVA,AUDIT PRINCIPAL,7038930320,,MPOLYAKOVA@ROGERSPLLC.COM,03/31/2020 17:15:13,,O,,U,N,N,N,N,U,750000,Y,,2607076,,N,N,N,N,N,N,,93,03/31/2020 00:00:00,05/02/2020 01:30:05,,N,908,1,x00,03/31/2020 00:00:00,,N,JACQUES RONDEAU,PRESIDENT/CEO,03/31/2020 00:00:00,582676261,N,,N,N,,,,,Non-Profit,UG,,,,,,10/01/2018 00:00:00,,,,US
1345586,1925462019,2019,192546,06/30/2019 00:00:00,S,A,,N,236437695,,N,075505289,THE GLEN MILLS SCHOOLS,185 GLEN MILLS ROAD,,GLEN MILLS,PA,19342,TERRENCE M DOUGHERTY,COMPTROLLER,6104598100,,TDOUGHERTY@GLENMILLSSCHOOLS.ORG,08/27/2020 09:01:28,TERRENCE DOUGHERTY-COMPTROLLER,"BDO USA, LLP","1801 MARKET STREET, SUITE 1700",,PHILADELPHIA,PA,19103,NICHOLAS DURSO,PARTNER,2158025690,,NDURSO@BDO.COM,08/27/2020 09:57:43,,O,,U,N,N,N,Y,U,750000,N,,2944305,,N,N,N,N,N,N,,93,08/27/2020 00:00:00,09/02/2020 01:30:05,,N,908,1,x00,08/27/2020 00:00:00,,N,TERRENCE DOUGHERTY,COMPTROLLER,08/27/2020 00:00:00,135381590,N,,N,N,,,,,Non-profit,UG,,09/01/2020 12:51:34,09/03/2020 09:05:44,,N,07/01/2018 00:00:00,,,,US
1309075,572452019,2019,57245,06/30/2019 00:00:00,S,A,,N,382846460,,N,603193744,ROMULUS NON-PROFIT HOUSING CORPORATION 044-11102,"8425 E. TWELVE MILE ROAD, SUITE 100",,WARREN,MI,48093,CINDY LAMB,CORPORATE CONTROLLER,5867539002,,CINDY.LAMB@CSI.COOP,10/02/2019 16:29:48,CINDY LAMB-CFO,"DAUBY O'CONNOR & ZALESKI, LLC",501 CONGRESSIONAL BLVD.,,CARMEL,IN,46032,JACOB BUEHLER,MEMBER,3178485700,,JBUEHLER@DOZ.NET,10/03/2019 07:34:29,,O,,U,N,N,N,N,U,750000,Y,,3691137,,N,N,N,N,N,N,,14,10/03/2019 00:00:00,10/05/2019 01:30:13,,N,903,1,x00,10/03/2019 00:00:00,,N,CINDY LAMB,CFO,10/03/2019 00:00:00,351750664,N,,N,N,,,,,Non-profit,UG,,,,,,07/01/2018 00:00:00,,,,US
1336547,147472019,2019,14747,12/31/2019 00:00:00,S,A,,N,133746945,,N,030284025,"NORTHFIELD - ST. VINCENT'S HDFC, INC. 012-EE020",150 BRIELLE AVENUE,,STATEN ISLAND,NY,10314,MATTHEW JANECZKO,EXECUTIVE DIRECTOR AND CEO,7184776803,,MJANECZKO@SCHOUSINGNY.ORG,04/30/2020 13:06:36,MATTHEW JANECZKO-EXECUTIVE DIRECTOR/CEO,METIS GROUP LLC,14 PENN PLAZA - SUITE 1800,,NEW YORK,NY,10122,VINCENT P. PANCALDO,PRINCIPAL,9146944600,,VPANCALDO@PRAGERMETIS.COM,04/30/2020 13:27:05,,O,,U,N,N,N,N,U,750000,Y,,7273979,,N,N,N,N,N,N,,14,04/30/2020 00:00:00,05/12/2020 01:30:07,,N,903,1,x00,04/30/2020 00:00:00,,N,MATTHEW JANECZKO,EXECUTIVE DIRECTOR/CEO,04/30/2020 00:00:00,061667465,N,,N,N,,,,,Non-profit,UG,,,,,,01/01/2019 00:00:00,,,,US
1304646,386482019,2019,38648,06/30/2019 00:00:00,S,A,,N,310941461,,N,602416831,"NCR OF WHEATFIELD HSG DEV. CO., INC DBA WHEATFIELD TOWERS 014-11224 ",2335 NORTH BANK DRIVE,,COLUMBUS,OH,43220,JULIA FRATIANNE,TREASURER,6144512151,,NCRAUDITTEAM@NATIONALCHURCHRESIDENCES.ORG,09/23/2019 10:23:58,JULIE FRATIANNE-TREASURER,"PLANTE & MORAN, PLLC","250 SOUTH HIGH STREET, SUITE 100",,COLUMBUS,OH,43215,KELLY PERLMAN,ENGAGEMENT PARTNER,6148493000,,PM.SINGLEAUDIT@PLANTEMORAN.COM,09/20/2019 16:34:09,,O,,U,N,N,N,N,U,750000,Y,,5315791,,N,N,N,N,N,N,,14,09/23/2019 00:00:00,09/25/2019 01:30:18,,N,903,1,x00,09/23/2019 00:00:00,,N,JULIE FRATIANNE,TREASURER,09/23/2019 00:00:00,381357951,N,,N,N,,,,,Non-profit,UG,,,,,,07/01/2018 00:00:00,,,,US
1314100,1503402019,2019,150340,06/30/2019 00:00:00,S,A,,N,381714601,,N,078417169,MACOMB INTERMEDIATE SCHOOL DISTRICT,44001 GARFIELD ROAD,,CLINTON TOWNSHIP,MI,48038,PAUL BODIYA,CHIEF FINANCIAL OFFICER,5862283350,,PBODIYA@MISD.NET,11/14/2019 10:13:58,PAUL BODIYA-CFO,"PLANTE & MORAN, PLLC","19176 HALL ROAD, SUITE 300",,CLINTON TOWNSHIP,MI,48038,LAURA CLAEYS,PARTNER,5864164910,,PM.SINGLEAUDIT@PLANTEMORAN.COM,11/13/2019 10:45:33,,O,,U,N,N,N,N,U,1238808,Y,,41293597,,N,N,N,N,N,N,,84,11/14/2019 00:00:00,11/16/2019 01:30:21,,N,505,1,x00,11/14/2019 00:00:00,,N,PAUL BODIYA,CFO,11/14/2019 00:00:00,381357951,N,,N,N,,,,,Local government,UG,,12/03/2019 15:58:48,12/05/2019 07:47:27,N,G,07/01/2018 00:00:00,,,,US
1324688,1540442019,2019,154044,06/30/2019 00:00:00,S,A,,N,430899766,,N,067950014,STATE FAIR COMMUNITY COLLEGE,3201 WEST 16TH STREET,,SEDALIA,MO,653012188,MR. KEITH ACUFF,"VP, FINANCE AND ADMINISTRATION",6065967301,,KACUFF@SFCCMO.EDU,01/10/2020 08:00:52,"KEITH ACUFF-VICE PRESIDENT, FINANCE & ADMINISTRATION","KPM CPAS, PC",1445 E REPUBLIC ROAD,,SPRINGFIELD,MO,65804,ANDY MARMOUGET,SHAREHOLDER,4178824300,,ANDYM@KPMCPA.COM,01/09/2020 16:41:22,,O,,U,N,N,N,N,U,750000,N,,15216671,,Y,N,N,Y,N,N,,84,01/10/2020 00:00:00,01/28/2020 01:30:05,,N,504,1,x84x00,01/10/2020 00:00:00,,N,KEITH ACUFF,"VICE PRESIDENT, FINANCE & ADMINISTRATION",01/10/2020 00:00:00,431109768,N,,N,Y,,,,,Institution of higher education (IHE),UG,00808000,02/03/2020 15:06:15,02/06/2020 07:15:02,S,B,07/01/2018 00:00:00,,,,US
1320148,392722019,2019,39272,06/30/2019 00:00:00,S,A,,N,311066383,,N,116236167,"TECHSOLVE, INC.",6705 STEGER DRIVE,,CINCINNATI,OH,45237,DEBBIE WHEATON,CONTROLLER,5139482075,,WHEATON@TECHSOLVE.ORG,12/23/2019 10:10:42,DEBBIE WHEATON-CONTROLLER AND CORPORATE TREASURER,"VONLEHMAN & COMPANY, INC",810 WRIGHTS SUMMIT PKWY STE 300,,FORT WRIGHT,KY,41011,STEPHANIE ALLGEYER,SHAREHOLDER,8593313300,,CSWANSON@VLCPA.COM,12/30/2019 09:11:29,,O,,U,Y,N,N,N,U,750000,Y,,1323152,,N,N,N,N,N,Y,,11,12/30/2019 00:00:00,02/06/2020 01:30:09,,N,909,1,x00,12/30/2019 00:00:00,,N,DEBBIE WHEATON,CONTROLLER AND CORPORATE TREASURER,11/20/2019 00:00:00,310905417,N,,Y,N,,,,,Non-profit,UG,,,,,,07/01/2018 00:00:00,,,,US
1317660,506652019,2019,50665,06/30/2019 00:00:00,S,A,,Y,363382973,,Y,148385748,DEBORAH'S PLACE,2822 W JACKSON BLVD,,CHICAGO,IL,60612,AUDREY THOMAS,CHIEF EXECUTIVE OFFICER,7736386535,,ATHOMAS@DEBORAHSPLACE.ORG,12/06/2019 11:06:57,AUDREY THOMAS-CEO,MAYER HOFFMAN MCCANN P.C.,225 W WACKER DRIVE SUITE 2500,,CHICAGO,IL,60606,JAMES JAVORCIC,SHAREHOLDER,3126026800,,JJAVORCIC@CBIZ.COM,12/10/2019 22:41:09,,O,,U,N,N,N,N,U,750000,Y,,7885702,,N,N,N,N,N,N,,14,12/11/2019 00:00:00,01/11/2020 01:30:20,,N,903,1,x00,12/11/2019 00:00:00,,N,AUDREY THOMAS,CEO,11/20/2019 00:00:00,431947695,N,,N,N,,,,,Non-profit,UG,,,,,,07/01/2018 00:00:00,,,,US
1313756,1809052019,2019,180905,06/30/2019 00:00:00,S,A,,N,396029778,,N,159536713,TRI-COUNTY AREA SCHOOL DISTRICT,"409 SOUTH WEST STREET, PO BOX 67",,PLAINFIELD,WI,54966,AMY HOPKINS,BOOKKEEPER,7153356366,,AMYHOPKINS@TCPENGUIN.NET,12/27/2019 09:55:32,AMY HOPKINS-DISTRICT BOOKKEEPER,CLIFTONLARSONALLEN LLP,311 FINANCIAL WAY SUITE 100,,WAUSAU,WI,54401,"JON TRAUTMAN, CPA",PRINCIPAL,9204554312,,JON.TRAUTMAN@CLACONNECT.COM,12/27/2019 17:11:10,,O,,U,Y,Y,N,N,U,750000,N,,814742,,N,Y,N,Y,N,N,,84,12/27/2019 00:00:00,02/06/2020 01:30:09,,N,505,1,x00,12/27/2019 00:00:00,,N,AMY HOPKINS,DISTRICT BOOKKEEPER,11/20/2019 00:00:00,410746749,Y,,Y,N,,,,,Local government,UG,,02/25/2020 13:31:42,03/06/2020 07:09:15,G,G,07/01/2018 00:00:00,,,,US
1330680,2212622019,2019,221262,06/30/2019 00:00:00,S,A,,N,300176182,,N,606629975,"ON OUR OWN V, INC. ",407 CARSON,,HOT SPRINGS,AR,71901,CHRIS SMITH,CHIEF FINANCIAL OFFICER,5016825585,,CHRISS@FSTEP.ORG,03/10/2021 08:49:42,CHRIS SMITH-CHIEF FINANCIAL OFFICER,"BANKS CPA, PLLC",204 N 27TH STREET,,ARKADELPHIA,AR,71923,STEPHANIE BANKS,CERTIFIED PUBLIC ACCOUNTANT,8702453975,,SBANKS@MALONEANDBANKS.COM,02/23/2020 13:00:25,,O,,U,N,N,N,N,U,750000,Y,,807242,,N,N,N,N,N,N,,14,03/10/2021 00:00:00,03/12/2021 01:30:04,,N,908,1,x00,03/10/2021 00:00:00,,N,CHRIS SMITH,CHIEF FINANCIAL OFFICER,03/10/2021 00:00:00,208153372,N,,N,N,,,,,Non-profit,UG,,,,,,07/01/2018 00:00:00,,,,US
1347992,2390602019,2019,239060,12/31/2019 00:00:00,S,A,,N,611681018,,N,,"MENTAL HEALTH CARE AFFORDABLE HOUSING IV, INC.",5707 NORTH 22ND STREET,,TAMPA,FL,336104350,MICHELLE FURAN-SULLIVAN,CFO,8132398063,,MFURAN-SULLIVAN@GRACEPOINTWELLNESS.ORG,09/23/2020 09:31:32,MICHELLE FURAN-SULLIVAN-CFO,"RIVERO, GORDIMER & COMPANY, P.A.","201 N. FRANKLIN STREET, SUITE 2600",,TAMPA,FL,336025182,CHRISTOPHER F. TERRIGINO,SHAREHOLDER,8138757774,,CTERRIGINO@RGCOCPA.COM,09/22/2020 16:17:50,,O,,U,N,N,N,N,U,750000,Y,,2283987,,N,N,N,N,N,N,,14,09/23/2020 00:00:00,09/25/2020 01:30:04,,N,888,1,x00,09/23/2020 00:00:00,,N,MICHELLE FURAN-SULLIVAN,CFO,09/23/2020 00:00:00,593040705,N,,N,N,,,,,Non-profit,UG,,,,,,01/01/2019 00:00:00,,,,US
1317993,2456452019,2019,245645,06/30/2019 00:00:00,S,A,,Y,273792158,,Y,078448006,ACADEMY OF INTERACTIVE ENTERTAINMENT AND SUBSIDIARY,305 HARRISON STREET SUITE 405,,SEATTLE,WA,981094623,JOEL YOUNKER,CONTROLLER / ACTING SECRETARY,2064286352,,JOELY@AIE.EDU,12/13/2019 16:48:32,JOEL YOUNKER-CONTROLLER AND ACTING SECRETARY,WEWORSKI & ASSOCIATES,4660 LA JOLLA VILLAGE DRIVE SUITE 825,,SAN DIEGO,CA,921224613,BRETT INGLE,AUDIT PARTNER,8585461505,,BINGLE@WEWORSKI.COM,12/13/2019 17:39:58,,O,,U,N,N,N,N,U,750000,Y,,1735287,,N,N,N,N,N,N,,84,12/13/2019 00:00:00,01/14/2020 01:30:14,,N,888,1,x00,12/13/2019 00:00:00,,N,JOEL YOUNKER,CONTROLLER AND ACTING SECRETARY,11/20/2019 00:00:00,330516783,N,,N,N,,,,,Non-profit,UG,,02/13/2020 14:26:18,02/20/2020 10:14:18,N,S,07/01/2018 00:00:00,,,,US
1311784,2060132019,2019,206013,06/30/2019 00:00:00,S,A,,N,116001742,,N,089394266,WILLIAM FLOYD UNION FREE SCHOOL DISTRICT ,240 MASTIC BEACH ROAD,,MASTIC BEACH,NY,11951,DAVID P. BEGGINS,ASSISTANT SUPERINTENDENT FOR BUSINESS,6318741684,,DBEGGINS@WFSD.K12.NY.US,01/06/2020 11:18:39,DAVID BEGGINS-ASSISTANT SUPERINTENDENT FOR BUSINESS,"EFPR GROUP CPA'S, PLLC","6390 MAIN STREET, SUITE 200",,WILLIAMSVILLE,NY,14221,"DOUGLAS E. ZIMMERMAN, CPA",PARTNER,7166340700,,SFSAC@EFPRGROUP.COM,11/13/2019 14:49:31,,O,,U,N,N,N,N,U,750000,Y,,8480612,,N,N,N,N,N,N,,84,01/06/2020 00:00:00,02/12/2020 01:30:07,,N,505,1,x00,01/06/2020 00:00:00,,N,DAVID BEGGINS,ASSISTANT SUPERINTENDENT FOR BUSINESS,01/06/2020 00:00:00,474526160,N,,N,N,,,,,Local government,UG,,02/27/2020 15:06:44,03/05/2020 07:17:01,N,G,07/01/2018 00:00:00,,,,US
1335418,2384382019,2019,238438,12/31/2019 00:00:00,S,A,,N,300273769,,N,964413467,"PACIFIC HOUSING DEVELOPMENT, INC DBA PACIFIC HSG DEV 122-HD158-CMI-NP ",231 E. THIRD STREET,,LOS ANGELES,CA,90013,BOMEE KIM FAIN,DIRECTOR OF FINANCE,2134733030,,BKIMFAIN@LTSC.ORG,04/06/2020 13:25:00,CHRISTIEN TRAN-MANAGEMENT AGENT REPRESENTATIVE,"DAUBY O'CONNOR & ZALESKI, LLC",501 CONGRESSIONAL BLVD.,,CARMEL,IN,46032,KENNY DENNISON,MEMBER,3178485700,,KDENNISON@DOZ.NET,04/07/2020 15:43:51,,O,,U,N,N,N,N,Q,750000,N,,1188997,,Y,N,N,Y,N,N,,14,04/07/2020 00:00:00,05/06/2020 01:30:07,,N,888,1,x00x14,04/07/2020 00:00:00,,N,CHRISTIEN TRAN,MANAGEMENT AGENT REPRESENTATIVE,04/07/2020 00:00:00,351750664,N,,N,Y,,,,,Non-profit,UG,,,,,,01/01/2019 00:00:00,,,,US
1323520,1696982019,2019,169698,06/30/2019 00:00:00,S,A,,N,246002165,,N,800489812,NORTHEAST BRADFORD SCHOOL DISTRICT ,526 PANTHER LANE,,ROME,PA,18837,MARY ANN BOARDMAN,BUSINESS MANAGER,5707442521,,MBOARDMAN@NEBPANTHERS.COM,01/08/2020 09:42:14,MARY ANN BOARDMAN-BUSINESS MANAGER,"EFPR GROUP CPA'S, PLLC","8 DENISON PARKWAY EAST, SUITE 407",,CORNING,NY,14830,"RICHARD J. DAVIS, CPA",PARTNER,6076926891,,RDAVIS@EFPRGROUP.COM,12/31/2019 14:01:22,,O,,U,N,N,N,N,U,750000,N,,763731,,N,N,N,N,N,N,,84,01/08/2020 00:00:00,02/13/2020 01:30:09,,N,505,1,x00,01/08/2020 00:00:00,,N,MARY ANN BOARDMAN,BUSINESS MANAGER,01/08/2020 00:00:00,474526160,N,,N,N,,,,,Local government,UG,,02/18/2020 15:58:24,02/20/2020 10:14:18,,N,07/01/2018 00:00:00,,,,US
1317627,1456262019,2019,145626,06/30/2019 00:00:00,S,A,,N,480697704,,N,073306607,"USD #373 - NEWTON, KANSAS",308 E FIRST STREET,,NEWTON,KS,671143846,MATT MORFORD,DIRECTOR OF BUSINESS SERVICES,3162846202,,MATT.MORFORD@USD373.ORG,12/05/2019 08:53:09,MATT MORFORD-DIRECTOR OF BUSINESS SERVICES,KNUDSEN MONROE & COMPANY LLC,512 N MAIN STREET,,NEWTON,KS,671142229,VONDA R BRECHEISEN,MEMBER,3162835366,,VONDA@KMCOCPA.COM,12/04/2019 19:12:35,,O,,S,N,N,N,N,U,750000,N,,4246219,,N,N,N,N,N,N,,93,12/05/2019 00:00:00,12/19/2019 01:30:12,,N,505,1,x00,12/05/2019 00:00:00,,N,MATT MORFORD,DIRECTOR OF BUSINESS SERVICES,11/20/2019 00:00:00,480764317,N,,N,N,REGULATORY,Y,U,,Local government,UG,,01/27/2020 15:32:36,01/30/2020 08:57:21,N,G,07/01/2018 00:00:00,,,,US
1314844,1848842019,2019,184884,06/30/2019 00:00:00,S,A,,N,810396437,,N,119545663,MISSOULA COUNTY AIRPORT AUTHORITY ,5225 HWY 10 W,,MISSOULA,MT,59808,TERI NORCROSS,FINANCE MANAGER,4065466103,,TNORCROSS@FLYMISSOULA.COM,11/14/2019 10:05:24,TERI NORCROSS-FINANCE MANAGER,"ANDERSON ZURMUEHLEN & CO., P.C.","1821 SOUTH AVENUE WEST, 5TH FLOOR",,MISSOULA,MT,59801,JAN SCHWEITZER,"CPA, SHAREHOLDER",4067217800,,JSCHWEITZER@AZWORLD.COM,12/10/2019 10:01:26,,O,,U,N,N,N,N,U,750000,Y,,7815748,,N,N,N,N,N,N,,20,12/10/2019 00:00:00,01/10/2020 01:30:13,,N,101,1,x00,12/10/2019 00:00:00,,N,TERI NORCROSS,FINANCE MANAGER,11/20/2019 00:00:00,810385940,N,,N,N,,,,,Local government,UG,,,,,,07/01/2018 00:00:00,,,,US
1361819,2141562019,2019,214156,12/31/2019 00:00:00,S,A,,N,943237618,,N,,"GLIDE COMMUNITY HOUSING, INC.",333 TAYLOR STREET,,SAN FRANCISCO,CA,94102,DION GRIFFIN,TREASURER,4156746100,,ACMELLCORP@YAHOO.COM,12/31/2020 19:57:18,DION GRIFFIN-TREASURER,"LINDQUIST, VON HUSEN & JOYCE LLP","301 HOWARD STREET, SUITE 850",,SAN FRANCISCO,CA,94105,CATHY L. HWANG,PARTNER,4159579999,,CHWANG@LVHJ.COM,12/31/2020 19:20:01,,O,,U,N,N,N,N,U,750000,N,,1553880,,N,N,N,N,N,N,,14,12/31/2020 00:00:00,01/06/2021 01:30:05,,N,903,1,x00,12/31/2020 00:00:00,,N,DION GRIFFIN,TREASURER,12/31/2020 00:00:00,941250261,N,,N,N,,,,,Non-profit,UG,,,,,,01/01/2019 00:00:00,,,,US
1320358,919942019,2019,91994,06/30/2019 00:00:00,S,A,,N,610673886,,Y,074681818,"BRIGHTON CENTER, INC. ",PO BOX 325,,NEWPORT,KY,410710325,JUNE MILLER,CHIEF FINANCIAL OFFICER,8594918303,,JMILLER@BRIGHTONCENTER.COM,12/17/2019 17:13:28,JUNE MILLER-CFO,"BARNES DENNIG & CO., LTD.",150 E FOURTH STREET,,CINCINNATI,OH,45202,HAROLD P. KREMER,DIRECTOR,8593446400,,HKREMER@BARNESDENNIG.COM,12/15/2019 14:36:10,,O,,U,N,N,N,N,U,750000,Y,,4229042,,N,N,N,N,N,N,,84,12/17/2019 00:00:00,01/22/2020 01:30:17,,N,908,1,x00,12/17/2019 00:00:00,,N,JUNE MILLER,CFO,11/20/2019 00:00:00,311119890,N,,N,N,,,,,Non-profit,UG,,02/19/2020 13:11:45,02/20/2020 10:14:18,N,S,07/01/2018 00:00:00,,,,US
1319260,1519602019,2019,151960,06/30/2019 00:00:00,S,A,,N,416003279,,N,037338879,INDEPENDENT SCHOOL DISTRICT NO. 593,402 FISHER AVE,,CROOKSTON,MN,581082545,LAURA LYCZEWSKI,BUSINESS MANAGER,2182815313,,LAURALYCZEWSKI@ISD593.ORG,12/09/2019 16:56:35,LAURA LYCZEWSKI-BUSINESS MANAGER,EIDE BAILLY LLP,4310 17TH AVE S.,,FARGO,ND,581082545,DEREK FLANAGAN,PARTNER,7014768825,,DFLANAGAN@EIDEBAILLY.COM,12/09/2019 16:58:12,,O,,U,Y,N,N,N,U,750000,Y,,1163943,,N,N,N,N,N,N,,84,12/09/2019 00:00:00,01/04/2020 01:30:05,,N,505,1,x00,12/09/2019 00:00:00,,N,LAURA LYCZEWSKI,BUSINESS MANAGER,11/20/2019 00:00:00,450250958,N,,Y,N,,,,,Local government,UG,,02/04/2020 14:16:52,02/06/2020 07:15:02,N,G,07/01/2018 00:00:00,,,,US
1343854,2459992019,2019,245999,12/31/2019 00:00:00,S,A,,N,581619735,,N,,MOUNT ZION GARDEN APARTMENTS,209 SLATER KING DR,,ALBANY,GA,31701,DOUGLAS TRIVERS,PRESIDENT & CFO,6788161329,,DTRIVERS@HSIMANAGEMENT.COM,07/27/2020 23:04:42,DOUG TRIVERS-MANAGEMENT CO PRESIDENT,TIDWELL GROUP,"5901 PEACHTREE DUNWOODY RD, BLDG A, STE 125",,ATLANTA,GA,30328,JOSHUA NORTHCUTT,MANAGING PARTNER,4702736611,,JOSHUA.NORTHCUTT@TIDWELLGROUP.COM,07/25/2020 09:18:39,,O,,U,N,N,N,N,U,750000,Y,,3884535,,N,N,N,N,N,N,,14,07/28/2020 00:00:00,07/30/2020 01:30:05,,N,888,1,x00,07/28/2020 00:00:00,,N,DOUG TRIVERS,MANAGEMENT CO PRESIDENT,07/28/2020 00:00:00,271490692,N,,N,N,,,,,Non-profit,UG,,,,,,01/01/2019 00:00:00,,,,US
1328940,1206562019,2019,120656,11/30/2019 00:00:00,S,A,,N,942764262,,N,120517008,"MARPLE MANOR, INC. DBA MARPLE MANOR 121-EH059",911 NORTH STUDEBAKER ROAD,,LONG BEACH,CA,90815,CHRISTOPHER PURCELL,CONTROLLER,5622575100,,CHRISTOPHER.PURCELL@RHF.ORG,03/12/2020 20:20:06,CHRISTOPHER PURCELL-CONTROLLER,"DAUBY O'CONNOR & ZALESKI, LLC","501 CONGRESSIONAL BLVD., SUITE 300",,CARMEL,IN,46032,JACOB T. BUEHLER,MEMBER,3178485700,,JBUEHLER@DOZ.NET,03/13/2020 09:45:21,,O,,U,N,N,N,N,U,750000,Y,,4363607,,N,N,N,N,N,N,,14,03/13/2020 00:00:00,03/18/2020 01:30:15,,N,903,1,x00,03/13/2020 00:00:00,,N,CHRISTOPHER PURCELL,CONTROLLER,03/13/2020 00:00:00,351750664,N,,N,N,,,,,Non-profit,UG,,,,,,12/01/2018 00:00:00,,,,US
1316658,1608312019,2019,160831,06/30/2019 00:00:00,S,A,,N,146001856,,N,043055557,QUEENSBURY UNION FREE SCHOOL DISTRICT ,429 AVIATION ROAD,,QUEENSBURY,NY,12804,SCOTT WHITTEMORE,ASSISTANT SUPERINTENDENT FOR BUSINESS,5188245604,,SWHITTEMORE@QUEENSBURYSCHOOL.ORG,02/07/2020 20:11:09,SCOTT WHITTEMORE-ASSISTANT SUPERINTENDENT FOR BUSINESS,WEST & COMPANY CPAS PC,97 NORTH MAIN STREET,,GLOVERSVILLE,NY,12078,AMY PEDRICK,SHAREHOLDER,5187257217,,APEDRICK@WESTCPAPC.COM,11/19/2019 07:33:22,,O,,U,N,N,N,N,U,750000,Y,,1982958,,N,N,N,N,N,N,,84,02/07/2020 00:00:00,02/29/2020 01:30:06,,N,505,1,x00,02/07/2020 00:00:00,,N,SCOTT WHITTEMORE,ASSISTANT SUPERINTENDENT FOR BUSINESS,02/07/2020 00:00:00,141662664,N,,N,N,,,,,Local government,UG,,03/25/2020 16:42:03,04/02/2020 11:19:35,N,G,07/01/2018 00:00:00,,,,US
1343901,31362019,2019,3136,09/30/2019 00:00:00,S,A,,N,042385280,,N,088977566,"NORTH SHORE COMMUNITY ACTION PROGRAMS, INC.","119 REAR FOSTER STREET, BUILDING 13",,PEABODY,MA,01960,BETTY WALKER,CHIEF FINANCIAL OFFICER & COMPLIANCE,9785310767,,BWALKER@NSCAP.ORG,08/15/2020 15:51:09,BETTY WALKER-CFO,"ANSTISS & CO., P.C.","1115 WESTFORD STREET, 3RD FLOOR",,LOWELL,MA,018512701,"BRENDAN E. TOOLIN III, CPA",PARTNER,9784522500,,BTOOLIN@ANSTISSCPA.COM,08/03/2020 10:56:27,,O,,U,N,N,N,N,U,750000,Y,,3866446,,N,N,N,N,N,N,,93,08/15/2020 00:00:00,08/25/2020 01:30:03,,N,908,1,X,08/15/2020 00:00:00,,N,BETTY WALKER,CFO,08/15/2020 00:00:00,042917204,N,,N,N,,,,,Non-profit,UG,,08/24/2020 14:13:47,08/27/2020 09:31:15,,N,10/01/2018 00:00:00,,,,US
1350558,889582019,2019,88958,12/31/2019 00:00:00,S,A,,N,591426079,,N,087751111,"ELDER CARE SERVICES, INC.",2518 WEST TENNESSEE ST,,TALLAHASSEE,FL,32304,JOCELYNE FLIGER,PRESIDENT,8509215554,,FLIGERJ@ECSBIGBEND.ORG,12/17/2020 10:56:03,JOCELYNE FLIGER-CEO,RICHARD LAW,"2075 CENTRE POINTE BLVD, SUITE 200",,TALLAHASSEE,FL,32308,RICHARD LAW,PARTNER,8508786189,,RLAW@LRCM.COM,12/17/2020 11:02:55,,O,,U,N,N,N,N,U,750000,Y,,1651039,,N,N,N,N,N,N,,94,12/17/2020 00:00:00,12/23/2020 01:30:03,,N,908,1,x00,12/17/2020 00:00:00,,N,JOCELYNE FLIGER,CEO,12/17/2020 00:00:00,592221664,N,,N,N,,,,,Non-profit,UG,,,,,,01/01/2019 00:00:00,,,,US
1345835,2001232019,2019,200123,12/31/2019 00:00:00,S,A,,N,752271976,,N,,"RIGHT FROM THE START NUTRITION, INC.",6015 WEST INTERSTATE 20,,ARLINGTON,TX,76017,NGUYEN NGUYEN,EXECUTIVE DIRECTOR,8175637774,,RFSN2013@GMAIL.COM,08/26/2020 16:27:47,NGUYEN NGUYEN-DIRECTOR,LAFOLLETT & COMPANY PLLC,P O BOX 717,,TOM BEAN,TX,75489,SUSAN K. LAFOLLETT,PARTNER,9035466975,,SUSAN.LAFOLLETT@LAFOLLETTCPA.COM,08/26/2020 11:42:10,,O,,U,N,N,N,N,U,750000,Y,,4710221,,N,N,N,N,N,N,,10,08/26/2020 00:00:00,08/28/2020 01:30:03,,N,908,1,x00,08/26/2020 00:00:00,,N,NGUYEN NGUYEN,DIRECTOR,08/26/2020 00:00:00,300592107,N,,N,N,,,,,Non-profit,UG,,,,,,01/01/2019 00:00:00,,,,US
1306258,1863362019,2019,186336,07/31/2019 00:00:00,S,A,,N,311248889,,N,602418795,"NCR OF COLUMBUS, TEXAS D/B/A OAK BLUFF VILLAGE 114-11394",2335 NORTH BANK DRIVE,,COLUMBUS,OH,43220,JULIA FRATIANNE,TREASURER,6144512151,,NCRAUDITTEAM@NATIONALCHURCHRESIDENCES.ORG,10/01/2019 15:15:29,JULIE FRATIANNE-TREASURER,"PLANTE & MORAN, PLLC","250 SOUTH HIGH STREET, SUITE 100",,COLUMBUS,OH,43215,KELLY PERLMAN,PARTNER,6148493000,,PM.SINGLEAUDIT@PLANTEMORAN.COM,10/01/2019 14:59:29,,O,,U,N,N,N,N,U,750000,Y,,1876770,,N,N,N,N,N,N,,14,10/01/2019 00:00:00,10/05/2019 01:30:13,,N,903,1,x00,10/01/2019 00:00:00,,N,JULIE FRATIANNE,TREASURER,10/01/2019 00:00:00,381357951,N,,N,N,,,,,Non-profit,UG,,,,,,08/01/2018 00:00:00,,,,US
1306586,369642019,2019,36964,06/30/2019 00:00:00,S,A,,N,251562285,,N,,EMPLOYMENT OPPORTUNITY & TRAINING CENTER OF NORTHEASTERN PENNSYLVANIA,431 NORTH 7TH AVENUE,,SCRANTON,PA,18508,RENEE ARLEDGE,OPERATIONS DIRECTOR,5703486484,,RARLEDGE@OUTREACHWORKS.ORG,10/22/2019 11:15:14,RENEE ARLEDGE-OPERATIONS DIRECTOR,"KOHANSKI & COMPANY, PC",3939 BIRNEY AVENUE,,MOOSIC,PA,18507,"KELLEY LINDSAY, CPA",AUDIT MANAGER,5709412248,,KLINDSAY@KOHANSKICO.COM,10/24/2019 09:43:28,,O,,U,N,N,N,N,U,750000,Y,,787079,,N,N,N,N,N,N,,93,10/24/2019 00:00:00,10/26/2019 01:30:06,,N,909,1,x00,10/24/2019 00:00:00,,N,RENEE ARLEDGE,OPERATIONS DIRECTOR,10/24/2019 00:00:00,832620517,N,,N,N,,,,,Non-profit,UG,,,,,,07/01/2018 00:00:00,,,,US
1335648,1035542019,2019,103554,06/30/2019 00:00:00,S,A,,N,746000426,,N,061996775,HOUSING AUTHORITY OF THE CITY OF BROWNSVILLE ,2606 BOCA CHICA BLVD,,BROWNSVILLE,TX,78521,MIGUEL HERRERA,CFO,9562141535,,MHERRERA@HACB.US,03/31/2020 13:07:36,MIGUEL HERRERA-CHIEF FINANCIAL OFFICER,"BURTON, MCCUMBER & LONGORIA, LLP",1950 PAREDES LINE ROAD,,BROWNSVILLE,TX,78521,BEN PENA,PARTNER,9565422553,,,03/31/2020 14:54:23,,O,,U,N,N,N,N,U,750000,Y,,17431262,,N,N,N,N,N,N,,14,03/31/2020 00:00:00,05/02/2020 01:30:05,,N,403,1,x00,03/31/2020 00:00:00,,N,MIGUEL HERRERA,CHIEF FINANCIAL OFFICER,03/31/2020 00:00:00,742609610,N,,N,N,,,,,Local government,UG,,,,,,07/01/2018 00:00:00,,,,US
1327247,336352019,2019,33635,06/30/2019 00:00:00,S,A,,N,237359883,,N,069505345,CENTER ON DEAFNESS ,3444 DUNDEE ROAD,,NORTHBROOK,IL,60062,BONITA SIMON,EXECUTIVE DIRECTOR,8475590110,,BSIMON@CENTERONDEAFNESS.ORG,02/06/2020 14:08:23,JOHN LITTLE-BUSINESS MANAGER,WARADY & DAVIS LLP,"1717 DEERFIELD ROAD, SUITE 300 SOUTH",,DEERFIELD,IL,600153977,"SUSAN GREGGO, CPA",PARTNER,8472679600,,SGREGGO@WARADYDAVIS.COM,02/06/2020 22:57:02,,O,,U,Y,N,N,N,U,750000,N,,800158,,N,N,N,N,N,N,,84,02/06/2020 00:00:00,02/28/2020 01:30:06,,N,908,1,x00,02/06/2020 00:00:00,,N,JOHN LITTLE,BUSINESS MANAGER,02/06/2020 00:00:00,362170602,N,,Y,N,,,,,Non-profit,UG,,03/25/2020 15:43:42,04/02/2020 11:19:35,,N,07/01/2018 00:00:00,,,,US
1346711,2474332019,2019,247433,11/30/2019 00:00:00,S,A,,N,251222792,,N,,"STO-ROX NEIGHBORHOOD HEALTH COUNCIL, INC.",710 THOMSPON AVENUE,,MCKEES ROCK,PA,15136,LORRIE MENEELY,CFO,4127716460,,LMENEELY@STOROXFQHC.ORG,09/09/2020 14:11:12,LORRIE MENEELY-CHIEF FINANCIAL OFFICER,"BIELAU, TIRENEY, COON & COMPANY, P.C.",2740SMALLMAM ST - SUITE 202,,PITTSBURGH,PA,15222,"JOSEPH T. TAPPE, JR., C.P.A.",PRINCIPAL,4122610330,,JTAPPE@BTCCPA.COM,09/09/2020 13:52:56,,O,,U,N,N,N,N,U,750000,Y,,2264608,,N,N,N,N,N,N,,93,09/09/2020 00:00:00,09/11/2020 01:30:05,,N,888,1,x00,09/09/2020 00:00:00,,N,LORRIE MENEELY,CHIEF FINANCIAL OFFICER,09/09/2020 00:00:00,251520242,N,,N,N,,,,,Non-profit,UG,,,,,,12/01/2018 00:00:00,,,,US
1308829,1713972019,2019,171397,06/30/2019 00:00:00,S,A,,Y,626000662,,N,081621836,"HENDERSON COUNTY, TN",PO BOX 495,,LEXINGTON,TN,38351,LEE WILKINSON,FINANCE DIRECTOR,7319685550,,LEEWILKINSONHCTN@GMAIL.COM,12/06/2019 09:29:27,LEE WILKINSON-FINANCE DIRECTOR,"COMPTROLLER OF THE TREASURY, DIVISION OF LOCAL GOVERNMENT AUDIT","425 FIFTH AVENUE NORTH, CORDELL HULL BUILDING",,NASHVILLE,TN,37243,GREG WORLEY,AUDIT REVIEW MANAGER,6154017846,,GREG.WORLEY@COT.TN.GOV,12/06/2019 09:11:50,,O,,U,N,Y,N,N,U,750000,Y,,5029894,,N,N,N,N,N,N,,84,12/06/2019 00:00:00,12/24/2019 01:30:06,,N,100,1,x00,12/06/2019 00:00:00,,N,LEE WILKINSON,FINANCE DIRECTOR,11/20/2019 00:00:00,626001445,Y,,N,N,,,,,Local government,UG,,01/28/2020 13:55:29,01/30/2020 08:57:21,N,G,07/01/2018 00:00:00,,,,US
1347804,390262019,2019,39026,12/31/2019 00:00:00,S,A,,N,311020167,,N,,"PERRY COUNTY SENIOR CITIZENS HOUSING, INC.",2700 E. DUBLIN-GRANVILLE RD.,,COLUMBUS,OH,43231,ERIC CORDLE,CONTROLLER,6148184664,,ECORDLE@HOMEWOODCORP.COM,09/21/2020 09:34:40,ERIC CORDLE-CONTROLLER,DOUGLAS L. MYERS AND ASSOCIATES,650 SHAWAN FALLS DR,,DUBLIN,OH,43017,DOUG MYERS,OWNER,6147665138,,CLEMENTSTE@AOL.COM,09/18/2020 14:03:49,,O,,U,N,N,N,N,U,750000,Y,,1961725,,N,N,N,N,Y,Y,,14,09/21/2020 00:00:00,09/23/2020 01:30:05,,N,903,1,x14x00,09/21/2020 00:00:00,,N,ERIC CORDLE,CONTROLLER,09/21/2020 00:00:00,311154638,N,,N,N,,,,,Non-profit,UG,,,,,,01/01/2019 00:00:00,,,,US
1332074,2492602019,2019,249260,06/30/2019 00:00:00,S,A,,N,586000269,,N,092636299,JEFFERSON COUNTY BOARD OF EDUCATION ,1001 PEACHTREE STREET,,LOUISVILLE,GA,30434,MOLLY HOWARD,SUPERINTENDENT/ CERTIFYING OFFICER,4786257626,,HOWARDMP@JEFFERSON.K12.GA.US,03/30/2020 11:52:13,MOLLY HOWARD-SUPERINTENDENT,GEORGIA DEPARTMENT OF AUDITS AND ACCOUNTS,270 WASHINGTON STREET S. W. SUITE 1-156,,ATLANTA,GA,30334,JESSICA WALKER,REPORT PROCESSING COORDINATOR,4044632681,,WALKERJ@AUDITS.GA.GOV,03/31/2020 08:22:28,,O,,U,N,N,N,N,U,750000,Y,,4409379,,N,N,N,N,N,N,,12,03/31/2020 00:00:00,05/01/2020 01:33:52,,N,888,1,x00,03/31/2020 00:00:00,,N,MOLLY HOWARD,SUPERINTENDENT,03/31/2020 00:00:00,586002005,N,,N,N,,,,,Local government,UG,,05/05/2020 12:28:47,05/07/2020 16:43:24,N,G,07/01/2018 00:00:00,,,,US
1310694,2064052019,2019,206405,06/30/2019 00:00:00,S,A,,N,592414492,,N,189083801,"PACE CENTER FOR GIRLS, INC. AND AFFILIATES",6745 PHILIPS INDUSTRIAL BLVD,,JACKSONVILLE,FL,32256,THRESA GILES,CHIEF BUSINESS OFFICER,9042536219,,THRESA.GILES@PACECENTER.ORG,10/03/2019 07:57:46,THRESA GILES-CHIEF BUSINESS OFFICER,"WARREN AVERETT, LLC","400 N ASHLEY DRIVE, SUITE 700",,TAMPA,FL,33602,MICHELLE SANCHEZ,MEMBER,8133412931,,MICHELLE.SANCHEZ@WARRENAVERETT.COM,10/02/2019 12:51:20,,O,,U,N,N,N,N,U,750000,Y,,834887,,N,N,N,N,N,N,,10,10/03/2019 00:00:00,10/05/2019 01:30:13,,N,908,1,x00,10/03/2019 00:00:00,,N,THRESA GILES,CHIEF BUSINESS OFFICER,10/03/2019 00:00:00,454084437,N,,N,N,,,,,Non-profit,UG,,10/07/2019 09:57:58,10/10/2019 10:40:04,,N,07/01/2018 00:00:00,,,,US
