ELECAUDITHEADERID,ID,AUDITYEAR,DBKEY,FYENDDATE,AUDITTYPE,PERIODCOVERED,NUMBERMONTHS,MULTIPLEEINS,EIN,EINSUBCODE,MULTIPLEDUNS,DUNS,AUDITEENAME,STREET1,STREET2,CITY,STATE,ZIPCODE,AUDITEECONTACT,AUDITEETITLE,AUDITEEPHONE,AUDITEEFAX,AUDITEEEMAIL,AUDITEEDATESIGNED,AUDITEENAMETITLE,CPAFIRMNAME,CPASTREET1,CPASTREET2,CPACITY,CPASTATE,CPAZIPCODE,CPACONTACT,CPATITLE,CPAPHONE,CPAFAX,CPAEMAIL,CPADATESIGNED,CPANAMETITLE,COG_OVER,COGAGENCY,TYPEREPORT_FS,REPORTABLECONDITION,MATERIALWEAKNESS,MATERIALNONCOMPLIANCE,GOINGCONCERN,TYPEREPORT_MP,DOLLARTHRESHOLD,LOWRISK,REPORTREQUIRED,TOTFEDEXPEND,COPIES,REPORTABLECONDITION_MP,MATERIALWEAKNESS_MP,QCOSTS,CYFINDINGS,PYSCHEDULE,DUP_REPORTS,COG_AGENCY,OVERSIGHTAGENCY,DATERECEIVED,DATEFIREWALL,PREVIOUSDATEFIREWALL,FINDINGREFNUM,TYPEOFENTITY,IMAGE,AGENCYCFDA,INITIALDATE,DATERECEIVEDOTHER,MULTIPLE_CPAS,AUDITEECERTIFYNAME,AUDITEECERTIFYTITLE,FACACCEPTEDDATE,AUDITOR_EIN,SD_MATERIALWEAKNESS,SD_MATERIALWEAKNESS_MP,SIGNIFICANTDEFICIENCY,SIGNIFICANTDEFICIENCY_MP,SP_FRAMEWORK,SP_FRAMEWORK_REQUIRED,TYPEREPORT_SP_FRAMEWORK,SUPPRESSION_CODE,ENTITY_TYPE,TYPEAUDIT_CODE,OPEID,DATETOED,DATEFINISHED,TYPEFINDING,TYPEFUNDING,FYSTARTDATE,CPAFOREIGN,UEI,MULTIPLEUEIS,CPACOUNTRY
1219429,588172016,2016,58817,12/31/2016 00:00:00,S,A,,N,390827320,,N,086178951,"FAMILY SERVICES OF NORTHEAST WISCONSIN, INC.",300 CROOKS STREET ,,GREEN BAY,WI,54301,JOE FERRARO,CHIEF FINANCIAL OFFICER,9204364360,,JFERRARO@FAMILYSERVICESNEW.ORG,07/20/2017 10:12:44,JOE FERRARO-CHIEF FINANCIAL OFFICER,WIPFLI LLP,10000 INNOVATION DRIVE SUITE 250,,MILWAUKEE,WI,53226,DAVID GLOBIG,PARTNER,4144319329,,DGLOBIG@WIPFLI.COM,07/20/2017 09:59:41,,O,,U,N,N,N,N,U,750000,Y,,4817128,,N,N,N,N,N,N,,14,07/20/2017 00:00:00,07/21/2017 08:05:41,,N,908,1,x00,07/20/2017 00:00:00,,N,JOE FERRARO,CHIEF FINANCIAL OFFICER,07/20/2017 00:00:00,390758449,N,,N,N,,,,,Non-profit,UG,,07/21/2017 08:28:47,07/27/2017 11:21:19,,N,01/01/2016 00:00:00,,,,
1219852,1451442016,2016,145144,12/31/2016 00:00:00,S,A,,N,486043317,,N,045263143,"CITY OF COFFEYVILLE, KANSAS",P.O. BOX 1629,,COFFEYVILLE,KS,67337,STEPHANIE RICHARDSON,FINANCE DIRECTOR,6202526103,,SRICHARDSON@COFFEYVILLE.COM,07/18/2017 10:09:15,STEPHANIE RICHARDSON-FINANCE DIRECTOR,"JARRED, GILMORE & PHILLIPS, PA","1815 S. SANTA FE, P.O. BOX 779",,CHANUTE,KS,667200779,NEIL L PHILLIPS,AUDITOR IN CHARGE,6204316342,,NPHILLIPS@JGPPA.COM,07/17/2017 15:17:39,,O,,S,N,N,N,N,U,750000,N,,869770,,N,N,N,N,N,N,,66,07/18/2017 00:00:00,07/19/2017 08:42:10,,N,200,1,x00,07/18/2017 00:00:00,,N,STEPHANIE RICHARDSON,FINANCE DIRECTOR,07/18/2017 00:00:00,203906022,N,,N,N,REGULATORY,N,U,,Local government,UG,,,,,,01/01/2016 00:00:00,,,,
1198491,1887562016,2016,188756,06/30/2016 00:00:00,S,A,,N,216000746,,N,142302152,HOUSING AUTHORITY OF THE CITY OF LONG BRANCH,2 HOPE LANE,,LONG BRANCH,NJ,07740,CINDY TOY,CFO,7322223747,,,01/03/2017 08:35:50,CINDY TOY-CFO,"HYMANSON, PARNES & GIAMPAOLO",467 MIDDLETOWN-LINCROFT RD,,LINCROFT,NJ,077381123,ANTHONY GIAMPAOLO,AUDIT PARTNER,7328424550,,,12/30/2016 09:33:43,,O,,U,N,N,N,N,U,750000,Y,,13486838,,N,N,N,N,N,N,,14,01/03/2017 00:00:00,01/04/2017 07:31:06,,N,203,1,x00,01/03/2017 00:00:00,,N,CINDY TOY,CFO,01/03/2017 00:00:00,223554220,N,,N,N,,,,,Local government,UG,,,,,,07/01/2015 00:00:00,,,,
1192866,2229252016,2016,222925,06/30/2016 00:00:00,S,A,,N,311735372,,N,146523019,"SUNRISE HOUSE, INC.  084-HD030","1505 NE PARVIN ROAD, SUITE 1520",,KANSAS CITY,MO,641162304,FRED GIBBS,MANAGMENT AGENT,8168414898,,FRED@FKGIBBS.COM,12/05/2016 11:56:44,FRED GIBBS-MANAGING AGENT,"DAREL D. KYLE, CPA, P.A.","6750 ANTIOCH ROAD, SUITE 101",,MERRIAM,KS,662041290,DAREL D. KYLE,PRESIDENT,9136491881,,KYLESODRD@IX.NETCOM.COM,12/03/2016 14:37:53,,O,,U,N,Y,Y,N,Q,750000,Y,,1320062,,N,Y,N,Y,N,N,,14,12/05/2016 00:00:00,12/06/2016 08:37:35,,N,903,1,x14x00,12/05/2016 00:00:00,,N,FRED GIBBS,MANAGING AGENT,12/05/2016 00:00:00,481108968,Y,,N,N,,,,,NON-PROFIT,UG,,,,,,07/01/2015 00:00:00,,,,
1218208,2262952016,2016,226295,12/31/2016 00:00:00,S,A,,N,560624468,,N,078328853,"THE YOUNG MEN'S CHRISTIAN ASSOCIATION OF GREATER ST. PETERSBURG, INC.","600 1ST AVENUE NORTH, SUITE 201",,ST. PETERSBURG,FL,33701,CAROLINE BLOODWORTH,DIRECTOR OF FINANCE,7278950382,,CBLOODWORTH@STPETEYMCA.ORG,06/28/2017 10:50:13,CAROLINE BLOODWORTH-DIRECTOR OF FINANCE,CHERRY BEKAERT LLP,"401 E. JACKSON STREET, SUITE 1200",,TAMPA,FL,33602,JOHN GILBERTO ,PARTNER,8132511010,,JGILBERTO@CBH.COM,06/28/2017 09:25:11,,O,,U,N,N,N,N,U,750000,N,,805751,,N,N,N,N,N,N,,14,06/28/2017 00:00:00,06/29/2017 14:58:35,,N,908,1,x00,06/28/2017 00:00:00,,N,CAROLINE BLOODWORTH,DIRECTOR OF FINANCE,06/28/2017 00:00:00,560574444,N,,N,N,,,,,Non-profit,UG,,06/30/2017 10:07:23,07/06/2017 08:38:03,N,G,01/01/2016 00:00:00,,,,
1186105,26262016,2016,2626,05/31/2016 00:00:00,S,A,,N,042111203,,Y,957301450,CLARK UNIVERSITY,950 MAINT STREET,,WORCESTER,MA,016101477,TAMMY HEARNLAYE,ASSOCIATE CONTROLLER,5087937297,,THEARNLAYE@CLARKU.EDU,10/07/2016 10:34:11,KATHERINE CANNON-ASSISTANT TREASURER/CONTROLLER,GRANT THORNTON,75 STATE STREET,,BOSTON,MA,021099997,JENNIFER DUPRE,PARTNER,6178483640,,JENNIFER.DUPRE@US.GT.COM,10/11/2016 08:17:55,,O,,U,N,N,N,N,U,750000,Y,,20465309,,N,N,N,N,Y,N,,84,10/11/2016 00:00:00,10/12/2016 08:21:00,,N,904,1,x93x47x43x16x00,10/11/2016 00:00:00,,N,KATHERINE CANNON,ASSISTANT TREASURER/CONTROLLER,10/11/2016 00:00:00,366055558,N,,N,N,,,,,INSTITUTION OF HIGHER EDUCATION (IHE),UG,00213900,10/12/2016 09:19:33,10/13/2016 08:46:59,N,B,06/01/2015 00:00:00,,,,
1220696,2451092016,2016,245109,12/31/2016 00:00:00,S,A,,N,753151494,,N,860122675,YMCA OF METRO CHICAGO FOUNDATION FOR HARVEY II IL06S021002/071EE174,166 W. 151ST ST.,,HARVEY,IL,60426,JULIE BURKE,"TREASURER, ASSISTANT SECRETARY",3129321236,,JBURKE@YMCACHICAGO.ORG,08/02/2017 15:50:47,JULIE BURKE-EVP AND CFO,COHNREZNICK,200 S. WACKER DR #2600,,CHICAGO,IL,60606,KRISTY MAES,MANAGER,3125085812,,KRISTY.MAES@COHNREZNICK.COM,08/07/2017 11:15:22,,O,,U,N,N,N,N,U,750000,Y,,8996330,,N,N,N,N,N,N,,14,08/07/2017 00:00:00,08/08/2017 11:26:03,,N,888,1,x00,08/07/2017 00:00:00,,N,JULIE BURKE,EVP AND CFO,08/07/2017 00:00:00,221478099,N,,N,N,,,,,Non-profit,UG,,,,,,01/01/2016 00:00:00,,,,
1216394,2345762016,2016,234576,09/30/2016 00:00:00,S,A,,N,650221820,,N,,GREATER MIAMI SERVICE CORPS,810 NORTHWEST 28TH STREET,,MIAMI,FL,33127,MARILYN BATSON,FISCAL OFFICER,3056384672,,MBATSON@GMSCMIAMI.COM,06/08/2017 14:20:29,MARILYN BATSON-FISCAL DIRECTOR,"RLMOLINA, LLC.","4000 HOLLYWOOD BOULEVARD, STE 555-SOUTH",,HOLLYWOOD,FL,33021,RUDOLPH LARRIMORE,MANAGING PARTNER,3056073399,,RUDY@RLMOLINA.COM,06/05/2017 14:08:25,,O,,U,N,N,N,Y,U,750000,Y,,1377883,,N,N,N,N,N,N,,17,06/08/2017 00:00:00,06/09/2017 08:28:45,,N,909,1,x00,06/08/2017 00:00:00,,N,MARILYN BATSON,FISCAL DIRECTOR,06/08/2017 00:00:00,272868892,N,,N,N,,,,,Non-profit,UG,,,,,,10/01/2015 00:00:00,,,,
1215435,1200682016,2016,120068,12/31/2016 00:00:00,S,A,,N,942494749,,N,,"PRESIDENT JAMES MADISON MANOR, INC. 136-11069",5105 MANZANITA AVENUE,,CARMICHAEL,CA,95068,CAREY HOWELL,ASSISTANT TREASURER,9163340810,,CAREY.HOWELL@ESKATON.ORG,05/18/2017 14:03:35,CAREY HOWELL   -ASSISTANT TREASURER,NICHOLSON & OLSON CPAS  ,"729 SUNRISE AVENUE, SUITE 303",,ROSEVILLE ,CA,95661,CHARLES NICHOLSON     , PARTNER,9167867997,,CHUCK@NICHOLSONOLSON.COM,05/17/2017 19:32:17,,O,,U,N,N,N,N,U,750000,N,,5143449,,N,N,N,N,N,N,,14,05/18/2017 00:00:00,05/19/2017 11:29:54,,N,903,1,x00,05/18/2017 00:00:00,,N,CAREY HOWELL   ,ASSISTANT TREASURER,05/18/2017 00:00:00,942771548,N,,N,N,,,,,Non-profit,UG,,,,,,01/01/2016 00:00:00,,,,
1190272,500602016,2016,50060,06/30/2016 00:00:00,S,A,,N,363157451,,N,103608170,INSTITUTE FOR CLINICAL SOCIAL WORK,"401 SOUTH STATE STREET, SUITE 822",,CHICAGO,IL,606051229,SEBASTIEN BEAUDET,DIRECTOR OF STUDENT FINANCIAL SERVICES,3129354234,,SBEAUDET@ICSW.EDU,11/07/2016 10:37:58,SEBASTIEN BEAUDET-DIRECTOR OF STUDENT FINANCIAL SERVICES,"SELDEN FOX, LTD.",619 ENTERPRISE DRIVE,,OAK BROOK,IL,60523,JOSEPH G. MEYER,VICE PRESIDENT,6309541400,,MEYER@SELDENFOX.COM,11/07/2016 10:47:49,,O,,U,N,N,N,N,U,750000,N,,796855,,N,N,N,N,N,N,,84,11/07/2016 00:00:00,11/08/2016 08:07:20,,N,904,1,x00,11/07/2016 00:00:00,,N,SEBASTIEN BEAUDET,DIRECTOR OF STUDENT FINANCIAL SERVICES,11/07/2016 00:00:00,362985770,N,,N,N,,,,,NON-PROFIT,UG,02573700,11/09/2016 13:58:36,11/10/2016 07:39:37,N,S,07/01/2015 00:00:00,,,,
1218131,778492016,2016,77849,12/31/2016 00:00:00,S,A,,N,530196932,,N,041964057,NATIONAL ACADEMY OF SCIENCES,500 5TH STREET NW,,WASHINGTON,DC,20001,LAURA DOUGLAS,CONTROLLER,2023343003,,LDOUGLAS@NAS.EDU,07/07/2017 11:19:05,LAURA DOUGLAS-CONTROLLER,GRANT THORNTON LLP,757 THIRD AVENUE,,NEW YORK,NY,10017,NICHOLAS LAZZARUOLO,PARTNER,6315771866,,NICHOLAS.LAZZARUOLO@US.GT.COM,07/07/2017 11:28:13,,C,20,U,N,N,N,N,U,3000000,Y,,220869000,,N,N,N,N,Y,N,,,07/07/2017 00:00:00,07/10/2017 08:56:08,,N,909,1,x00x64x20,07/07/2017 00:00:00,,N,LAURA DOUGLAS,CONTROLLER,07/07/2017 00:00:00,366055558,N,,N,N,,,,,Non-profit,UG,,07/10/2017 10:29:07,07/13/2017 15:48:43,,N,01/01/2016 00:00:00,,,,
1204091,2186762016,2016,218676,06/30/2016 00:00:00,S,A,,N,100008533,,N,,COALITION TO ABOLISH SLAVERY & TRAFFICKING,"5042 WILSHIRE BLVD., SUITE 586",,LOS ANGELES,CA,900364305,MYRNA JACKSON,DIRECTOR OF PROGRAMS,2133850702,,MYRNA@CASTLA.ORG,02/10/2017 17:20:01,MYRNA JACKSON-CHIEF OPERATING OFFICER,GREEN HASSON & JANKS LLP,"10990 WILSHIRE BLVD., 16TH FLOOR",,LOS ANGELES,CA,90024,DONELLA M. WILSON,"CPA, PARTNER",3108731649,,DWILSON@GREENHASSONJANKS.COM,02/10/2017 17:56:18,,O,,U,N,N,N,N,U,750000,Y,,998109,,N,N,N,N,N,N,,16,02/10/2017 00:00:00,02/13/2017 10:00:46,,N,909,1,x00,02/10/2017 00:00:00,,N,MYRNA JACKSON,CHIEF OPERATING OFFICER,02/10/2017 00:00:00,951777440,N,,N,N,,,,,Non-profit,UG,,,,,,07/01/2015 00:00:00,,,,
1194126,36822016,2016,3682,06/30/2016 00:00:00,S,A,,N,042622121,,N,,"COASTLINE ELDERLY SERVICES, INC.",1646 PURCHASE STREET,,NEW BEDFORD,MA,02740,JUSTIN LEES,DIRECTOR OF FINANCE,5087429143,,JLEES@COASTLINENB.ORG,12/07/2016 16:41:15,JUSTIN LEES-DIRECTOR OF FINANCE,DANIEL DENNIS AND COMPANY LLP,990 WASHINGTON STREET,,DEDHAM,MA,02026,KENNETH LUND,PARTNER,6172629898,,KLUND@DANIELDENNIS.COM,12/07/2016 16:32:56,,O,,U,N,N,N,N,U,750000,Y,,1690963,,N,N,N,N,N,N,,94,12/07/2016 00:00:00,12/08/2016 10:28:09,,N,908,1,x00,12/07/2016 00:00:00,,N,JUSTIN LEES,DIRECTOR OF FINANCE,12/07/2016 00:00:00,042734675,N,,N,N,,,,,NON-PROFIT,UG,,,,,,07/01/2015 00:00:00,,,,
1207696,1916252016,2016,191625,06/30/2016 00:00:00,S,A,,N,521771022,,N,,"ST. LUKE'S APARTMENTS, INC. 052-EH175, MD06-S901-002",320 CATHEDRAL STREET,,BALTIMORE,MD,21201,SCOTT BECKER,CHIEF FINANCIAL OFFICER,6676002231,,SBECKER@CC-MD.ORG,03/19/2017 11:02:38,SCOTT BECKER-CFO,KPMG LLP - BALTIMORE,"111 S. CALVERT STREET, SUITE 2500",,BALTIMORE,MD,21202,ADAM J. CROWLEY,PARTNER,4109498500,,ADAMCROWLEY@KPMG.COM,03/22/2017 19:54:42,,O,,U,N,N,N,N,U,750000,Y,,7407990,,N,N,N,N,N,N,,14,03/23/2017 00:00:00,03/24/2017 07:36:07,,N,903,1,x00,03/23/2017 00:00:00,,N,SCOTT BECKER,CFO,03/23/2017 00:00:00,135565207,N,,N,N,,,,,Non-profit,UG,,,,,,07/01/2015 00:00:00,,,,
1209542,1367442016,2016,136744,06/30/2016 00:00:00,S,A,,N,596000624,,N,053196085,GLADES COUNTY DISTRICT SCHOOL BOARD,P. O. BOX 459,,MOORE HAVEN,FL,33471,SUE WOODWARD,FINANCE DIRECTOR,8639462083,,SUSIE.WOODWARD@GLADESSCHOOLS.ORG,03/29/2017 15:17:10,SUSIE WOODWARD-FINANCE DIRECTOR,AUDITOR GENERAL,111 WEST MADISON STREET,,TALLAHASSEE,FL,323991450,"MICAH RODGERS, CPA",AUDIT SUPERVISOR,8504122905,,MICAHRODGERS@AUD.STATE.FL.US,03/28/2017 07:52:35,,O,,U,Y,N,N,N,U,750000,N,,2382704,,N,N,N,N,N,N,,84,03/29/2017 00:00:00,03/30/2017 13:12:44,,N,505,1,x00,03/29/2017 00:00:00,,N,SUSIE WOODWARD,FINANCE DIRECTOR,03/29/2017 00:00:00,596001874,N,,Y,N,,,,,State,UG,,03/31/2017 10:48:18,04/06/2017 08:47:45,N,G,07/01/2015 00:00:00,,,,
1186404,1504342016,2016,150434,06/30/2016 00:00:00,S,A,,N,386003063,,N,,SOUTH LYON COMMUNITY SCHOOLS,345 SOUTH WARREN,,SOUTH LYON,MI,48178,JAMES GRAHAM,ASSISTANT SUPERINTENENT,2485378125,,GRAHAMJ@SLCS.US,11/09/2016 15:22:10,JAMES GRAHAM-ASST. SUPT.,"PLANTE & MORAN, PLLC",1000 OAKBROOK DRIVE SUITE 400,,ANN ARBOR,MI,48104,JEFF HIGGINS,PARTNER,7343026918,,PM.SINGLEAUDIT@PLANTEMORAN.COM,11/01/2016 12:50:10,,O,,U,N,N,N,N,U,750000,Y,,3062244,,N,N,N,N,N,N,,84,11/09/2016 00:00:00,11/10/2016 08:15:12,,N,505,1,x00,11/09/2016 00:00:00,,N,JAMES GRAHAM,ASST. SUPT.,11/09/2016 00:00:00,381357951,N,,N,N,,,,,LOCAL GOVERNMENT,UG,,11/14/2016 08:27:58,11/17/2016 08:50:30,N,G,07/01/2015 00:00:00,,,,
1189247,2325662016,2016,232566,06/30/2016 00:00:00,S,A,,N,208175343,,N,014464204,"BUILDING DREAMS, INC.  083-HD095-NP-WDD",1579 BARDSTOWN ROAD,,LOUISVILLE,KY,40205,JENIFER FROMMEYER,EXECUTIVE DIRECTOR,5024594647,,J.FROMMEYER@DREAMSWITHWINGS.ORG,10/28/2016 11:18:40,JENIFER FROMMEYER-EXECUTIVE DIRECTOR ,"DEMING, MALONE, LIVESAY & OSTROFF","9300 SHELBYVILLE ROAD, SUITE 1100",,LOUISVILLE,KY,40222,JEFFREY MCCAFFREY,DIRECTOR,5024269660,,JMCCAFFREY@DMLO.COM,10/28/2016 18:36:01,,O,,U,N,N,N,N,U,750000,Y,,1128363,,N,N,N,N,N,N,,14,10/27/2016 00:00:00,10/31/2016 07:43:54,,N,903,1,x00,10/27/2016 00:00:00,,N,JENIFER FROMMEYER,EXECUTIVE DIRECTOR ,10/27/2016 00:00:00,611064249,N,,N,N,,,,,NON-PROFIT,UG,,,,,,07/01/2015 00:00:00,,,,
1196335,1861692016,2016,186169,06/30/2016 00:00:00,S,A,,N,066001957,,N,059060392,"TOWN OF AVON, CONNECTICUT",60 WEST MAIN STREET,,AVON,CT,06001,PEGGY COLLIGAN,DIRECTOR OF FINANCE,8604094344,,PCOLLIGAN@AVONCT.GOV,12/30/2016 13:57:05,PEGGY COLLIGAN-FINANCE DIRECTOR,"BLUM, SHAPIRO AND COMPANY, P.C.",29 SOUTH MAIN STREET,,WEST HARTFORD,CT,06107,RONALD NOSSEK,PARTNER,8605614000,,RNOSSEK@BLUMSHAPIRO.COM,01/27/2017 10:01:56,,O,,U,N,N,N,N,U,750000,Y,,1606965,,N,N,N,N,N,N,,84,01/27/2017 00:00:00,01/30/2017 07:44:58,,N,300,1,x00,01/27/2017 00:00:00,,N,PEGGY COLLIGAN,FINANCE DIRECTOR,01/27/2017 00:00:00,061009205,N,,N,N,,,,,Local government,UG,,01/30/2017 10:44:07,02/02/2017 08:34:46,,N,07/01/2015 00:00:00,,,,
1193328,1376892016,2016,137689,06/30/2016 00:00:00,S,A,,N,586000147,,N,028324648,CITY OF DECATUR BOARD OF EDUCATION,125 ELECTRIC AVENUE,,DECATUR,GA,30030,SUSAN HURST,FINANCE DIRECTOR,4043713601,,SHURST@CSDECATUR.NET,12/01/2016 17:29:02,SUSAN HURST-DIRECTOR OF FINANCE,"MAULDIN & JENKINS, LLC",200 GALLERIA PARKWAY SE SUITE 1700,,ATLANTA,GA,30339,DOUGLAS ALEXANDER MOSES,PARTNER/MEMBER,6787426673,,DMOSES@MJCPA.COM,12/01/2016 14:58:52,,O,,U,Y,N,N,N,U,750000,N,,2369059,,N,N,N,N,N,N,,12,12/01/2016 00:00:00,12/02/2016 10:46:20,,N,505,1,x00,12/01/2016 00:00:00,,N,SUSAN HURST,DIRECTOR OF FINANCE,12/01/2016 00:00:00,580692043,N,,Y,N,,,,,LOCAL GOVERNMENT,UG,,12/14/2016 11:37:42,12/15/2016 10:00:41,N,G,07/01/2015 00:00:00,,,,
1209280,2258722016,2016,225872,06/30/2016 00:00:00,S,A,,N,133266145,,N,944552777,"COMMUNITY ASSOCIATION OF PROGRESSIVE DOMINICANS, INC. AND AFFILIATES","3940 BROADWAY, 2ND FLOOR",,NEW YORK,NY,10032,MILTON DERIENZO,CFO,2127815500,,MDERIENZO@PROMESA.ORG,03/27/2017 15:03:21,MILTON DE RIENZO-CFO,"WITHUMSMITH+BROWN, P.C.",ONE SPRING STREET,,NEW BRUNSWICK,NJ,08901,JOSEPH PEREZ,PARTNER,7328281614,,JPEREZ@WITHUM.COM,03/27/2017 12:50:42,,O,,U,N,Y,N,N,U,750000,Y,,1565237,,N,N,N,N,N,N,,14,03/27/2017 00:00:00,03/28/2017 10:25:54,,N,908,1,x00,03/27/2017 00:00:00,,N,MILTON DE RIENZO,CFO,03/27/2017 00:00:00,222027092,Y,,N,N,,,,,Non-profit,UG,,,,,,07/01/2015 00:00:00,,,,
1208389,1366912016,2016,136691,06/30/2016 00:00:00,S,A,,N,590899100,,N,114138571,HOUSING AUTHORITY OF THE CITY OF FORT PIERCE,707 N 7TH STREET,,FORT PIERCE,FL,349503131,ANDREA KOCHANOWSKI,EXECUTIVE DIRECTOR,7724296416,,ANDREA.KOCHANOWSKI@CFPHA.ORG,03/16/2017 12:11:25,ANDREA KOCHANOWSKI-EXECUTIVE DIRECTOR,"MALCOLM JOHNSON & COMPANY, P.A.",P.O. BOX 530848,,DEBARY,FL,327530848,MALCOLM JOHNSON,EXECUTIVE DIRECTOR,3866686464,,MALCOLMJOHNSON@MPINET.NET,03/17/2017 11:27:03,,O,,U,N,N,N,N,U,750000,Y,,12383879,,N,N,N,N,N,N,,14,03/17/2017 00:00:00,03/20/2017 07:36:03,,N,403,1,x00,03/17/2017 00:00:00,,N,ANDREA KOCHANOWSKI,EXECUTIVE DIRECTOR,03/17/2017 00:00:00,593382992,N,,N,N,,,,,Local Government,UG,,,,,,07/01/2015 00:00:00,,,,
1193418,2099102016,2016,209910,06/30/2016 00:00:00,S,A,,N,236005512,,N,100069699,LAMPETER-STRASBURG SCHOOL DISTRICT,"1007 VILLAGE ROAD, P.O. BOX 428",,LAMPETER,PA,17537,MR. TERRY SWEIGART,BUSINESS MANAGER,7174643311,,TERRY_SWEIGART@L-SPIONEERS.ORG,12/07/2016 15:26:13,TERRY SWEIGART-BUSINESS MANAGER,"TROUT, EBERSOLE & GROFF, LLP",1705 OREGON PIKE,,LANCASTER,PA,17601,MS. KRISTA SHOWERS,PARTNER,7175692900,,KSHOWERS@TROUTCPA.COM,12/07/2016 14:33:58,,O,,U,N,N,N,N,U,750000,Y,,1392410,,N,N,N,N,N,N,,84,12/07/2016 00:00:00,12/08/2016 10:00:34,,N,505,1,x00,12/07/2016 00:00:00,,N,TERRY SWEIGART,BUSINESS MANAGER,12/07/2016 00:00:00,231551315,N,,N,N,,,,,LOCAL GOVERNMENT,UG,,12/20/2016 08:22:28,12/22/2016 16:12:18,,N,07/01/2015 00:00:00,,,,
1203703,1321642016,2016,132164,06/30/2016 00:00:00,S,A,,N,956000730,,N,094714938,CITY OF LA HABRA,201 E. LA HABRA BOULEVARD,,LA HABRA,CA,906330785,JACK PONVANIT,FINANCE MANAGER,5623834051,,JPONVANIT@LAHABRACA.GOV,02/14/2017 17:22:31,JACK PONVANIT-FINANCE MANAGER,WHITE NELSON DIEHL EVANS LLP,"2875 MICHELLE DR, SUITE 300",,IRVINE,CA,92606,NITIN PATEL,PARTNER,7149781300,,NPATEL@WNDECPA.COM,02/15/2017 16:43:35,,O,,U,Y,Y,N,N,U,750000,N,,5364385,,N,N,N,Y,N,N,,14,02/15/2017 00:00:00,02/16/2017 08:50:35,,N,200,1,x00,02/15/2017 00:00:00,,N,JACK PONVANIT,FINANCE MANAGER,02/15/2017 00:00:00,330686301,Y,,Y,N,,,,,Local government,UG,,,,,,07/01/2015 00:00:00,,,,
1195022,2351352016,2016,235135,06/30/2016 00:00:00,S,A,,N,611285124,,N,118841274,"FAMILY SCHOLAR HOUSE, INC.",403 REG SMITH CIRCLE,,LOUISVILLE,KY,40208,CATHE DYKSTRA,PRESIDENT AND CEO,5025848090,,CDYKSTRA@FAMILYSCHOLARHOUSE.ORG,12/09/2016 13:38:53,CATHE DYKSTRA-PRESIDENT & CEO,"COHNREZNICK, LLP","525 NORTH TRYON STREET, SUITE 1000",,CHARLOTTE,NC,28202,"MESLISSA W. BOONE, CPA",PARTNER,7043329100,,MELISSA.BOONE@COHNREZNICK.COM,12/09/2016 11:37:56,,O,,U,N,N,N,N,U,750000,N,,1342747,,N,N,N,N,N,N,,14,12/09/2016 00:00:00,12/12/2016 09:31:05,,N,909,1,x00,12/09/2016 00:00:00,,N,CATHE DYKSTRA,PRESIDENT & CEO,12/09/2016 00:00:00,221478099,N,,N,N,,,,,NON-PROFIT,UG,,,,,,07/01/2015 00:00:00,,,,
1221861,2191592016,2016,219159,12/31/2016 00:00:00,S,A,,N,221860456,,N,002504272,SOUTH JERSEY PORT CORPORATION,2ND AND JOSEPH A BALZANO BLVD,,CAMDEN,NJ,08103,BRUNO CELLUCCI,TREASURER/CFO,8567574917,,BCELLUCCI@SOUTHJERSEYPORT.COM,08/27/2017 14:30:13,BRUNO CELLUCCI-TREASURER/CFO,"BRENT W. LEE & CO., LLC",3008 NEW ALBANY ROAD,,CINNAMINSON,NJ,08077,BRENT LEE,PRESIDENT,6094568804,,BRENTLEE1963@YAHOO.COM,08/14/2017 11:27:44,,O,,U,N,N,N,N,U,750000,N,,7260345,,N,N,N,N,N,Y,,20,08/27/2017 00:00:00,08/28/2017 10:21:43,,N,906,1,x00,08/27/2017 00:00:00,,N,BRUNO CELLUCCI,TREASURER/CFO,08/27/2017 00:00:00,273629598,N,,N,N,,,,,State,UG,,,,,,01/01/2016 00:00:00,,,,
1213250,77212016,2016,7721,09/30/2016 00:00:00,S,A,,N,061182488,,N,825090897,"WESTERN CONNECTICUT AREA AGENCY ON AGING, INC",84 PROGRESS LANE,,WATERBURY,CT,06705,REBECCA DOYLE,FINANCE DIRECTOR,2037575449,,FINANCE@WCAAA.ORG,04/26/2017 10:08:19,REBECCA DOYLE-FINANCE DIRECTOR,"GUILMARTIN, DIPIRO & SOKOLOWSKI, LLC",505 MAIN STREET,,MIDDLETOWN,CT,06457,"TERESA OPALACZ, CPA",PARTNER,8603475689,,TERESA@GDSCPAS.COM,04/27/2017 11:08:40,,O,,Q,N,N,N,N,U,750000,N,,3754632,,N,N,N,N,N,N,,93,04/27/2017 00:00:00,04/28/2017 08:47:09,,N,908,1,x00,04/27/2017 00:00:00,,N,REBECCA DOYLE,FINANCE DIRECTOR,04/27/2017 00:00:00,060971998,N,,N,N,,,,,Non-profit,UG,,,,,,10/01/2015 00:00:00,,,,
1196451,1903042016,2016,190304,06/30/2016 00:00:00,S,A,,N,956000976,,N,,CYPRESS SCHOOL DISTRICT,9470 MOODY STREET,,CYPRESS,CA,90630,TIM MCLELLAN,ASSISTANT SUPT. BUSINESS SERVICES,7142206940,,TMCLELLAN@CYPSD.K12.CA.US,12/23/2016 18:19:58,TIM MCLELLAN-TIM MCLELLAN,"NIGRO & NIGRO, PC",25220 HANCOCK AVE SUITE 400,,MURRIETA,CA,92562,JAMES WHITTINGTON,PARTNER,9516988783,,JWHITTINGTON@NNCPAS.COM,01/03/2017 14:12:55,,O,,U,N,N,N,N,U,750000,Y,,2128318,,N,N,N,N,N,N,,84,01/03/2017 00:00:00,01/04/2017 09:45:03,,N,505,1,x00,01/03/2017 00:00:00,,N,TIM MCLELLAN,TIM MCLELLAN,01/03/2017 00:00:00,300636241,N,,N,N,,,,,Local government,UG,,01/18/2017 08:26:53,01/19/2017 09:02:42,N,G,07/01/2015 00:00:00,,,,
1207609,1378072016,2016,137807,06/30/2016 00:00:00,S,A,,N,586000175,,N,100014570,CITY OF VIDALIA BOARD OF EDUCATION,301 ADAMS STREET,,VIDALIA,GA,30474,NORMA CROFT,FINANCE DIRECTOR,9125373088,,NCROFT@VIDALIA-CITY.K12.GA.US,03/28/2017 15:12:22,NORMA CROFT-FINANCE DIRECTOR,GEORGIA DEPARTMENT OF AUDITS AND ACCOUNTS,270 WASHINGTON STREET S. W. SUITE 1-156,,ATLANTA,GA,30334,JENNA OGLESBEE,AUDIT PROCESSING SPECIALIST,4044630171,,PIRKLEWD@AUDITS.GA.GOV,03/28/2017 16:46:52,,O,,U,N,N,N,N,U,750000,Y,,3403288,,N,N,N,N,N,N,,12,03/28/2017 00:00:00,03/29/2017 11:27:12,,N,505,1,x00,03/28/2017 00:00:00,,N,NORMA CROFT,FINANCE DIRECTOR,03/28/2017 00:00:00,586002005,N,,N,N,,,,,Local government,UG,,03/31/2017 13:21:50,04/06/2017 08:47:45,N,G,07/01/2015 00:00:00,,,,
1204167,1305332016,2016,130533,06/30/2016 00:00:00,S,A,,N,866003009,,N,123892275,CHINO VALLEY UNIFIED SCHOOL DISTRICT NO. 51,650 E. CENTER ST.,,CHINO VALLEY,AZ,86323,REBEKKA BARTELS,DIRECTOR OF BUSINESS SERVICES,9286362458,,RBARTELS@CHINOVALLEYSCHOOLS.COM,02/09/2017 10:50:34,REBEKKA BARTELS-DIRECTOR OF BUSINESS SERVICES,"HEINFELD, MEECH & CO., P.C.",3033 N. CENTRAL AVE. SUITE 300,,PHOENIX,AZ,85012,"ERIC S. TAYLOR, CPA, CGFM",PARTNER,6022779449,,ERIC.TAYLOR@HEINFELDMEECH.COM,02/08/2017 14:54:37,,O,,U,N,N,N,N,U,750000,Y,,2753282,,N,N,N,N,N,N,,10,02/09/2017 00:00:00,02/10/2017 07:48:51,,N,505,1,x00,02/09/2017 00:00:00,,N,REBEKKA BARTELS,DIRECTOR OF BUSINESS SERVICES,02/09/2017 00:00:00,860558065,N,,N,N,,,,,Local government,UG,,02/17/2017 08:03:33,02/23/2017 09:41:54,N,G,07/01/2015 00:00:00,,,,
1189577,2377952016,2016,237795,09/30/2016 00:00:00,S,A,,N,272887649,,N,963553925,"ELKO RUBY VISTA, LLC 125-22011",285 SOUTH FARNHAM,,GALESBURG,IL,61401,RONALD J. WILSON,CFO OF ADMINISTRATIVE SERVICES COMPANY,3093431550,,RJWILSON@RFMSINC.COM,01/09/2017 11:12:47,RON WILSON-CFO,RSM US LLP,"117 EAST MAIN STREET, STE 210",,GALESBURG ,IL,61401,JILL A. PRESCHER,SENIOR MANAGER,3093421175,,JILL.PRESCHER@RSMUS.COM,01/06/2017 16:59:36,,O,,U,N,N,N,N,U,750000,N,,12607061,,N,N,N,Y,Y,N,,14,01/09/2017 00:00:00,01/10/2017 08:23:09,,N,903,1,x14,01/09/2017 00:00:00,,N,RON WILSON,CFO,01/09/2017 00:00:00,420714325,N,,N,N,,,,,Non-profit,UG,,,,,,10/01/2015 00:00:00,,,,
1214352,2410022016,2016,241002,09/30/2016 00:00:00,S,A,,N,570000609,,N,197076250,HOUSING AUTHORITY OF THE CITY OF CHARLESTON ,550 MEETING STREET,,CHARLESTON,SC,294035068,PETE SHERMAN,CFO,8437203970,,PGS@CHACITY.ORG,05/03/2017 15:14:07,PETER SHERMAN-CFO,"MALCOLM JOHNSON & COMPANY, P.A.",P.O. BOX 530848,,DEBARY,FL,327530848,MALCOLM P. JOHNSON,PRESIDENT,3866686464,,MALCOLMJOHNSON@MPINET.NET,06/22/2017 10:45:00,,O,,U,N,N,N,N,U,750000,Y,,18504974,,N,N,N,N,N,N,,14,06/22/2017 00:00:00,06/23/2017 08:37:18,,N,888,1,x00,06/22/2017 00:00:00,,N,PETER SHERMAN,CFO,06/22/2017 00:00:00,593382992,N,,N,N,,,,,Local government,UG,,,,,,10/01/2015 00:00:00,,,,
1216297,180712016,2016,18071,12/31/2016 00:00:00,S,A,,N,150532097,,N,,"THE NEIGHBORHOOD CENTER, INC.",624 ELIZABETH STREET,,UTICA,NY,13501,SANDRA SAROKA,EXECUTIVE DIRECTOR,3152722600,,SANDYS@NEIGHBORHOODCTR.ORG,06/13/2017 09:40:10,SANDRA SOROKA-EXECUTIVE DIRECTOR ,"FITZGERALD, DEPIETRO & WOJNAS, CPAS, PC",291 GENESEE STREET,,UTICA,NY,13501,DAVID WOJNAS,CPA - SHAREHOLDER,3157242145,,DJW@FDWCPA.NET,06/09/2017 12:39:00,,O,,U,N,N,N,N,U,750000,Y,,785601,,N,N,N,N,N,N,,10,06/13/2017 00:00:00,06/14/2017 08:10:57,,N,908,1,x00,06/13/2017 00:00:00,,N,SANDRA SOROKA,EXECUTIVE DIRECTOR ,06/13/2017 00:00:00,161163912,N,,N,N,,,,,Non-profit,UG,,,,,,01/01/2016 00:00:00,,,,
1227642,292962016,2016,29296,12/31/2016 00:00:00,S,A,,N,237035642,,N,237035642,BAPTIST TOWERS INC PROJ NO. KY36M000124,1014 SOUTH SECOND STREET,,LOUISVILLE,KY,40203,TARA SMITH,CONTROLLER,5026349830,,TSMITH@BEACONPROPERTY.COM,10/03/2017 12:55:35,TARA SMITH-MANAGEMENT AGENT,BOB WIENTJES CPA LLC,524 GABLEWOOD CIRCLE,,LOUISVILLE,KY,40245,BOB WIENTJES,CPA,5023961506,,BOB@WIENTJESCPA.COM,10/10/2017 21:16:40,,O,,U,N,N,N,N,U,750000,Y,,1912638,,N,N,N,N,N,N,,14,10/10/2017 00:00:00,10/11/2017 08:36:29,,N,903,1,x00,10/10/2017 00:00:00,,N,TARA SMITH,MANAGEMENT AGENT,10/10/2017 00:00:00,812616762,N,,N,N,,,,,Non-profit,UG,,,,,,01/01/2016 00:00:00,,,,
1196702,2234722016,2016,223472,08/31/2016 00:00:00,S,A,,Y,061689571,,N,,"FAITH FAMILY KIDS, INC.",1620 FALCON DRIVE,,DESOTO,TX,75115,AMANDA SUBJINSKI,ASSISTANT OF SUPERINTENDENT,9722244110,,ASUBJINSKI@FAITHFAMILYACADEMY.ORG,12/20/2016 10:37:44,AMANDA SUBJINSKI-ASSISTANT SUPERINTENDENT OF FINANCE,MCCONNELL & JONES LLP,4828 LOOP CENTRAL DRIVE SUITE 1000,,HOUSTON,TX,77081,MARLON WILLIAMS,AUDIT PARTNER,2142932321,,MWILLIAMS@MJLM.COM,12/20/2016 10:43:02,,O,,U,N,N,N,N,U,750000,Y,,3109085,,N,N,N,N,N,Y,,84,12/20/2016 00:00:00,12/21/2016 08:26:53,,N,905,1,x00,12/20/2016 00:00:00,,N,AMANDA SUBJINSKI,ASSISTANT SUPERINTENDENT OF FINANCE,12/20/2016 00:00:00,760488832,N,,N,N,,,,,Non-Profit,UG,,01/09/2017 09:18:16,01/12/2017 09:47:01,N,G,09/01/2015 00:00:00,,,,
1201130,926032016,2016,92603,06/30/2016 00:00:00,S,A,,N,611291304,,N,927894782,"THE CENTER FOR RURAL DEVELOPMENT, INC.",2292 SOUTH HIGHWAY 27,,SOMERSET,KY,42501,DEBBIE QUILLEN,CONTROLLER,6066776000,,DQUILLEN@CENTERTECH.COM,01/19/2017 14:39:05,DEBORA QUILLEN-CONTROLLER,"EVANS, HARVILLE, ATWELL & COMPANY, CPAS",116 TRADEPARK DRIVE,,SOMERSET,KY,42503,"JON R. HARVILLE, CPA",PARTNER,6066795090,,JHARVILLE@EHACPAS.COM,01/19/2017 11:37:56,,O,,U,N,N,N,N,U,750000,N,,5537608,,N,N,N,N,N,N,,97,01/19/2017 00:00:00,01/20/2017 10:09:01,,N,909,1,x00,01/19/2017 00:00:00,,N,DEBORA QUILLEN,CONTROLLER,01/19/2017 00:00:00,205372898,N,,N,N,,,,,Non-profit,UG,,,,,,07/01/2015 00:00:00,,,,
1185986,2402392016,2016,240239,06/30/2016 00:00:00,S,A,,N,271023782,,N,,"CASITAS DE VILLA CORONA, INC. 115-EE087",212 W LAUREL ST,,SAN ANTONIO,TX,78212,SUSAN R. SHEERAN,PRESIDENT,2102810234,,SUSAN@MERCEDHOUSINGTEXAS.ORG,11/01/2016 16:57:17,SUSAN R. SHEERAN-PRESIDENT,M GROUP LLP,"515 W SOUTHLAKE BLVD, STE 150",,SOUTHLAKE,TX,760926176,MICHAEL MARTIN,PARTNER,8178651360,,MMARTIN@MGROUPTX.COM,11/02/2016 11:30:41,,O,,U,Y,N,N,N,U,750000,N,,4257591,,Y,N,N,Y,Y,Y,,14,11/02/2016 00:00:00,11/03/2016 07:49:03,,N,888,1,x14,11/02/2016 00:00:00,,N,SUSAN R. SHEERAN,PRESIDENT,11/02/2016 00:00:00,263548566,N,,Y,Y,,,,,NON-PROFIT,UG,,,,,,07/01/2015 00:00:00,,,,
1194694,1836552016,2016,183655,09/30/2016 00:00:00,S,A,,N,953981289,,N,171220077,"BOISE FIRST RHF HOUSING, INC. DBA CENTENNIAL MANOR  124-EH033",911 NORTH STUDEBAKER ROAD,,LONG BEACH,CA,90815,CHRISTOPHER PURCELL,CONTROLLER,5622575100,,CHRISTOPHER.PURCELL@RHF.ORG,01/13/2017 14:38:49,CHRISTOPHER PURCELL-CONTROLLER,"DAUBY O'CONNOR & ZALESKI, LLC","501 CONGRESSIONAL BLVD., SUITE 300",,CARMEL,IN,46032,JACOB BUEHLER,MEMBER,3178485700,,JBUEHLER@DOZ.NET,01/16/2017 14:32:09,,O,,U,N,N,N,N,U,750000,Y,,891240,,N,N,N,N,N,N,,14,01/16/2017 00:00:00,01/17/2017 13:50:18,,N,903,1,x00,01/16/2017 00:00:00,,N,CHRISTOPHER PURCELL,CONTROLLER,01/16/2017 00:00:00,351750664,N,,N,N,,,,,Non-profit,UG,,,,,,10/01/2015 00:00:00,,,,
1186203,1962852016,2016,196285,03/31/2016 00:00:00,S,A,,N,720643183,,N,029172855,"ST. MARY COMMUNITY ACTION COMMITTEE ASSOCIATION, INC.",1407 BARROW STREET,,FRANKLIN,LA,70538,EUGENE FOULCARD,FINANCE DIRECTOR,3378285705,,EPFOULCARD@HOTMAIL.COM,10/06/2016 17:14:09,EUGENE FOULCARD-FINANCE DIRECTOR,"PITTS & MATTE,CPAS",P.O. BOX 2363,,MORGAN CITY,LA,70381,GUY PITTS,PRESIDENT,9853847545,,PITTSANDMATTE@ATVCI.NET,10/06/2016 17:15:07,,O,,U,N,N,N,N,U,750000,Y,,6555840,,N,N,N,N,N,N,,93,10/06/2016 00:00:00,10/07/2016 08:29:17,,N,908,1,x00,10/06/2016 00:00:00,,N,EUGENE FOULCARD,FINANCE DIRECTOR,10/06/2016 00:00:00,720889100,N,,N,N,,,,,NON-PROFIT,UG,,,,,,04/01/2015 00:00:00,,,,
1196897,165442016,2016,16544,06/30/2016 00:00:00,S,A,,N,136202692,,N,,"CHINESE-AMERICAN PLANNING COUNCIL, INC.",150 ELIZABETH STREET,,NEW YORK,NY,10012,JONATHAN BRAKE,CHIEF FINANCIAL OFFICER,2129410920,,JBRAKE@CPC-NYC.ORG,12/22/2016 10:49:50,JONATHAN BRAKE-CHIEF FINANCIAL OFFICER,NCHENG LLP,"40 WALL STREET, SUITE 3222",,NEW YORK,NY,10005,ALWAYNE BURKE,SENIOR MANAGER,2127850100,,ABURKE@NCHENG.COM,12/22/2016 13:27:32,,O,,U,N,N,N,N,U,750000,Y,,7844385,,N,N,N,N,N,N,,93,12/22/2016 00:00:00,12/23/2016 10:05:58,,N,908,1,x00,12/22/2016 00:00:00,,N,JONATHAN BRAKE,CHIEF FINANCIAL OFFICER,12/22/2016 00:00:00,133516375,N,,N,N,,,,,Non-profit,UG,,,,,,07/01/2015 00:00:00,,,,
1204712,2227732016,2016,222773,06/30/2016 00:00:00,S,A,,N,752987568,,N,785141248,"CARIBE TOWERS, INC. 034-EE108-WAH",167 W. ALLEGHENY AVE,,PHILADELPHIA,PA,19125,HARRY TAPIA,CONTROLLER,2154268025,,HTAPIA@HACECDC.ORG,02/21/2017 12:11:10,HARRY TAPIA-HARRY TAPIA,"HAEFELE FLANAGAN & CO., P.C.",1000 S. LENOLA ROAD,,MAPLE SHADE,NJ,08052,SUSAN JOSEPH,CPA,8567225300,,SUE.JOSEPH@HFCO.COM,02/21/2017 12:34:34,,O,,U,N,N,N,N,U,750000,N,,7739574,,N,N,N,N,N,N,,14,02/21/2017 00:00:00,02/22/2017 09:42:29,,N,903,1,x00,02/21/2017 00:00:00,,N,HARRY TAPIA,HARRY TAPIA,02/21/2017 00:00:00,223008776,N,,N,N,,,,,Non-profit,UG,,,,,,07/01/2015 00:00:00,,,,
1205895,2041152016,2016,204115,09/30/2016 00:00:00,S,A,,N,411459252,,N,808224687,"ANGEL RIDGE, INC. 092-EE005-WAH",280 EVANS AVENUE,,ELK RIVER,MN,55330,TROY HANSON,CFO,7632414438,,THANSON@GA-ER.ORG,02/24/2017 14:42:53,TROY HANSON-VICE PRESIDENT / CFO,CLIFTONLARSONALLEN LLP,"220 SOUTH 6TH STREET, SUITE 300",,MINNEAPOLIS,MN,554021436,MATT WOCKEN,PRINCIPAL,6123973260,,MATTHEW.WOCKEN@CLACONNECT.COM,02/24/2017 12:10:14,,O,,U,N,N,N,N,U,750000,Y,,3175987,,N,N,N,N,N,Y,,14,02/24/2017 00:00:00,02/27/2017 09:27:55,,N,903,1,x00,02/24/2017 00:00:00,,N,TROY HANSON,VICE PRESIDENT / CFO,02/24/2017 00:00:00,410746749,N,,N,N,,,,,Non-profit,UG,,,,,,10/01/2015 00:00:00,,,,
1227081,109822016,2016,10982,12/31/2016 00:00:00,S,A,,N,131739971,,N,073257008,THE HEBREW HOME FOR THE AGED AT RIVERDALE,5901 PALISADE AVENUE,,BRONX,NY,10471,CARL WILLNER,VP OF FINANCE,7185811313,,CARL.WILLNER@HEBREWHOME.ORG,09/29/2017 11:30:51,CARL WILLNER-VP OF FINANCE,LOEB AND TROPER LLP,655 THIRD AVENUE,,NEW YORK,NY,10017,ALLAN BLUM,PARTNER,2128674000,,ABLUM@LOEBANDTROPER.COM,09/29/2017 09:34:57,,O,,U,N,N,N,N,U,750000,Y,,788173,,N,N,N,N,N,N,,93,09/29/2017 00:00:00,10/02/2017 11:59:42,,N,903,1,x00,09/29/2017 00:00:00,,N,CARL WILLNER,VP OF FINANCE,09/29/2017 00:00:00,131517563,N,,N,N,,,,,Non-profit,UG,,,,,,01/01/2016 00:00:00,,,,
1295786,1526572016,2016,152657,06/30/2016 00:00:00,S,A,,N,646000920,,N,,NOXUBEE COUNTY SCHOOL DISTRICT,505 S. JEFFERSON ,,MACON,MS,393410540,PAM NORRIS,BUSINESS MANAGER,6627264527,,PNORRIS@NOXCNTY.K12.MS.US,04/09/2019 14:21:22,PAM NORRIS-BUSINESS MANAGER,"FORTENBERRY & BALLARD, PC","1929 SPILLWAY ROAD, SUITE B",,BRANDON,MS,39047,BRENT BALLARD,SHAREHOLDER,6019925292,,BRENT@FORTCPA.COM,04/10/2019 09:29:26,,O,,U,Y,N,N,N,A,750000,N,,3692722,,Y,Y,N,Y,N,N,,12,04/10/2019 00:00:00,04/12/2019 01:30:39,,N,505,1,x00,04/10/2019 00:00:00,,N,PAM NORRIS,BUSINESS MANAGER,04/10/2019 00:00:00,640887736,N,,Y,Y,,,,,Local government,UG,,04/29/2019 11:34:14,05/02/2019 14:22:45,N,G,07/01/2015 00:00:00,,,,
1204999,1294242016,2016,129424,06/30/2016 00:00:00,S,A,,N,636005369,,N,618153175,THE HOUSING AUTHORITY OF THE CITY OF CLANTON,P.O. BOX 408,,CLANTON,AL,35046,RON M JONES,EXECUTIVE DIRECTOR,2057551301,,RONMJONES@BELLSOUTH.NET,02/22/2017 10:26:38,RON JONES-EXECUTIVE DIRECTOR,"YEAGER AND BOYD, LLC",5501 HIGHWAY 280,,BIRMINGHAM,AL,35242,REBECCA MCCUNE,CPA,2059915506,,BECKY@YEAGERBOYD.COM,02/22/2017 10:27:45,,O,,U,N,N,N,N,U,750000,Y,,834497,,N,N,N,N,N,N,,14,02/22/2017 00:00:00,02/23/2017 08:02:20,,N,403,1,x00,02/22/2017 00:00:00,,N,RON JONES,EXECUTIVE DIRECTOR,02/22/2017 00:00:00,631153889,N,,N,N,,,,,Local government,UG,,,,,,07/01/2015 00:00:00,,,,
1209858,1873852016,2016,187385,06/30/2016 00:00:00,S,A,,N,936002289,,N,,COOS COUNTY,250 N. BAXTER,,COQUILLE,OR,97423,MEGAN SIMMS,TREASURER,5413967730,,MSIMMS@CO.COOS.OR.US,03/27/2017 13:01:23,MEGAN SIMMS-FINANCE DIRECTOR/TREASURER,"HOUGH, MACADAM, WARTNIK, FISHER & GORMAN, LLC",3690 BROADWAY,,NORTH BEND,OR,97459,LAURA FISHER,PARTNER,5412699338,,KAILA.MORRIS@HMWCPAS.COM,03/27/2017 12:54:37,,O,,U,N,N,N,N,U,750000,Y,,5279584,,N,N,N,N,N,N,,15,03/27/2017 00:00:00,03/28/2017 12:26:26,,N,100,1,x00,03/27/2017 00:00:00,,N,MEGAN SIMMS,FINANCE DIRECTOR/TREASURER,03/27/2017 00:00:00,562437610,N,,N,N,,,,,Local government,UG,,,,,,07/01/2015 00:00:00,,,,
1191366,1708152016,2016,170815,06/30/2016 00:00:00,S,A,,N,576004861,,N,084706928,UNION COUNTY SCHOOLS,PO BOX 907,,UNION,SC,29379,LYNN LAWSON,FINANCE AND OPERATIONS OFFICER,8644291740,,LLAWSON@UNION.K12.SC.US,11/17/2016 14:56:45,LYNN LAWSON-FINANCE & OPERATIONS OFFICER,"MCGREGOR & COMPANY, LLP","101 N. MAIN STREET, SUITE 1510",,GREENVILLE,SC,29601,"LESLEY H. KELLY, CPA",PARTNER,8647516556,,LKELLY@MCGREGORCPA.COM,11/17/2016 15:05:00,,O,,U,N,N,N,N,U,750000,N,,4838432,,N,N,N,N,N,N,,12,11/17/2016 00:00:00,11/18/2016 08:48:53,,N,505,1,x00,11/17/2016 00:00:00,,N,LYNN LAWSON,FINANCE & OPERATIONS OFFICER,11/17/2016 00:00:00,570292726,N,,N,N,,,,,LOCAL GOVERNMENT,UG,,11/21/2016 10:21:29,12/01/2016 08:48:16,N,G,07/01/2015 00:00:00,,,,
1207275,740992016,2016,74099,10/30/2016 00:00:00,S,A,,N,521102799,,N,173850637,"MARYLAND HUMANITIES COUNCIL, INC.",108 W. CENTRE STREET,,BALTIMORE,MD,21201,PHOEBE STEIN,EXECUTIVE DIRECTOR,4106850095,,PSTEIN@MDHUMANITIES.ORG,03/10/2017 16:30:44,PHOEBE STEIN-EXECUTIVE DIRECTOR,"SB & COMPANY, LLC","200 INTERNATIONAL CIRCLE, SUITE 5500",,HUNT VALLEY,MD,21030,PAMELA GRAY,MEMBER,4105840060,,PGRAY@SBANDCOMPANY.COM,03/09/2017 20:01:26,,O,,U,N,N,N,N,U,750000,Y,,963552,,N,N,N,Y,N,Y,,06,03/10/2017 00:00:00,03/16/2017 09:33:52,,N,909,1,x45x00,03/10/2017 00:00:00,,N,PHOEBE STEIN,EXECUTIVE DIRECTOR,03/10/2017 00:00:00,202153727,N,,N,N,,,,,Non-profit,UG,,,,,,11/01/2015 00:00:00,,,,
1210732,1607172016,2016,160717,06/30/2016 00:00:00,S,A,,N,116002007,,N,064740426,AMITYVILLE UNION FREE SCHOOL DISTRICT,150 PARK AVENUE,,AMITYVILLE,NY,117013195,"MS. DIANE CASTONGUAY, CPA",ASST. SUPERINTENDENT OF FINANCE,6315656020,,DCASTONGUAY@AMITYVILLEUFSD.ORG,03/30/2017 14:09:41,DIANE CASTONGUAY-ASSISTANT SUPERINTENDENT FOR FIN AND OPS,"CULLEN & DANOWSKI, LLP",1650 ROUTE 112,,PORT JEFFERSON STATION,NY,117763060,"ALAN YU, CPA",PARTNER,6314733400,,AYU@CDLLP.NET,03/30/2017 14:13:57,,O,,U,N,N,N,N,U,750000,Y,,4080077,,N,N,N,N,N,N,,93,03/30/2017 00:00:00,03/31/2017 11:07:40,,N,505,1,x00,03/30/2017 00:00:00,,N,DIANE CASTONGUAY,ASSISTANT SUPERINTENDENT FOR FIN AND OPS,03/30/2017 00:00:00,112459188,N,,N,N,,,,,Local government,UG,,05/01/2017 11:17:36,05/04/2017 08:37:30,N,G,07/01/2015 00:00:00,,,,
1227333,1770702016,2016,177070,12/31/2016 00:00:00,S,A,,N,916000979,,N,071841555,"HOUSING AUTHORITY OF SUNNYSIDE, WASHINGTON",204 SOUTH 13TH STREET,,SUNNYSIDE,WA,98944,KETHA KIMBROUGH,EXECUTIVE DIRECTOR,5098374150,,KETHA@SUNNYSIDEHA.ORG,09/29/2017 19:06:04,KETHA KIMBROUGH-EXECUTIVE DIRECTOR,"PETERSEN CPAS AND ADVISORS, PLLC",3702 KERN ROAD,,YAKIMA,WA,98902,ABBY SANDERS,MEMBER OF THE FIRM,5095751040,,ABBY@ASANDERSCPA.COM,09/29/2017 18:29:54,,O,,U,N,N,N,N,U,750000,Y,,1608271,,N,N,N,N,N,N,,10,09/29/2017 00:00:00,10/03/2017 09:21:34,,N,403,1,x00,09/29/2017 00:00:00,,N,KETHA KIMBROUGH,EXECUTIVE DIRECTOR,09/29/2017 00:00:00,261262413,N,,N,N,,,,,Local Government,UG,,,,,,01/01/2016 00:00:00,,,,
1215571,2266722016,2016,226672,12/31/2016 00:00:00,S,A,,N,840728521,,N,,LONGMONT HOUSING AUTHORITY,1228 MAIN ST,,LONGMONT,CO,80501,MICHAEL REIS,EXECUTIVE DIRECTOR,3036518581,,MICHAEL@LONGMONTHA.COM,06/15/2017 17:04:21,LORI MORA-COMPTROLLER,EIDE BAILLY LLP,1730 BRUNT BOAT LOOP STE. 100,,BISMARCK,ND,585021914,AARON NESS,PARTNER,7012551091,,ANESS@EIDEBAILLY.COM,06/13/2017 10:09:41,,O,,U,N,N,N,N,U,750000,Y,,4783480,,Y,N,N,Y,Y,N,,14,06/15/2017 00:00:00,06/16/2017 10:41:35,,N,403,1,x14,06/15/2017 00:00:00,,N,LORI MORA,COMPTROLLER,06/15/2017 00:00:00,450250958,N,,N,Y,,,,,Local government,UG,,,,,,01/01/2016 00:00:00,,,,
1197570,2251102016,2016,225110,06/30/2016 00:00:00,S,A,,N,202006992,,N,607241903,BENNETT VENTURE ACADEMY,5130 BENNETT ROAD,,TOLEDO,OH,436123422,ANN STRAHOTA,DIRECTOR OF AUDIT,6162221700,,NHAAUDIT@NHASCHOOLS.COM,01/25/2017 13:10:38,NHA AUDIT-DIRECTOR OF AUDIT,CHARLES E. HARRIS AND ASSOCIATES,614 SUPERIOR AVENUE NW SUITE 1242,,CLEVELAND,OH,44113,JOHN PHILLIPS,VP/SHAREHOLDER,2165751630,,FLIP4@AOL.COM,12/23/2016 23:47:53,,O,,U,N,N,N,N,U,750000,Y,,1260358,,N,N,N,N,N,N,,84,01/25/2017 00:00:00,01/26/2017 08:06:55,,N,505,1,x00,01/25/2017 00:00:00,,N,NHA AUDIT,DIRECTOR OF AUDIT,01/25/2017 00:00:00,341612521,N,,N,N,,,,,Non-profit,UG,,02/03/2017 11:02:08,02/09/2017 08:40:20,,N,07/01/2015 00:00:00,,,,
1197654,1833432016,2016,183343,09/30/2016 00:00:00,S,A,,N,820442236,,N,198308756,ADA COUNTY HOUSING AUTHORITY,1276 RIVER ST. SUITE 300,,BOISE,ID,83702,DIANA MEO,FINANCE DIRECTOR,2083454909,,DMEO@BCACHA.ORG,03/06/2017 09:46:04,DIANA MEO-FINANCE DIRECTOR,EIDE BAILLY,877 WEST MAIN ST. SUITE 800,,BOISE,ID,83702,JODI DAUGHERTY,PARTNER,2083447150,,JDAUGHERTY@EIDEBAILLY.COM,03/06/2017 12:06:54,,O,,U,N,N,N,N,U,750000,Y,,5727599,,N,N,N,N,N,N,,14,03/06/2017 00:00:00,03/07/2017 08:00:24,,N,403,1,x00,03/06/2017 00:00:00,,N,DIANA MEO,FINANCE DIRECTOR,03/06/2017 00:00:00,450250958,N,,N,N,,,,,Local government,UG,,,,,,10/01/2015 00:00:00,,,,
1223995,1629202016,2016,162920,12/31/2016 00:00:00,S,A,,N,346003189,,N,080156839,CITY OF YOUNGSTOWN,26 S. PHELPS STREET,,YOUNGSTOWN,OH,44503,ANNETTE KLIMKO,ACCOUNTING MANAGER,3307428724,,AKLIMKO@YOUNGSTOWNOHIO.GOV,05/10/2018 11:29:35,ANNETTE KLIMKO-GENERAL ACCOUNTING MANAGER,AUDITOR OF STATE DAVE YOST,88 E. BROAD STREET,,COLUMBUS,OH,43215,CHRISTINE M. PITLIK,SENIOR AUDIT MANAGER,8004439272,,CMPITLIK@OHIOAUDITOR.GOV,05/07/2018 11:25:00,,O,,U,Y,Y,N,N,U,750000,N,,6790211,,N,N,N,N,N,N,,14,05/10/2018 00:00:00,05/12/2018 01:30:21,,N,200,1,x00,05/10/2018 00:00:00,,N,ANNETTE KLIMKO,GENERAL ACCOUNTING MANAGER,05/10/2018 00:00:00,311334820,Y,,Y,N,,,,,Local government,UG,,,,,,01/01/2016 00:00:00,,,,
1193156,1475472016,2016,147547,06/30/2016 00:00:00,S,A,,N,010284307,,N,093629079,WATERVILLE HOUSING AUTHORITY,88 SILVER STREET,,WATERVILLE,ME,04901,DIANE TOWNSEND,EXECUTIVE DIRECTOR,2078732155,,DIANE@WATERVILLEHOUSING.ORG,12/06/2016 10:55:43,DIANE TOWNSEND-DIANE TOWNSEND,"ROY & ASSOCIATES, CPAS, P.A.",209 STATE STREET,,BANGOR,ME,04401,"ADRIEN J. ROY, JR.",PARTNER,2079908909,,JOE@ROYCPAS.COM,12/07/2016 08:50:11,,O,,U,N,N,N,N,U,750000,Y,,2775894,,Y,N,N,Y,Y,N,,14,12/07/2016 00:00:00,12/08/2016 07:47:29,,N,403,1,x14,12/07/2016 00:00:00,,N,DIANE TOWNSEND,DIANE TOWNSEND,12/07/2016 00:00:00,010528843,N,,N,Y,,,,,NON-PROFIT,UG,,,,,,07/01/2015 00:00:00,,,,
1225704,2095942016,2016,209594,06/30/2016 00:00:00,S,A,,N,721473751,,N,,"KILGORE COMPLEX, INC. 064-HDO52",P.O. BOX 1117,,SHREVEPORT,LA,71163,JENNIFER BUCELLO,MANAGEMENT AGENT,3188417817,,JBUCELLO@FAIRFIELDMANAGEMENT.COM,09/28/2017 13:53:33,JENNIFER BUCELLO-DIRECTOR OF ACCOUNTING,"TIDWELL GROUP, LLC","750 HAMMOND DR., BUILDING 18, SUITE 300",,ATLANTA,GA,30328,CLINT HAMILTON,MANAGER,4702736617,,CLINT.HAMILTON@TIDWELLGROUP.COM,09/28/2017 14:26:35,,O,,U,N,N,N,N,U,750000,Y,,1077958,,N,N,N,N,N,N,,14,09/28/2017 00:00:00,09/29/2017 11:51:37,,N,903,1,x00,09/28/2017 00:00:00,,N,JENNIFER BUCELLO,DIRECTOR OF ACCOUNTING,09/28/2017 00:00:00,271490692,N,,N,N,,,,,Non-profit,UG,,,,,,07/01/2015 00:00:00,,,,
1212566,2247322016,2016,224732,12/31/2016 00:00:00,S,A,,N,260516371,,N,147284827,QUAKER HEIGHTS LLC DBA QUAKER HEIGHTS CARE COMMUNITY,514 HIGH STREET,,WAYNESVILLE,OH,450689784,WENDY L. WATERS-CONNELL,EXECUTIVE DIRECTOR,5138976050,,WWATERSC@QUAKERHEIGHTS.ORG,04/10/2017 16:56:53,WENDY L. WATERS-CONNELL-EXECUTIVE DIRECTOR/LNHA,CLARK SCHAEFER HACKETT ,"14 EAST MAIN STREET, SUITE 500",,SPRINGFIELD,OH,45502,MATTHEW SHROYER,PRINCIPAL,9373992000,,MSHROYER@CSHCO.COM,04/10/2017 16:28:11,,O,,U,N,N,N,N,U,750000,Y,,11286910,,N,N,N,N,N,N,,14,04/10/2017 00:00:00,04/11/2017 08:56:40,,N,903,1,x00,04/10/2017 00:00:00,,N,WENDY L. WATERS-CONNELL,EXECUTIVE DIRECTOR/LNHA,04/10/2017 00:00:00,310800053,N,,N,N,,,,,Non-profit,UG,,,,,,01/01/2016 00:00:00,,,,
1196861,1743412016,2016,174341,08/31/2016 00:00:00,S,A,,N,741734884,,Y,786910620,LONE STAR COLLEGE SYSTEM,5000 RESEARCH FOREST DRIVE,,THE WOODLANDS,TX,77381,DIANE NOVAK,"AVC, ACCOUNTING",8328136537,,DIANE.NOVAK@LONESTAR.EDU,12/21/2016 22:31:19,"DIANE NOVAK-ASSOCIATE VICE CHANCELLOR, ACCOUNTING ",WHITLEY PENN LLP,"3411 RICHMOND AVE, STE. 500",,HOUSTON,TX,77046,CELINA CERECERES MILLER,AUDIT PARTNER,7136211515,,CELINA.MILLER@WHITLEYPENN.COM,12/21/2016 16:38:12,,C,84,U,N,N,N,N,U,750000,Y,,135738936,,N,N,N,N,N,N,,,12/22/2016 00:00:00,12/23/2016 10:25:33,,N,504,1,x00,12/22/2016 00:00:00,,N,DIANE NOVAK,"ASSOCIATE VICE CHANCELLOR, ACCOUNTING ",12/22/2016 00:00:00,752393478,N,,N,N,,,,,Local government,UG,01114500,01/11/2017 10:54:53,01/12/2017 09:47:01,N,B,09/01/2015 00:00:00,,,,
1215785,1450952016,2016,145095,12/31/2016 00:00:00,S,A,,N,486040414,,N,058751269,"CITY OF PARSONS, KANSAS","112 S 17TH STREET, P.O. BOX 1037",,PARSONS,KS,67357,DEBBIE LAMB,CITY MANAGER,6204217030,,DLAMB@PARSONSKS.COM,06/21/2017 11:22:06,DEBORAH LAMB-CITY MANAGER,"JARRED, GILMORE & PHILLIPS, PA","1815 S. SANTA FE, P.O. BOX 779",,CHANUTE,KS,667200779,NEIL L PHILLIPS,AUDITOR IN CHARGE,6204316342,,NPHILLIPS@JGPPA.COM,05/24/2017 09:12:28,,O,,S,N,N,N,N,U,750000,N,,963802,,N,N,N,N,N,N,,20,06/21/2017 00:00:00,06/22/2017 08:18:30,,N,200,1,x00,06/21/2017 00:00:00,,N,DEBORAH LAMB,CITY MANAGER,06/21/2017 00:00:00,203906022,N,,N,N,REGULATORY,N,U,,Local government,UG,,,,,,01/01/2016 00:00:00,,,,
1192170,2227662016,2016,222766,06/30/2016 00:00:00,S,A,,N,943034161,,N,180495483,MARION-POLK FOOD SHARE,1660 SALEM INDUSTRIAL DRIVE NE,,SALEM,OR,97301,HOLLY LARSON,VICE-PRESIDENT OF FINANCE ADMIN,5035813855,,HLARSON@MARIONPOLKFOODSHARE.ORG,11/30/2016 15:56:45,HOLLY LARSON-VP OF FINANCE AND ADMINISTRATION,"GROVE, MUELLER & SWANK, P.C.","475 COTTAGE STREET NE, SUITE 200",,SALEM,OR,97301,RYAN PASQUARELLA,SHAREHOLDER,5035817788,,RYAN.PASQUARELLA@GMSCPA.COM,11/30/2016 16:55:58,,O,,U,N,N,N,N,U,750000,Y,,1034367,,N,N,N,N,N,N,,97,11/30/2016 00:00:00,12/01/2016 10:54:57,,N,909,1,x00,11/30/2016 00:00:00,,N,HOLLY LARSON,VP OF FINANCE AND ADMINISTRATION,11/30/2016 00:00:00,930874157,N,,N,N,,,,,NON-PROFIT,UG,,,,,,07/01/2015 00:00:00,,,,
1201752,2200322016,2016,220032,06/30/2016 00:00:00,S,O,6,N,363147342,,N,041142621,RIVER BEND FOOD RESERVOIR DBA RIVER BEND FOODBANK,4010 KIMMEL DR,,DAVENPORT,IA,52802,MICHAEL MILLER,EXECUTIVE DIRECTOR,5633456490,,MMILLER@RIVERBENDFOODBANK.ORG,02/03/2017 18:06:54,MICHAEL MILLER-EXECUTIVE DIRECTOR,"HONKAMP KRUEGER & CO., P.C.",2345 JOHN F. KENNEDY RD,,DUBUQUE,IA,52004,NICK NAUMAN,PARTNER,5633862727,,NNAUMAN@HONKAMP.COM,02/07/2017 14:34:59,,O,,U,N,Y,N,N,U,750000,Y,,1577836,,N,N,N,N,N,N,,10,02/07/2017 00:00:00,02/08/2017 08:51:20,,N,908,1,x00,02/07/2017 00:00:00,,N,MICHAEL MILLER,EXECUTIVE DIRECTOR,02/07/2017 00:00:00,420946155,Y,,N,N,,,,,Non-profit,UG,,,,,,01/01/2016 00:00:00,,,,
1217243,1348552016,2016,134855,12/31/2016 00:00:00,S,A,,N,846000573,,Y,078347481,CITY OF COLORADO SPRINGS ,30 SOUTH NEVADA AVENUE,,COLORADO SPRINGS,CO,809031802,JENNIFER VANCE,GRANTS MANAGER,7193855249,,JVANCE@SPRINGSGOV.COM,07/05/2017 18:52:42,JENNIFER VANCE-GRANTS MANAGER,"BKD, LLP","111 SOUTH TEJON ST, SUITE 800",,COLORADO SPRINGS,CO,80903,CHRISTOPHER TELLI,PARTNER,7194714290,,CTELLI@BKD.COM,07/07/2017 10:01:18,,O,,U,N,Y,N,N,U,1271688,N,,42389607,,Y,N,N,Y,Y,Y,,20,07/07/2017 00:00:00,07/10/2017 08:09:38,,N,200,1,x14,07/07/2017 00:00:00,,N,JENNIFER VANCE,GRANTS MANAGER,07/07/2017 00:00:00,440160260,Y,,N,Y,,,,,Local government,UG,,,,,,01/01/2016 00:00:00,,,,
1197112,1957092016,2016,195709,03/31/2016 00:00:00,S,A,,N,840761658,,N,,REDI CORPORATION,2025 YORK STREET,,DENVER,CO,80205,DEBORAH ROSS-WESELOH,MANAGING AGENT,3038607885,,DEBI@ROSS-MANAGEMENT.COM,12/30/2016 15:46:34,DEBI ROSS-WESELOH-AGENT FO OWNER,"FJ & ASSOCIATES, PLLC","1284 WEST FLINT MEADOW DRIVE, SUITE D",,KAYSVILLE,UT,84037,SCOTT FARNES,PARTNER,8019271337,,SCOTT@CPAONE.NET,12/30/2016 15:44:43,,O,,U,N,N,N,N,U,750000,Y,,1123128,,N,N,N,N,N,N,,14,01/03/2017 00:00:00,01/04/2017 10:35:24,,N,903,1,x00,01/03/2017 00:00:00,,N,DEBI ROSS-WESELOH,AGENT FO OWNER,01/03/2017 00:00:00,460592475,N,,N,N,,,,,Non-profit,UG,,,,,,04/01/2015 00:00:00,,,,
1203527,2064772016,2016,206477,06/30/2016 00:00:00,S,A,,N,716038637,,N,004938304,GREENLAND SCHOOL DISTRICT NO. 95,PO BOX 57,,GREENLAND,AR,727370057,DR. LARRY BEN,SUPERINTENDENT,4795212366,,LBEN@GREENLANDSD.COM,03/27/2017 11:02:20,LARRY BEN-SUPERINTENDENT,ARKANSAS LEGISLATIVE AUDIT,"500 WOODLANE STREET, STE 172",,LITTLE ROCK,AR,722011099,"LARRY W. HUNTER, CPA, CFE",DEPUTY LEGISLATIVE AUDITOR,5016838600,,DCF@ARKLEGAUDIT.GOV,03/27/2017 10:39:38,,O,,S,N,Y,N,N,U,750000,N,,1019831,,N,N,N,N,N,N,,84,03/27/2017 00:00:00,03/28/2017 08:18:25,,N,505,1,x00,03/27/2017 00:00:00,,N,LARRY BEN,SUPERINTENDENT,03/27/2017 00:00:00,716042275,Y,,N,N,REGULATORY,Y,U,,Local government,UG,,03/29/2017 08:18:39,03/30/2017 07:08:22,,N,07/01/2015 00:00:00,,,,
1213236,731512016,2016,73151,12/31/2016 00:00:00,S,A,,N,520700497,,N,074816851,FEDERATION OF AMERICAN SOCIETIES FOR EXPERIMENTAL BIOLOGY,9650 ROCKVILLE PIKE,,ROCKVILLE,MD,208143998,"DEBORAH B. DIDDLE, CPA, CGMA, MBA",DIRECTOR OF FINANCIAL SERVICES,3016347083,,DDIDDLE@FASEB.ORG,05/10/2017 14:54:27,"DEBORAH B. DIDDLE, CPA, CGMA, MBA-DIRECTOR OF FINANCIAL SERVICES",TATE & TRYON,"2021 L STREET, NW, SUITE 400",,WASHINGTON,DC,20036,"JAY SCIUTO, CPA",PARTNER,2022932200,,JSCIUTO@TATETRYON.COM,05/11/2017 13:32:17,,O,,U,N,N,N,N,U,750000,Y,,1582323,,N,N,N,N,N,N,,93,05/11/2017 00:00:00,05/12/2017 08:48:43,,N,909,1,x00,05/11/2017 00:00:00,,N,"DEBORAH B. DIDDLE, CPA, CGMA, MBA",DIRECTOR OF FINANCIAL SERVICES,05/11/2017 00:00:00,521855942,N,,N,N,,,,,Non-profit,UG,,,,,,01/01/2016 00:00:00,,,,
1190655,681242016,2016,68124,06/30/2016 00:00:00,S,A,,N,440617326,,N,067954685,AVILA UNIVERSITY,11901 WORNALL STREET,,KANSAS CITY,MO,641451698,PAUL TOLER,VP FOR FINANCE AND ADMINISTRATION,8165012487,,PAUL.TOLER@AVILA.EDU,11/17/2016 07:22:36,PAUL TOLER-VICE PRESIDENT FOR FINANCE AND ADMINISTRATION,"BKD, LLP",1201 WALNUT STREET SUITE 1700,,KANSAS CITY,MO,641062246,DUSTIN HAYWOOD,DIRECTOR,8162216300,,DHAYWOOD@BKD.COM,11/16/2016 14:01:57,,O,,U,N,N,N,N,U,750000,Y,,17420914,,N,N,N,N,Y,N,,84,11/17/2016 00:00:00,11/18/2016 09:44:34,,N,904,1,x00x84,11/17/2016 00:00:00,,N,PAUL TOLER,VICE PRESIDENT FOR FINANCE AND ADMINISTRATION,11/17/2016 00:00:00,440160260,N,,N,N,,,,,INSTITUTION OF HIGHER EDUCATION (IHE),UG,00244900,11/21/2016 11:26:24,12/01/2016 08:48:16,N,B,07/01/2015 00:00:00,,,,
1202850,1928502016,2016,192850,06/30/2016 00:00:00,S,A,,N,316400668,,N,079430104,LONDON CITY SCHOOL DISTRICT,380 ELM STREET,,LONDON,OH,43140,KRISTINE BLIND,TREASURER,7408525700,,KRISTINE.BLIND@LONDON.K12.OH.US,02/17/2017 14:26:20,KRISTINE BLIND-TREASURER/CFO,AUDITOR OF STATE OF OHIO,88 EAST BORAD STREET,,COLUMBUS,OH,43215,KIM BLAKE,SENIOR AUDIT MANAGER,6147287232,,KGBLAKE@OHIOAUDITOR.GOV,02/17/2017 14:39:54,,O,,U,N,N,N,N,U,750000,Y,,1299583,,N,N,N,N,N,N,,84,02/17/2017 00:00:00,02/21/2017 09:05:24,,N,505,1,x00,02/17/2017 00:00:00,,N,KRISTINE BLIND,TREASURER/CFO,02/17/2017 00:00:00,311334820,N,,N,N,,,,,Local government,UG,,02/22/2017 11:29:12,02/23/2017 09:41:54,,N,07/01/2015 00:00:00,,,,
1204928,1478492016,2016,147849,06/30/2016 00:00:00,S,A,,N,520642515,,N,826537008,TOWN OF SUDLERSVILLE,200 SOUTH CHURCH STREET,,SUDLERSVILLE,MD,21668,ELIZABETH JO MANNING,TOWN MANAGER,4104383465,,TOWNADMIN@ATLANTICBBN.NET,02/16/2017 10:38:35,ELIZABETH JO MANNING-TOWN ADMINISTRATOR,"WEYRICH, CRONIN & SORRA",1301 YORK ROAD SUITE 800,,LUTHERVILLE,MD,21093,KAREN DOJAN,SENIOR MANAGER,4103396464,,KAREND@WCSCPA.COM,02/16/2017 09:46:40,,O,,U,Y,Y,Y,N,U,750000,N,,1475660,,N,N,N,N,Y,N,,10,02/16/2017 00:00:00,02/17/2017 10:32:00,,N,200,1,x10x00,02/16/2017 00:00:00,,N,ELIZABETH JO MANNING,TOWN ADMINISTRATOR,02/16/2017 00:00:00,521162023,Y,,Y,N,,,,,Local government,UG,,,,,,07/01/2015 00:00:00,,,,
1202300,646462016,2016,64646,10/31/2016 00:00:00,S,A,,N,420921920,,N,161917281,"SOUTH CENTRAL IOWA COMMUNITY ACTION PROGRAM, INC.",1711 OSCEOLA AVE.,,CHARITON,IA,50049,JIM SMITH,EXECUTIVE DIRECTOR,6417748133,,JSSCICAP@SCICAP.ORG,03/31/2017 10:13:11,DAN MILLER-FINANCE DIRECTOR,"MERIWETHER, WILSON AND COMPANY, PLLC","4500 WESTOWN PARKWAY, SUITE #140",,WEST DES MOINES,IA,502666717,WILLIAM J. BAUER,MEMBER,5152230002,,WJBCPA@MWCPLC.COM,03/31/2017 09:42:06,,O,,U,N,N,N,N,U,750000,Y,,3572392,,N,N,N,N,N,N,,93,03/31/2017 00:00:00,04/03/2017 09:29:54,,N,908,1,x00,03/31/2017 00:00:00,,N,DAN MILLER,FINANCE DIRECTOR,03/31/2017 00:00:00,420731256,N,,N,N,,,,,Non-profit,UG,,,,,,11/01/2015 00:00:00,,,,
1190500,1907732016,2016,190773,06/30/2016 00:00:00,S,A,,N,362880190,,N,119585776,OGLE COUNTY EDUCATIONAL COOPERATIVE  JOINT AGREEMENT,"417 N. COLFAX, P.O. BOX 582",,BYRON,IL,61010,MICHAEL NOBLE,DIRECTOR,8152342722,,MNOBLE@OCECIL.ORG,11/14/2016 12:22:47,"MICHAEL NOBLE-DIRECTOR, OGLE COUNTY COOPERATIVE ",BEGGIN TIPP LAMM LLC,"524 W. STEPHENSON ST., SUITE 200",,FREEPORT,IL,61032,LUCAS BEGGIN,PARTNER,8152359610,,BEGGIN@BEGGINTIPPLAMM.COM,11/10/2016 16:20:13,,O,,S,Y,N,N,N,U,750000,N,,2336029,,Y,N,N,Y,N,N,,84,11/14/2016 00:00:00,11/15/2016 10:01:36,,N,505,1,x00,11/14/2016 00:00:00,,N,MICHAEL NOBLE,"DIRECTOR, OGLE COUNTY COOPERATIVE ",11/14/2016 00:00:00,273238017,N,,Y,Y,REGULATORY,N,Q,,LOCAL GOVERNMENT,UG,,11/15/2016 12:33:56,11/17/2016 08:50:30,,N,07/01/2015 00:00:00,,,,
1239941,1978762016,2016,197876,09/30/2016 00:00:00,S,A,,N,450383110,,N,194200903,"NUTRITION FOR NORTH DAKOTA DAYCARE CHILDREN, INC.","605 31ST AVE SW, STE 1",,MINOT,ND,58701,ROXANN STARK,EXECUTIVE DIRECTOR,7018386709,,NDC@MINOT.COM,01/22/2018 10:00:14,ROXANN STARK-EXECUTIVE DIRECTOR,"BRADY, MARTZ & ASSOCIATES, P.C.",24 WEST CENTRAL AVE,,MINOT,ND,587020848,DARYL HEIZELMAN,CPA,7018520196,,DARYL.HEIZELMAN@BRADYMARTZ.COM,07/13/2018 09:59:18,,O,,U,N,Y,Y,Y,Q,750000,N,,1760716,,N,Y,N,Y,Y,N,,10,07/13/2018 00:00:00,07/17/2018 01:30:21,,N,909,1,x00x10,07/13/2018 00:00:00,,N,ROXANN STARK,EXECUTIVE DIRECTOR,07/13/2018 00:00:00,450310328,Y,,N,N,,,,,Non-profit,UG,,,,,,10/01/2015 00:00:00,,,,
1240905,2466942016,2016,246694,12/31/2016 00:00:00,S,A,,N,800844382,,N,,HISTORICORPS,"1420 OGDEN STREET, SUITE 103",,DENVER,CO,80218,TOWNSEND ANDERSON,CEO/EXECUTIVE DIRECTOR,7202870100,,TANDERSON@HISTORICORPS.ORG,12/31/2017 16:12:42,TOWNY ANDERSON-CEO/ EXECUTIVE DIRECTOR,"TAYLOR, ROTH, AND COMPANY","800 GRANT ST, SUITE 205",,DENVER,CO,80203,DIANE GRANGER,CPA,3038308109,,DIANE@TAYLORROTH.COM,12/27/2017 14:47:16,,O,,U,Y,N,Y,N,Q,750000,N,,833519,,Y,N,N,Y,N,N,,10,12/31/2017 00:00:00,01/02/2018 12:34:22,,N,888,1,x10x00,12/31/2017 00:00:00,,N,TOWNY ANDERSON,CEO/ EXECUTIVE DIRECTOR,12/31/2017 00:00:00,203746583,N,,Y,Y,,,,,Non-profit,UG,,,,,,01/01/2016 00:00:00,,,,
1213727,2051822016,2016,205182,06/30/2016 00:00:00,S,A,,N,383481635,,N,,ALLEN ACADEMY,2125 UNIVERSITY PARK DR,,OKEMOS,MI,488646910,DR. LORILYN K. COGGINS,PRESIDENT,8107503007,,LKCGREEN@AOL.COM,04/27/2017 09:50:50,DR. LORILYN K. COGGINS-BUSINESS CONSULTANT HIRED BY TRUSTEE,"WILKERSON & ASSOCIATE, PC","3 PARKLANE BLVD, SUITE 612",,DEARBORN,MI,48126,LARRY D. WILKERSON,PRESIDENT,3139824340,,LDWCPA@AOL.COM,04/27/2017 15:28:51,,O,,U,N,N,N,N,U,750000,Y,,1341415,,N,N,N,N,N,N,,84,04/27/2017 00:00:00,04/28/2017 10:01:57,,N,005,1,x00,04/27/2017 00:00:00,,N,DR. LORILYN K. COGGINS,BUSINESS CONSULTANT HIRED BY TRUSTEE,04/27/2017 00:00:00,382890814,N,,N,N,,,,,Local government,UG,,05/09/2017 13:26:22,05/11/2017 11:04:19,,N,07/01/2015 00:00:00,,,,
1226955,2308862016,2016,230886,12/31/2016 00:00:00,S,A,,N,203347314,,N,782953264,GLOBAL HIV VACCINE ENTERPRISE,64 BEAVER STREET #352,,NEW YORK,NY,10004,RANDY GOETZ,OPERATIONS OFFICER,2124613247,,RGOETZ@VACCINEENTERPRISE.ORG,09/29/2017 13:34:15,RANDY GOETZ-OPERATIONS OFFICER,BDO USA LLP,100 PARK AVENUE,,NEW YORK,NY,10017,ADAM COLE,PARTNER,2128858327,,ACOLE@BDO.COM,09/29/2017 13:51:04,,O,,U,N,N,N,N,U,750000,Y,,1948587,,N,N,N,N,N,N,,93,09/29/2017 00:00:00,10/02/2017 15:03:06,,N,909,1,x00,09/29/2017 00:00:00,,N,RANDY GOETZ,OPERATIONS OFFICER,09/29/2017 00:00:00,135381590,N,,N,N,,,,,Non-profit,UG,,,,,,01/01/2016 00:00:00,,,,
1198786,1917012016,2016,191701,09/30/2016 00:00:00,S,A,,N,251755544,,N,055401728,"NIAGARA APARTMENTS, INC. 033-HD023",7 EAST 7TH ST,,ERIE,PA,16501,PAUL BEHNKEN,DIRECTOR OF FINANCE AND ACCOUNTING,8144533333,,PBEHNKEN@HANDS-ERIE.ORG,01/10/2017 16:01:09,PAUL BEHNKEN-DIRECTOR OF FINANCE AND ACCOUNTING,"MCGILL, POWER, BELL AND ASSOCIATES, LLP",1920 W 8TH ST,,ERIE,PA,16505,SHAWN EMERSON,PARTNER,8144536574,,SEMERSON@MPBCPA.COM,01/11/2017 12:40:09,,O,,U,N,N,N,N,U,750000,Y,,824784,,N,N,N,N,N,N,,14,01/11/2017 00:00:00,01/12/2017 08:20:58,,N,903,1,x00,01/11/2017 00:00:00,,N,PAUL BEHNKEN,DIRECTOR OF FINANCE AND ACCOUNTING,01/11/2017 00:00:00,251031405,N,,N,N,,,,,Non-profit,UG,,,,,,10/01/2015 00:00:00,,,,
1212499,1756862016,2016,175686,06/30/2016 00:00:00,S,A,,N,036000339,,N,,GRAND ISLE SUPERVISORY UNION,5038 US ROUTE 2,,NORTH HERO,VT,05474,LYNNE CARPENTER,BUSINESS MANAGER,8023726921,,LYNCARP@GISU.ORG,04/10/2017 09:59:34,LYNNE CARPENTER-BUSINESS MANAGER,"CORRETTE & ASSOCIATES, P. C.",P. O. BOX 4039,,SAINT JOHNSBURY,VT,05819,RANDALL NORTHROP,CPA,8027484858,,RANDALL@CORRETTE.COM,04/10/2017 09:37:37,,O,,U,Y,Y,N,N,U,750000,N,,935613,,N,N,N,N,Y,Y,,84,04/10/2017 00:00:00,04/12/2017 07:11:21,,N,505,1,x84x00,03/29/2017 00:00:00,,N,LYNNE CARPENTER,BUSINESS MANAGER,04/06/2017 00:00:00,203488815,Y,,Y,N,,,,,Local government,UG,,05/03/2017 08:11:10,05/04/2017 08:37:30,N,G,07/01/2015 00:00:00,,,,
1191920,405302016,2016,40530,06/30/2016 00:00:00,S,A,,N,314379459,,N,069059111,DENISON UNIVERSITY,100 WEST COLLEGE STREET,,GRANVILLE,OH,43023,DAVID ENGLISH,VICE PRESIDENT OF FINANCE AND MANAGEMENT,7405876262,,ENGLISHDA@DENISON.EDU,11/28/2016 16:35:11,DAVID ENGLISH-VICE PRESIDENT FINANCE AND MANAGEMENT,MALONEY + NOVOTNY LLC,1111 SUPERIOR AVE. SUITE 700,,CLEVELAND,OH,44114,STEVEN M. THOMAS,SHAREHOLDER,3309669400,,STHOMAS@MALONEYNOVOTNY.COM,11/23/2016 15:17:25,,O,,U,N,N,N,N,U,750000,Y,,15189130,,N,N,N,N,N,N,,84,11/29/2016 00:00:00,11/30/2016 07:56:56,,N,904,1,x00,11/29/2016 00:00:00,,N,DAVID ENGLISH,VICE PRESIDENT FINANCE AND MANAGEMENT,11/29/2016 00:00:00,340677006,N,,N,N,,,,,INSTITUTION OF HIGHER EDUCATION (IHE),UG,00304200,12/12/2016 07:48:33,12/15/2016 10:00:41,N,S,07/01/2015 00:00:00,,,,
1186660,913832016,2016,91383,06/30/2016 00:00:00,S,A,,N,596194087,,N,,"ST. ELIZABETH GARDENS, INC. (HUD PROJECT NO. 066-SH031)","11410 N. KENDALL DRIVE, SUITE 306",,MIAMI,FL,33176,DAVID D'AMICO,VICE PRESIDENT OF FINANCE,9544841515,,DDAMICO@CHSFLA.COM,10/10/2016 10:32:07,DAVID D'QMICO-VICE PRESIDENT FINANCE,"VERDEJA, DE ARMAS & TRUJILLO, LLP","255 ALHAMBRA CIRCLE, SUITE 560",,CORAL GABLES,FL,33134,PEDRO M. DE ARMAS,PARTNER,3054463177,,PDEARMAS@V-DCPA.COM,10/10/2016 10:44:30,,O,,U,N,N,N,N,U,750000,Y,,952365,,N,N,N,N,N,N,,14,10/10/2016 00:00:00,10/11/2016 10:26:08,,N,903,1,x00,10/10/2016 00:00:00,,N,DAVID D'QMICO,VICE PRESIDENT FINANCE,10/10/2016 00:00:00,204989621,N,,N,N,,,,,NON-PROFIT,UG,,,,,,07/01/2015 00:00:00,,,,
1190639,1082392016,2016,108239,06/30/2016 00:00:00,S,A,,N,810379543,,N,161030010,MISSOULA AGING SERVICES,337 STEPHENS AVENUE,,MISSOULA,MT,59801,DEBBIE LESTER,CFO,4067287682,,DLESTER@MISSOULAAGINGSERVICES.ORG,11/09/2016 12:40:50,DEBBIE LESTER-CHIEF FINANCIAL OFFICER,JCCS PC,2620 CONNERY WAY,,MISSOULA,MT,59808,DREW RIEKER,SHAREHOLDER,4065494148,,DRIEKER@JCCSCPA.COM,11/09/2016 11:47:11,,O,,U,N,N,N,N,U,750000,Y,,1554902,,N,N,N,N,N,N,,94,11/09/2016 00:00:00,11/10/2016 08:24:46,,N,909,1,x00,11/09/2016 00:00:00,,N,DEBBIE LESTER,CHIEF FINANCIAL OFFICER,11/09/2016 00:00:00,810348775,N,,N,N,,,,,NON-PROFIT,UG,,,,,,07/01/2015 00:00:00,,,,
1213937,2459842016,2016,245984,09/30/2016 00:00:00,S,A,,N,826000272,,N,,CITY OF WALLACE,703 CEDAR ST.,,WALLACE,ID,83873,JOANNE MCCOY,CITY CLERK TREASURER,2087521147,,WALLACECITY@USAMEDIA.TV,05/01/2017 16:13:09,JOANNE MCCOY-CITY CLERK TREASURER,"MAGNUSON,MCHUGH & COMPANY, P.A.",PO BOX 1379,,COEUR D'ALENE,ID,83816,CHRIS SHIPLEY,CPA,2087659500,,CSHIPLEY@MMCOCPA.COM,05/01/2017 16:50:35,,O,,U,N,N,N,N,U,750000,N,,1509751,,N,N,N,N,N,N,,10,05/01/2017 00:00:00,05/03/2017 15:25:58,,N,888,1,x00,05/01/2017 00:00:00,,N,JOANNE MCCOY,CITY CLERK TREASURER,05/01/2017 00:00:00,820331228,N,,N,N,,,,,Local government,UG,,,,,,10/01/2015 00:00:00,,,,
1210792,2376912016,2016,237691,06/30/2016 00:00:00,S,A,,N,371535589,,N,832879733,"KENNESAW STATE UNIVERSITY RESEARCH AND SERVICE FOUNDATION, INC.",1000 CHASTAIN ROAD MAIL DROP 0111,,KENNESAW,GA,30144,CAROLYN ELLIOTT-FARINO,DIRECTOR,7704236381,,CELLIO12@KENNESAW.EDU,03/29/2017 19:14:12,CAROLYN ELLIOTT-FARINO-CAROLYN ELLIOTT-FARINO,"MAULDIN & JENKINS, LLC",200 GALLERIA PKWY SE SUITE 1700,,ATLANTA,GA,30339,ERIC VREELAND,MEMBER,7709804485,,EVREELAND@MJCPA.COM,03/29/2017 18:47:06,,O,,U,Y,N,N,N,U,750000,Y,,4355668,,Y,N,Y,Y,N,N,,47,03/29/2017 00:00:00,03/30/2017 14:07:26,,N,909,1,x19x00,03/29/2017 00:00:00,,N,CAROLYN ELLIOTT-FARINO,CAROLYN ELLIOTT-FARINO,03/29/2017 00:00:00,580692043,N,,Y,Y,,,,,Non-Profit,UG,,04/03/2017 10:49:48,04/06/2017 08:47:45,N,G,07/01/2015 00:00:00,,,,
1200168,2457002016,2016,245700,06/30/2016 00:00:00,S,A,,N,830230126,,N,,"YOUTH EMERGENCY SERVICES, INC.",PO BOX 2151,,GILLETTE,WY,827172151,SHERILYN ENGLAND,EXECUTIVE DIRECTOR,3076860669,,SENGLAND@CCSD.K12.WY.US,02/23/2017 16:55:28,JULI PIERCE-FINANCE DIRECTOR,"BENNETT, WEBER & HERMSTAD, LLP",PO BOX 2256,,GILLETTE,WY,827172256,"PAULA S STEIGER, CPA",PARTNER,3076825250,,PSTEIGER@SBWCPAS.COM,02/23/2017 16:56:46,,O,,U,N,Y,N,N,U,750000,N,,757583,,N,Y,N,Y,Y,N,,93,02/23/2017 00:00:00,02/24/2017 08:24:29,,N,888,1,x93,02/23/2017 00:00:00,,N,JULI PIERCE,FINANCE DIRECTOR,02/23/2017 00:00:00,830297768,Y,,N,N,,,,,Non-profit,UG,,03/06/2017 10:29:47,03/09/2017 09:34:05,G,G,07/01/2015 00:00:00,,,,
1207740,2458752016,2016,245875,06/30/2016 00:00:00,P,A,,N,920046669,,N,026461031,"BEGICH TOWERS, INC.",P.O. BOX 725,,WHITTIER,AK,99693,CAREN PANTALEON,OFFICE MANAGER,9074722484,,CARENGANDA@YAHOO.COM,03/31/2017 13:16:11,CAREN PANTALEON-OFFICE MANAGER,"ALTMAN, ROGERS & CO.","425 G STREET, SUITE 800",,ANCHORAGE,AK,99501,JOSEPH V. BERGENE,PRINCIPAL,9072742992,,FEDCENSUS@ALTROGCO.COM,03/31/2017 12:30:12,,O,,U,N,N,N,N,U,750000,N,,1397318,,N,N,N,N,N,N,,10,03/31/2017 00:00:00,04/03/2017 11:38:53,,N,888,1,x00,03/31/2017 00:00:00,,N,CAREN PANTALEON,OFFICE MANAGER,03/31/2017 00:00:00,920143182,N,,N,N,,,,,Non-profit,UG,,,,,,07/01/2015 00:00:00,,,,
1219739,2412492016,2016,241249,12/31/2016 00:00:00,S,A,,N,943240841,,N,115320884,AIDS VACCINE ADVOCACY COALITION,423 WEST 127TH STREET - 4TH FLOOR,,NEW YORK,NY,10027,MITCHELL WARREN,EXECUTIVE DIRECTOR,2127966423,,MITCHELL@AVAC.ORG,07/18/2017 17:44:44,MITCHELL WARREN-EXECUTIVE DIRECTOR,"LUTZ AND CARR CPAS, LLP",551 FIFTH AVENUE - SUITE 400,,NEW YORK,NY,10176,MICHAEL WALLACE,PARTNER,2126972299,,MWALLACE@LUTZANDCARR.COM,07/19/2017 15:23:39,,O,,U,N,N,N,N,U,750000,Y,,2997047,,N,N,N,N,N,N,,98,07/20/2017 00:00:00,07/21/2017 08:48:45,,N,888,1,x00,07/20/2017 00:00:00,,N,MITCHELL WARREN,EXECUTIVE DIRECTOR,07/20/2017 00:00:00,131655065,N,,N,N,,,,,Non-profit,UG,,,,,,01/01/2016 00:00:00,,,,
1198206,2390052016,2016,239005,06/30/2016 00:00:00,S,A,,N,452612118,,N,,"PATHWAYS TO HOUSING - PA, INC.",5201 OLD YORK ROAD,,PHILADELPHIA,PA,19141,CHRISTINE SIMIRIGLIA,EXECUTIVE DIRECTOR,2153901500,,CSIMIRIGLIA@PATHWAYSTOHOUSINGPA.ORG,12/28/2016 16:43:07,CHRISTINE SIMIRIGLIA-PRESIDENT & CEO,CLIFTONLARSONALLEN LLP,"610 W. GERMANTOWN PIKE, SUITE 400",,PLYMOUTH MEETING,PA,19462,"BRUCE W. BRAUNEWELL, CPA",PRINCIPAL,2156433900,,BRUCE.BRAUNEWELL@CLACONNECT.COM,12/28/2016 14:31:31,,O,,U,N,N,N,N,U,750000,Y,,1946565,,N,N,N,N,N,N,,14,12/29/2016 00:00:00,12/30/2016 07:50:46,,N,888,1,x00,12/29/2016 00:00:00,,N,CHRISTINE SIMIRIGLIA,PRESIDENT & CEO,12/29/2016 00:00:00,410746749,N,,N,N,,,,,Non-profit,UG,,,,,,07/01/2015 00:00:00,,,,
1199704,662822016,2016,66282,09/30/2016 00:00:00,S,A,,N,431017571,,N,,LINCOLN COUNTY PUBLIC HOUSING AUTHORITY C/O NECAC,16 NORTH COURT STREET,,BOWLING GREEN,MO,63334,VICKY PRITCHETT,FINANCE DIRECTOR,5733242231,,VPRITCHETT@NECAC.ORG,04/03/2017 11:26:44,SHERRY WINDLAND-ASSISTANT FINANCE DIRECTOR,BOTZ DEAL AND COMPANY,TWO WESTBURY DRIVE,,ST. CHARLES,MO,63301,MICHELE GRAHAM,PARTNER,6369462800,,MGRAHAM@BOTZDEAL.COM,04/03/2017 11:28:27,,O,,U,N,N,N,N,U,750000,Y,,10636786,,N,N,N,Y,Y,N,,14,04/03/2017 00:00:00,04/05/2017 16:24:52,,N,403,1,x14,04/03/2017 00:00:00,,N,SHERRY WINDLAND,ASSISTANT FINANCE DIRECTOR,04/03/2017 00:00:00,431064657,N,,N,N,,,,,Local government,UG,,,,,,10/01/2015 00:00:00,,,,
1204875,1912842016,2016,191284,06/30/2016 00:00:00,S,A,,N,956001665,,N,,IMPERIAL COUNTY OFFICE OF EDUCATION,1398 SPERBER ROAD,,EL CENTRO,CA,92243,CARLOS ZAMORA,CBO,7603126123,,CZAMORA@ICOE.ORG,02/15/2017 14:13:21,CARLOS ZAMORA-INTERNAL BUSINESS SENIOR DIRECTOR,WILKINSON HADLEY KING & CO LLP,218 W DOUGLAS AVE,,EL CAJON,CA,92020,BRIAN HADLEY,"CPA, PARTNER",6194476700,,WHKLLP@GMAIL.COM,02/15/2017 13:37:12,,O,,U,N,N,N,N,U,750000,Y,,23295623,,N,N,N,N,N,N,,94,02/20/2017 00:00:00,02/21/2017 11:16:50,,N,105,1,x00,02/20/2017 00:00:00,,N,CARLOS ZAMORA,INTERNAL BUSINESS SENIOR DIRECTOR,02/20/2017 00:00:00,522354566,N,,N,N,,,,,Local government,UG,,02/22/2017 13:58:23,02/23/2017 09:41:54,N,G,07/01/2015 00:00:00,,,,
1206466,1817362016,2016,181736,10/31/2016 00:00:00,S,A,,N,136019627,,N,084004019,NEW YORK STATE HOUSING FINANCE AGENCY,641 LEXINGTON AVENUE,,NEW YORK,NY,100224503,GARY WEINSTOCK,VICE PRESIDENT/COMPTROLLER,2128720565,,GARY.WEINSTOCK@NYSHCR.ORG,06/29/2017 09:46:14,GARY WEINSTOCK-VICE PRESIDENT/COMPTROLLER,ERNST & YOUNG,5 TIMES SQUARE,,NEW YORK,NY,100366530,LOUIS ROBERTS,PARTNER,7325164669,,LOUIS.ROBERTS@EY.COM,06/28/2017 16:00:21,,O,,U,N,N,N,N,U,789302,Y,,26310080,,N,N,N,N,N,N,,14,06/29/2017 00:00:00,07/03/2017 08:21:40,,N,009,1,x00,06/29/2017 00:00:00,,N,GARY WEINSTOCK,VICE PRESIDENT/COMPTROLLER,06/29/2017 00:00:00,346565596,N,,N,N,,,,,Local government,UG,,,,,,11/01/2015 00:00:00,,,,
1221650,2313052016,2016,231305,12/31/2016 00:00:00,S,A,,N,431957920,,N,790022649,"GRASSROOT SOCCER, INC. ",P.O. BOX 712,,NORWICH,VT,05055,MELISSA DENSMORE,GLOBAL CONTROLLER,8026492900,,MDENSMORE@GRASSROOTSOCCER.ORG,08/14/2017 08:51:04,MELISSA DENSMORE-GLOBAL CONTROLLER,"GELMAN, ROSENBERG & FREEDMAN","450 MONTGOMERY AVENUE, SUITE 650 NORTH",,BETHESDA,MD,20814,JENNIFER ARMINGER,DIRECTOR,3019519090,,JARMINGER@GRFCPA.COM,08/28/2017 14:53:40,,O,,U,N,N,N,N,U,750000,N,,813213,,N,N,N,N,N,N,,98,08/29/2017 00:00:00,08/30/2017 10:56:41,,N,909,1,x00,08/29/2017 00:00:00,,N,MELISSA DENSMORE,GLOBAL CONTROLLER,08/29/2017 00:00:00,521392008,N,,N,N,,,,,Non-profit,UG,,,,,,01/01/2016 00:00:00,,,,
1202415,1446812016,2016,144681,06/30/2016 00:00:00,S,A,,N,420925013,,N,006861777,IOWA WESTERN COMMUNITY COLLEGE,2700 COLLEGE ROAD,,COUNCIL BLUFFS,IA,51503,RANDI PAPE,DIRECTOR OF ACCOUNTING,7123253428,,RPAPE@IWCC.EDU,01/26/2017 16:29:53,RANDI PAPE-DIRECTOR OF ACCOUNTING,"DENMAN & COMPANY, LLP","1601 22ND STREET, SUITE 400",,WEST DES MOINES,IA,50266,DAVID ELLIS,PARTNER,5152258400,,DELLIS@DENMAN-CPA.COM,02/05/2017 17:11:14,,O,,U,N,N,N,N,U,750000,Y,,31233979,,N,N,N,N,Y,N,,84,02/05/2017 00:00:00,02/06/2017 10:49:26,,N,504,1,x94x00,02/05/2017 00:00:00,,N,RANDI PAPE,DIRECTOR OF ACCOUNTING,02/05/2017 00:00:00,420794029,N,,N,N,,,,,Institution of higher education (IHE),UG,00459800,02/10/2017 09:54:47,02/16/2017 09:59:00,N,B,07/01/2015 00:00:00,,,,
1216830,2445862016,2016,244586,06/30/2016 00:00:00,S,A,,N,463843466,,N,079158222,WOODLAND-DAVIS CLEAN WATER AGENCY,1717 FIFTH STREET,,DAVIS,CA,95616,DENNIS DIEMER,GENERAL MANAGER,5307575673,,DDIEMER@WDCWA.COM,06/08/2017 09:34:25,PAMELA DAY-FINANCIAL SERVICES MGR/CITY OF DAVIS,MAZE & ASSOCIATES,3478 BUSKIRK AVENUE STE 215,,PLEASANT HILL,CA,94523,KATHERINE YUEN,PARTNER,9259300902,,KATHERINEY@MAZEASSOCIATES.COM,06/08/2017 02:36:14,,O,,U,N,Y,N,N,U,1479029,N,,49300974,,N,N,N,N,N,N,,66,06/14/2017 00:00:00,06/15/2017 08:12:05,,N,888,1,x00,03/31/2017 00:00:00,,N,PAMELA DAY,FINANCIAL SERVICES MGR/CITY OF DAVIS,06/14/2017 00:00:00,942590179,Y,,N,N,,,,,Local government,UG,,,,,,07/01/2015 00:00:00,,,,
1192789,1860532016,2016,186053,06/30/2016 00:00:00,S,A,,N,626020041,,N,023105844,CLEVELAND HOUSING AUTHORITY,450 WALKER ST NE,,CLEVELAND,TN,37320,PAUL DELLINGER,EXECUTIVE DIRECTOR,4234799659,,PAUL@CLEVELANDHOUSINGAUTHORITY.ORG,11/29/2016 08:54:09,PAUL DELLINGER-EXECUTIVE DIRECTOR,"GOLDIE ROBERTS, CPA",870 CINDERELLA COURT,,DECATUR,GA,30033,GOLDIE ROBERTS,CPA,8124723527,,GOLFBEFUN@AOL.COM,11/23/2016 15:10:07,,O,,U,N,N,N,N,U,750000,Y,,2594730,,N,N,N,N,N,N,,14,11/29/2016 00:00:00,11/30/2016 07:24:52,,N,403,1,x00,11/29/2016 00:00:00,,N,PAUL DELLINGER,EXECUTIVE DIRECTOR,11/29/2016 00:00:00,464115333,N,,N,N,,,,,LOCAL GOVERNMENT,UG,,,,,,07/01/2015 00:00:00,,,,
1198918,2356592016,2016,235659,06/30/2016 00:00:00,S,A,,N,371544347,,N,,TRANSIT JOINT POWERS AUTHORITY FOR MERCED COUNTY,369 WEST 18TH STREET,,MERCED,CA,95340,CHRISTINA SMITH,CHIEF FINANCIAL OFFICER,2097233153,,CHRISTINA.SMITH@MCAGOV.ORG,01/04/2017 19:52:29,CHRISTINA SMITH-CHIEF FINANCIAL OFFICIAL,PRICE PAIGE & COMPANY,677 SCOTT AVE,,CLOVIS,CA,93612,DAVID DYBAS,CPA,5592999540,,DAVID@PPCPAS.COM,01/04/2017 15:48:54,,O,,U,N,N,N,N,U,750000,Y,,4938847,,N,N,N,N,N,N,,20,01/04/2017 00:00:00,01/05/2017 11:18:06,,N,406,1,x00,01/04/2017 00:00:00,,N,CHRISTINA SMITH,CHIEF FINANCIAL OFFICIAL,01/04/2017 00:00:00,770203007,N,,N,N,,,,,Local government,UG,,,,,,07/01/2015 00:00:00,,,,
1200069,2011192016,2016,201119,09/30/2016 00:00:00,S,A,,N,383214610,,N,009481628,SAGINAW TRANSIT AUTHORITY REGIONAL SERVICE,615 JOHNSON STREET,,SAGINAW,MI,48607,GLENN STEFFENS,SITE MANAGER,9899074026,,GSTEFFENS@SAGINAW-STARS.COM,03/28/2017 14:23:59,GLENN STEFFENS-EXECUTIVE DIRECTOR,"ABRAHAM & GAFFNEY, P.C.","3511 COOLIDGE ROAD, SUITE 100",,EAST LANSING,MI,48823,"WILLIAM I TUCKER IV, CPA",PRINCIPAL,5173516836,,BTUCKER@AGPCCPA.COM,03/28/2017 13:59:55,,O,,U,N,N,N,N,U,750000,N,,2004618,,N,N,N,Y,Y,N,,20,03/29/2017 00:00:00,03/30/2017 11:15:11,,N,406,1,x20,03/29/2017 00:00:00,,N,GLENN STEFFENS,EXECUTIVE DIRECTOR,03/29/2017 00:00:00,382771117,N,,N,N,,,,,Local government,UG,,,,,,10/01/2015 00:00:00,,,,
1214164,1772962016,2016,177296,08/31/2016 00:00:00,S,A,,N,910898027,,N,020248332,ARLINGTON SCHOOL DISTRICT NO. 16,315 N. FRENCH AVENUE,,ARLINGTON,WA,982231317,DEB BORGENS,EXECUTIVE DIRECTOR OF FINANCIAL SERVICES,3606186203,,DBORGENS@ASD.WEDNET.EDU,05/18/2017 19:27:47,DEB BORGENS-EXECUTIVE DIRECTOR OF FINANCIAL SERVICES,WASHINGTON STATE AUDITOR'S OFFICE,"15129 MAIN STREET, SUITE C102",,MILL CREEK,WA,98012,KRISTINA BAYLOR,PROGRAM MANAGER,4259487401,,KRISTINA.BAYLOR@SAO.WA.GOV,05/11/2017 16:13:55,,O,,S,N,N,N,N,U,750000,Y,,2830091,,N,N,N,N,N,N,,12,05/18/2017 00:00:00,05/19/2017 16:07:15,,N,505,1,x00,05/18/2017 00:00:00,,N,DEB BORGENS,EXECUTIVE DIRECTOR OF FINANCIAL SERVICES,05/18/2017 00:00:00,916001098,N,,N,N,REGULATORY,Y,U,,Local government,UG,,05/22/2017 08:46:31,05/25/2017 08:49:36,N,G,09/01/2015 00:00:00,,,,
1218875,1594822016,2016,159482,12/31/2016 00:00:00,S,A,,N,116001934,,N,072369622,TOWN OF OYSTER BAY,74 AUDREY AVENUE,,OYSTER BAY,NY,11771,CHRISTINE WISS,DEPUTY COMPTROLLER,5166246447,,CWISS@OYSTERBAY-NY.GOV,07/05/2017 13:19:31,CHRISTINE WISS-DEPUTY COMPTROLLER,"CULLEN & DANOWSKI, LLP",1650 ROUTE 112,,PORT JEFFERSON STATION,NY,117763060,"DONALD J. HOFFMANN, CPA",PARTNER,6314733400,,DJH@CDLLP.NET,07/03/2017 10:59:11,,O,,Q,N,N,N,N,U,750000,N,,3899474,,N,N,N,N,N,N,,17,07/05/2017 00:00:00,07/06/2017 08:25:36,,N,300,1,x00,07/05/2017 00:00:00,,N,CHRISTINE WISS,DEPUTY COMPTROLLER,07/05/2017 00:00:00,112459188,N,,N,N,,,,,Local government,UG,,07/07/2017 11:22:57,07/13/2017 15:48:43,N,G,01/01/2016 00:00:00,,,,
1199580,1739562016,2016,173956,08/31/2016 00:00:00,S,A,,N,746000519,,N,030157572,CLIFTON ISD,1102 KEY AVENUE,,CLIFTON,TX,76634,LISA PRESCHER,BUSINESS MANAGER,2546751829,,LISA.PRESCHER@CLIFTONISD.ORG,01/06/2017 11:08:10,LISA PRESCHER-BUSINESS MANAGER,"JAYNES, REITMEIER, BOYD & THERRELL, PC",PO BOX 7616,,WACO,TX,767147616,DIANA WARD,SHAREHOLDER,2547764190,,DIANA_WARD@JRBT.COM,01/09/2017 12:09:16,,O,,U,N,N,N,N,U,750000,Y,,782830,,N,N,N,N,N,N,,84,01/10/2017 00:00:00,01/11/2017 07:46:06,,N,505,1,x00,01/10/2017 00:00:00,,N,LISA PRESCHER,BUSINESS MANAGER,01/10/2017 00:00:00,742533381,N,,N,N,,,,,Local government,UG,,01/24/2017 09:12:12,01/26/2017 07:27:39,N,G,09/01/2015 00:00:00,,,,
1235260,2325682016,2016,232568,06/30/2016 00:00:00,S,A,,N,043651539,,N,941215084,"ACADEMY OF MATHEMATICS AND SCIENCE, INC.",3448 N 1ST AVE,,TUCSON,AZ,85719,STEVEN HYKES,CFO,5208875392,,SHYKES@AMSTUCSON.ORG,12/04/2017 16:22:50,STEVEN HYKES-CFO,"FESTER & CHAPMAN, P.C.",9019 E BAHIA DR,,SCOTTSDALE,AZ,85260,KEVIN CAMBERG,DIRECTOR,6022643077,,KCAMBERG@F-CPC.COM,12/05/2017 13:27:21,,O,,U,N,N,N,N,U,750000,N,,753607,,Y,N,N,Y,N,N,,84,12/05/2017 00:00:00,12/06/2017 08:20:02,,N,905,1,x00,12/05/2017 00:00:00,,N,STEVEN HYKES,CFO,12/05/2017 00:00:00,860494040,N,,N,Y,,,,,Non-profit,UG,,12/06/2017 08:43:38,12/07/2017 07:44:38,,N,07/01/2015 00:00:00,,,,
1206618,1526972016,2016,152697,06/30/2016 00:00:00,S,A,,N,640795415,,N,,NORTH TIPPAH CONSOLIDATED SCHOOL DISTRICT,24111 HIGHWAY 15 N,,TIPLERSVILLE,MS,38674,DEBRA KENNEDY,BUSINESS MANAGER,6622234384,,DEBRA.KENNEDY@NTIPPAH.K12.MS.US,03/03/2017 10:50:31,DEBRA KENNEDY-BUSINESS MANAGER,"FORTENBERRY & BALLARD, PC","1929 SPILLWAY RD, SUITE B",,BRANDON,MS,390476079,BRENT BALLARD,PARTNER,6019925292,,BRENT@FORTCPA.COM,03/08/2017 12:15:34,,O,,U,N,N,N,N,U,750000,Y,,1451473,,N,N,N,N,N,N,,10,03/08/2017 00:00:00,03/09/2017 09:13:40,,N,505,1,x00,03/08/2017 00:00:00,,N,DEBRA KENNEDY,BUSINESS MANAGER,03/08/2017 00:00:00,640887736,N,,N,N,,,,,Local government,UG,,03/10/2017 12:41:25,03/16/2017 07:04:52,N,G,07/01/2015 00:00:00,,,,
1205379,1860682016,2016,186068,05/31/2016 00:00:00,S,A,,N,237411718,,N,,KIDS INCORPORATED OF THE BIG BEND,2326 CENTERVILLE ROAD,,TALLAHASSEE,FL,323084318,STEVEN KALIFEH,FINANCE AND OPERATIONS DIRECTOR,8504149800,,SKALIFEH@KIDSINCORPORATED.ORG,03/03/2017 14:31:06,STEPHEN KALIFEH-CFO,THOMAS HOWELL FERGUSON,"2615 CENTENNIAL BLVD, SUITE 200",,TALLAHASSEE,FL,32308,JEFF BARBACCI,SHAREHOLDER,8506688100,,JFB@THF-CPA.COM,03/06/2017 09:08:10,,O,,U,N,N,N,N,U,750000,Y,,3614768,,N,N,N,N,N,N,,93,03/06/2017 00:00:00,03/07/2017 09:03:36,,N,908,1,x00,03/06/2017 00:00:00,,N,STEPHEN KALIFEH,CFO,03/06/2017 00:00:00,593186310,N,,N,N,,,,,Non-profit,UG,,,,,,06/01/2015 00:00:00,,,,
1197440,1792862016,2016,179286,06/30/2016 00:00:00,S,A,,N,391087141,,N,074797739,NORTHEAST WISCONSIN TECHNICAL COLLEGE,2740 W MASON STREET,,GREEN BAY,WI,543079042,PAM LUNDE,DIRECTOR OF FINANCIAL OPERATIONS,9204986980,,PAM.LUNDE@NWTC.EDU,01/25/2017 15:08:33,PAM LUNDE-DIRECTOR OF FINANCIAL OPERATIONS,SCHENCK,2200 RIVERSIDE DRIVE,,GREEN BAY,WI,543053819,"DAVID MACCOUX, CPA",SHAREHOLDER,9204554114,,DAVID.MACCOUX@SCHENCKSC.COM,01/25/2017 16:13:05,,O,,U,N,N,N,N,U,750000,Y,,36730702,,Y,N,N,Y,N,N,,84,01/25/2017 00:00:00,01/26/2017 08:29:00,,N,505,1,x84x00,01/25/2017 00:00:00,,N,PAM LUNDE,DIRECTOR OF FINANCIAL OPERATIONS,01/25/2017 00:00:00,391173131,N,,N,Y,,,,,Institution of higher education (IHE),UG,00530100,02/03/2017 11:00:28,02/09/2017 08:40:20,S,B,07/01/2015 00:00:00,,,,
1199270,2421782016,2016,242178,06/30/2016 00:00:00,S,A,,N,581758254,,N,,THE GEORGIA CENTER OF THE DEAF AND HARD OF HEARING INC FKA GA COUNCIL ,"4151 MEMORIAL DRIVE, SUITE 103-B",,DECATUR,GA,30032,JIMMY PETERSON,EXEC. DIRECTOR,4042925312,,JPETERSON@GCDHH.ORG,01/30/2017 11:46:22,JIMMY PETERSON-EXECUTIVE DIRECTOR,"BLAD & ASSOCIATES, P.C.","1832 INDEPENDENCE SQUARE, SUITE A",,DUNWOODY,GA,30338,ROBERT BLAD,PARTNER,7705127600,,RBLAD@BLADCPA.COM,01/04/2017 17:40:58,,O,,U,Y,N,N,N,U,750000,N,,961829,,N,N,N,N,N,N,,32,01/30/2017 00:00:00,01/31/2017 10:26:02,,N,888,1,x00,01/30/2017 00:00:00,,N,JIMMY PETERSON,EXECUTIVE DIRECTOR,01/30/2017 00:00:00,582157642,N,,Y,N,,,,,Non-profit,UG,,02/06/2017 11:51:57,02/09/2017 08:40:20,,N,07/01/2015 00:00:00,,,,
1219680,2299472016,2016,229947,12/31/2016 00:00:00,S,A,,N,261526578,,N,,"WILLOW GLEN HSG, INC. T/A WILLOW GLEN APTS. 054-EE095",PO BOX 1254,,DUNN,NC,28335,KATHY KENNEDY,EXECUTIVE DIRECTOR OF OPERATIONS,9108920436,,KATHYK@WELLONS.ORG,07/12/2017 09:45:10,KATHY KENNEDY-EXECUTIVE DIRECTOR OF OPERATIONS,"PATTERSON & ASSOCIATES, PLLC",PO BOX 1105,,LUMBERTON,NC,28359,MATTHEW PATTERSON,MEMBER,9107381448,,MAT@PAPLLCCPAS.COM,07/24/2017 09:31:25,,O,,U,N,N,N,N,U,750000,Y,,4557784,,N,N,N,N,Y,N,,14,07/24/2017 00:00:00,07/25/2017 08:52:57,,N,903,1,x14x00,07/24/2017 00:00:00,,N,KATHY KENNEDY,EXECUTIVE DIRECTOR OF OPERATIONS,07/24/2017 00:00:00,815062879,N,,N,N,,,,,Non-profit,UG,,,,,,01/01/2016 00:00:00,,,,
1224275,1782752016,2016,178275,12/31/2016 00:00:00,S,A,,N,396005617,,N,018526038,CITY OF STEVENS POINT,1515 STONGS AVENUE,,STEVENS POINT,WI,54481,COREY LADICK,COMPTROLLER/TREASURER,7153461573,,CLADICK@STEVENSPOINT.COM,09/25/2017 12:12:01,COREY LADICK-COMPTROLLER-TREASURER,"BAKER TILLY VIRCHOW KRAUSE, LLP","10 TERRACE COURT, PO BOX 7398",,MADISON,WI,537077398,JODI DOBSON,PARTNER,6082402469,,JODI.DOBSON@BAKERTILLY.COM,09/25/2017 09:49:52,,O,,U,Y,Y,N,N,U,750000,N,,937442,,N,N,N,N,N,N,,16,09/25/2017 00:00:00,09/26/2017 10:11:45,,N,200,1,x00,09/25/2017 00:00:00,,N,COREY LADICK,COMPTROLLER-TREASURER,09/25/2017 00:00:00,390859910,Y,,Y,N,,,,,Local government,UG,,,,,,01/01/2016 00:00:00,,,,
1219087,97342016,2016,9734,09/30/2016 00:00:00,S,A,,N,112882421,,N,,GRACE EPISCOPAL CHURCH JAMAICA SENIOR CITIZEN HDFC 012EH645,43 NORTH CETRAL AVNEUE,,VALLEY STREAM ,NY,11580,WILLIAM LUCAS,MANAGER,5162857500,,RLUCAS-CORA@THEAMISTADGROUP.COM,06/30/2017 18:42:22,WILLIAM LUCAS-MANAGING AGENT,MARKS PANETH LLP,88 FROEHLICH FARM BLVD.,,WOODBURY,NY,11797,ANDREW KUBRICK,PARTNER,5169925796,,GCITROLA@MARKSPANETH.COM,06/30/2017 16:59:05,,O,,U,N,N,N,N,U,750000,N,,6536201,,N,N,N,N,N,N,,14,06/30/2017 00:00:00,07/05/2017 13:36:39,,N,903,1,x00,06/30/2017 00:00:00,,N,WILLIAM LUCAS,MANAGING AGENT,06/30/2017 00:00:00,113518842,N,,N,N,,,,,Non-profit,UG,,,,,,10/01/2015 00:00:00,,,,
1213375,1830172016,2016,183017,12/31/2016 00:00:00,S,A,,N,311068009,,N,824769673,"MIAMI VALLEY LUTHERAN HOUSING ASSOCIATION IV, INC. 083-11-113",6445 FAR HILLS AVENUE,,DAYTON,OH,45459,MICHAEL W. ALLEN,TREASURER,9374332110,,MALLEN@GRACEWORKS.ORG,04/20/2017 18:52:22,MICHAEL W. ALLEN-TREASURER,RSM US LLP,2000 WEST DOROTHY LANE,,DAYTON,OH,45439,DANIEL P. STEWARD,PARTNER,9372980201,,DAN.STEWARD@RSMUS.COM,04/20/2017 15:33:45,,O,,U,N,N,N,N,U,750000,Y,,1530626,,N,N,N,N,N,N,,14,04/20/2017 00:00:00,04/21/2017 09:41:59,,N,903,1,x00,04/20/2017 00:00:00,,N,MICHAEL W. ALLEN,TREASURER,04/20/2017 00:00:00,420714325,N,,N,N,,,,,Non-profit,UG,,,,,,01/01/2016 00:00:00,,,,
1221120,1630502016,2016,163050,12/31/2016 00:00:00,S,A,,N,316400221,,N,075007617,CITY OF CHILLICOTHE,35 S PAINT STREET,,CHILLICOTHE,OH,45601,KRISTAL SPETNAGEL,CITY AUDITOR,7407753955,,KRISTAL.SPETNAGEL@CHILLICOTHEOH.GOV,08/04/2017 13:03:11,KRISTAL SPETNAGEL-KRISTAL SPETNAGEL,"MILLHUFF-STANG, CPA, INC.",1428 GALLIA STREET,,PORTSMOUTH,OH,45662,ROBYN ROUSH,PARTNER,7408768548,,ROUSH@MILLHUFFSTANGCPA.COM,08/04/2017 13:00:16,,O,,U,Y,Y,N,N,Q,750000,N,,1403763,,N,Y,N,Y,N,N,,16,08/04/2017 00:00:00,08/07/2017 08:42:30,,N,200,1,x00,08/03/2017 00:00:00,,N,KRISTAL SPETNAGEL,KRISTAL SPETNAGEL,08/04/2017 00:00:00,270422301,Y,,Y,N,,,,,Local government,UG,,,,,,01/01/2016 00:00:00,,,,
1193013,2183932016,2016,218393,06/30/2016 00:00:00,S,A,,N,311471766,,N,,"CHILDREN'S HARBOR, INC.",19425 SW 58TH MANOR,,PEMBROKE PINES,FL,33332,ELIZABETH WYNTER,PRESIDENT & CEO,9542523072,,EWYNTER@CHILDRENSHARBOR.ORG,11/29/2016 12:42:58,ELIZABETH WYNTER-ELIZABETH WYNTER,"MELAMED & KARP, P.A.",12466 W. ATLANTIC BLVD,,CORAL SPRINGS,FL,330714086,ANGELA SOLES,AUDIT MANAGER,9547573333,,ASOLES@MKCPA.NET,11/29/2016 12:31:37,,O,,U,N,N,N,N,U,750000,Y,,1412246,,N,N,N,N,N,N,,93,11/29/2016 00:00:00,11/30/2016 09:36:00,,N,908,1,x00,11/29/2016 00:00:00,,N,ELIZABETH WYNTER,ELIZABETH WYNTER,11/29/2016 00:00:00,200026986,N,,N,N,,,,,NON-PROFIT,UG,,,,,,07/01/2015 00:00:00,,,,
1190516,49522016,2016,4952,06/30/2016 00:00:00,S,A,,N,043160480,,N,786241695,"THE BOSTON HEALTHCARE FOR THE HOMELESS PROGRAM, INC.",780 ALBANY STREET,,BOSTON,MA,02118,AGNES LEUNG,CHIEF FINANCIAL OFFICER,8576541100,,ALEUNG@BHCHP.ORG,11/30/2016 08:58:50,AGNES LEUNG-CHIEF FINANCIAL OFFICER,"ALEXANDER, ARONSON, FINNING & CO., P.C.",21 EAST MAIN STREET,,WESTBOROUGH,MA,01581,SORIE M KABA,VICE PRESIDENT,5083669789,,SKABA@AAFCPA.COM,11/29/2016 17:05:13,,O,,U,N,N,N,N,U,750000,Y,,5304950,,N,N,N,N,N,N,,93,11/30/2016 00:00:00,12/01/2016 08:15:23,,N,908,1,x00,11/30/2016 00:00:00,,N,AGNES LEUNG,CHIEF FINANCIAL OFFICER,11/30/2016 00:00:00,042571780,N,,N,N,,,,,NON-PROFIT,UG,,,,,,07/01/2015 00:00:00,,,,
1219351,1528422016,2016,152842,12/31/2016 00:00:00,S,A,,N,436003242,,N,075913061,"ST. LOUIS COUNTY, MO",41 SOUTH CENTRAL AVENUE,,ST. LOUIS,MO,63105,DON RODE,ACCOUNTING OFFICER,3146155062,,DRODE@STLOUISCO.COM,09/29/2017 17:38:44,DON RODE-ACCOUNTING OFFICER,"KERBER, ECK & BRAECKEL LLP",ONE MEMORIAL DRIVE SUITE 900,,ST. LOUIS,MO,63102,RICK GRATZA,PARTNER,3142316232,,RICKG@KEBCPA.COM,09/29/2017 16:30:15,,C,14,U,Y,Y,N,N,U,1588683,N,,52956110,,Y,N,N,Y,Y,Y,,,09/29/2017 00:00:00,10/03/2017 09:11:37,,N,100,1,x00x14,09/29/2017 00:00:00,,N,DON RODE,ACCOUNTING OFFICER,09/29/2017 00:00:00,430352985,Y,,Y,Y,,,,,Local government,UG,,,,,,01/01/2016 00:00:00,,,,
1212275,2459172016,2016,245917,09/30/2016 00:00:00,S,A,,N,476006296,,N,023886633,VILLAGE OF NORTH LOUP,PO BOX 280,,NORTH LOUP,NE,68859,CARRIE HANSEN,VILLAGE CLERK,3084964362,,NORTHLOUP@NCTC.NET,04/12/2017 11:00:21,CARRIE HANSEN-VILLAGE CLERK,"ALMQUIST, MALTZAHN, GALLOWAY & LUTH, PC",PO BOX 1407,,GRAND ISLAND,NE,688021407,"MICHAEL HOBACK, CPA",SHAREHOLDER,3083811810,,MHOBACK@GICPAS.COM,04/05/2017 16:53:39,,O,,S,Y,N,N,N,U,750000,N,,802723,,N,N,N,N,N,N,,66,04/12/2017 00:00:00,04/13/2017 07:42:50,,N,888,1,x00,04/12/2017 00:00:00,,N,CARRIE HANSEN,VILLAGE CLERK,04/12/2017 00:00:00,470589915,N,,Y,N,OTHER,N,U,,Local government,UG,,,,,,10/01/2015 00:00:00,,,,
1212647,989312016,2016,98931,12/31/2016 00:00:00,S,A,,N,720840673,,N,155814366,DUBOURG HOME (PLACE DUBOURG APARTMENTS) 064-11137,201 RUE DUBOURG ,,LAPLACE,LA,70068,RICKEY KAISER,CHIEF FINANCIAL OFFICER,5045963460,,RKAISER@CHI-ANO.ORG,04/11/2017 22:32:43,THURMAN (RICKEY) KAISER-CHIEF FINANCIAL OFFICER,"MADDOX & ASSOCIATES, APC","5627 BANKERS AVENUE, BUILDING 2",,BATON ROUGE,LA,708082610,BRYAN BEALE,CPA,2259263360,,MAIL@MADDOXASSOCIATES.COM,04/12/2017 10:27:22,,O,,U,N,N,N,N,U,750000,Y,,5726964,,N,N,N,N,N,N,,14,04/12/2017 00:00:00,04/13/2017 08:37:40,,N,903,1,x00,04/12/2017 00:00:00,,N,THURMAN (RICKEY) KAISER,CHIEF FINANCIAL OFFICER,04/12/2017 00:00:00,721314069,N,,N,N,,,,,Non-profit,UG,,,,,,01/01/2016 00:00:00,,,,
1200467,726282016,2016,72628,06/30/2016 00:00:00,S,A,,N,510116653,,N,611186909,DELAWARE STATE HOUSING AUTHORITY,18 THE GREEN,,DOVER,DE,19901,ANNETTE J. MILLER,DIRECTOR OF FINANCIAL MANAGEMENT,3027394263,,ANNETTE@DESTATEHOUSING.COM,01/18/2017 10:30:22,ANNETTE J. MILLER-DIRECTOR OF FINANCIAL MANAGEMENT,"BELFINT, LYONS & SHUMAN, P.A.","1011 CENTRE ROAD, SUITE 310",,WILMINGTON,DE,19805,JONATHAN D. MOLL,DIRECTOR,3022250600,,JMOLL@BELFINT.COM,01/18/2017 10:50:31,,C,14,U,N,N,N,N,U,1728910,Y,,57630345,,N,N,N,N,N,N,,,01/18/2017 00:00:00,01/19/2017 07:39:51,,N,003,1,x00,01/18/2017 00:00:00,,N,ANNETTE J. MILLER,DIRECTOR OF FINANCIAL MANAGEMENT,01/18/2017 00:00:00,510232399,N,,N,N,,,,,State,UG,,,,,,07/01/2015 00:00:00,,,,
1210016,2081122016,2016,208112,12/31/2016 00:00:00,S,A,,N,721403747,,N,,HOUSING CORP OF ACADIANA DBA MAISON DE RAYNE 064-HD040-WPD-NP-L8,610 SUNRISE RD.,,RAYNE,LA,70536,JENNIFER FABACHER,DIRECTOR OF HOUSING,3374068500,,JFABACHER@GOODHOMESPM.COM,03/27/2017 09:33:43,JENNIFER FABACHER-MANAGEMENT AGENT,"WRIGHT, MOORE, DEHART, DUPUIS & HUTCHINSON",100 PETROLEUM DRIVE,,LAFAYETTE,LA,70598,CHRISTIE DUNN,AUDIT PARTNER,3372323637,,CHRISTIE@WMDDH.COM,03/27/2017 09:32:50,,O,,U,N,N,N,N,U,750000,Y,,1233918,,N,N,N,N,N,N,,14,03/27/2017 00:00:00,03/28/2017 07:27:33,,N,903,1,x00,03/27/2017 00:00:00,,N,JENNIFER FABACHER,MANAGEMENT AGENT,03/27/2017 00:00:00,721108576,N,,N,N,,,,,Non-profit,UG,,,,,,01/01/2016 00:00:00,,,,
1224248,2222412016,2016,222241,12/31/2016 00:00:00,S,A,,N,770315220,,N,,FAMILY CONNECTIONS CHRISTIAN ADOPTIONS ,1120 TULLY ROAD ,,MODESTO ,CA,95350,WAYNE MOTT ,EXECUTIVE DIRECTOR,2095248844,,WAYNEMOTT@FCADOPTIONS.ORG,09/12/2017 12:18:42,WAYNE MOTT-EXECUTIVE DIRECTOR,"PASTENIEKS, BUCHELI & FALASCO, LLP","1301 L STREET, SUITE 1",,MODESTO,CA,95354,RALPH BUCHELI,CPA,2095295515,,RALPH@PBFCPA.COM,09/14/2017 19:20:40,,O,,U,N,N,N,N,U,750000,Y,,1189956,,N,N,N,N,Y,Y,,93,09/14/2017 00:00:00,09/15/2017 10:45:20,,N,909,1,x00x93,09/14/2017 00:00:00,,N,WAYNE MOTT,EXECUTIVE DIRECTOR,09/14/2017 00:00:00,272863865,N,,N,N,,,,,Non-profit,UG,,,,,,01/01/2016 00:00:00,,,,
1202962,2262612016,2016,226261,06/30/2016 00:00:00,S,A,,N,410879377,,N,042551692,MOORHEAD PUBLIC HOUSING AGENCY,800 2ND AVENUE NORTH,,MOORHEAD,MN,565601915,DAWN BACON,EXECUTIVE DIRECTOR,2182995458,,DAWN.BACON@CI.MOORHEAD.MN.US,02/10/2017 10:09:41,DAWN BACON-DAWN BACON,"BRADY, MARTZ & ASSOCIATES, P.C.",401 DEMERS AVE. STE. 300 P.O. BOX 14296,,GRAND FORKS,ND,582084296,BRIAN OPSAHL,SHAREHOLDER,7017754685,,BRIAN.OPSAHL@BRADYMARTZ.COM,02/10/2017 09:15:30,,O,,U,Y,Y,Y,N,Q,750000,N,,935587,,N,Y,N,Y,Y,N,,14,02/10/2017 00:00:00,02/13/2017 07:47:13,,N,203,1,x14,02/10/2017 00:00:00,,N,DAWN BACON,DAWN BACON,02/10/2017 00:00:00,450310328,Y,,Y,N,,,,,Local government,UG,,,,,,07/01/2015 00:00:00,,,,
1183689,1714452016,2016,171445,06/30/2016 00:00:00,S,A,,Y,626000887,,Y,069093516,"VAN BUREN COUNTY, TENNESSEE",P.O BOX 217,,SPENCER,TN,38585,GREG WILSON,COUNTY MAYOR,9319462388,,MAYORGWILSON@OUTLOOK.COM,11/29/2016 10:58:38,GREG WILSON-VAN BUREN COUNTY MAYOR,"TN COMPTROLLER OF THE TREASURY, DIV. OF LOCAL GOVERNMENT AUDIT",1500 JAMES K POLK BLDG; 505 DEADERICK ST,,NASHVILLE,TN,372431402,GREG WORLEY,AUDIT REVIEW MANAGER,6154017846,,GREG.WORLEY@COT.TN.GOV,11/15/2016 16:37:19,,O,,U,Y,N,N,N,U,750000,N,,1337661,,N,N,N,N,N,N,,10,11/29/2016 00:00:00,11/30/2016 07:58:03,,N,100,1,x00,11/29/2016 00:00:00,,N,GREG WILSON,VAN BUREN COUNTY MAYOR,11/29/2016 00:00:00,626001445,N,,Y,N,,,,,LOCAL GOVERNMENT,UG,,12/12/2016 08:42:14,12/15/2016 10:00:41,N,G,07/01/2015 00:00:00,,,,
1196534,33722016,2016,3372,06/30/2016 00:00:00,S,A,,Y,042503926,,N,909195695,CENTER FOR HUMAN DEVELOPMENT INC. AND AFFILIATES,332 BIRNIE AVENUE,,SPRINGFIELD,MA,01107,AMALE NEARY,CFO,4137336624,,ANEARY@CHD.ORG,02/10/2017 10:21:15,AMALE NEARY-CFO,"ALEXANDER, ARONSON, FINNING & CO., P.C.",21 EAST MAIN STREET,,WESTBOROUGH,MA,01581,CARLA M. MCCALL,CO-PRESIDENT,5083669100,,CMCCALL@AAFCPA.COM,02/10/2017 09:44:24,,O,,U,N,N,N,N,U,750000,Y,,4361999,,N,N,N,N,N,N,,14,02/10/2017 00:00:00,02/13/2017 07:44:48,,N,908,1,x00,02/10/2017 00:00:00,,N,AMALE NEARY,CFO,02/10/2017 00:00:00,042571780,N,,N,N,,,,,Non-profit,UG,,02/13/2017 08:03:25,02/16/2017 09:59:00,,N,07/01/2015 00:00:00,,,,
1183657,1897192016,2016,189719,06/30/2016 00:00:00,S,A,,N,611201320,,N,390758449,"SHEPHERD PLACE, INC. ",PO BOX 11610,,LEXINGTON,KY,405761610,ERIN HENSLEY,INTERNAL AUDITOR,8592334600,,ERIN.HENSLEY@COMMACTION.ORG,10/03/2016 14:08:33,ERIN HENSLEY-INTERNAL AUDITOR,WIPFLI LLP,PO BOX 8700,,MADISON,WI,537098700,"JEAN M. CHRISTENSEN, CPA",PARTNER,6082741980,,JMCHRISTENSEN@WIPFLI.COM,10/03/2016 14:41:42,,O,,U,N,N,N,N,U,750000,Y,,1115334,,N,N,N,N,N,N,,14,10/03/2016 00:00:00,10/04/2016 09:04:25,,N,903,1,x00,10/03/2016 00:00:00,,N,ERIN HENSLEY,INTERNAL AUDITOR,10/03/2016 00:00:00,390758449,N,,N,N,,,,,NON-PROFIT,UG,,,,,,07/01/2015 00:00:00,,,,
1209805,2408862016,2016,240886,12/31/2016 00:00:00,S,A,,N,510161670,,N,784321143,AMERICAN ASSOCIATION OF DIABETES EDUCATORS ,"200 WEST MADISON STREET, SUITE 800",,CHICAGO ,IL,60606,BRAD NEAL ,CHIEF FINANCIAL OFFICER ,3124242426,,BNEAL@AADENET.ORG,03/24/2017 15:24:55,BRAD NEAL-CHIEF FINANCIAL OFFICER,CLIFTONLARSONALLEN LLP,"1301 WEST 22ND STREET, SUITE 1100",,OAK BROOK,IL,60523,MELISSA STRUCK,PRINCIPAL,6305738600,,MELISSA.STRUCK@CLACONNECT.COM,03/24/2017 15:41:29,,O,,U,Y,N,N,N,U,750000,Y,,1245177,,Y,N,N,Y,N,N,,93,03/24/2017 00:00:00,03/27/2017 11:49:22,,N,888,1,x00x93,03/24/2017 00:00:00,,N,BRAD NEAL,CHIEF FINANCIAL OFFICER,03/24/2017 00:00:00,410746749,N,,Y,Y,,,,,Non-profit,UG,,,,,,01/01/2016 00:00:00,,,,
1196041,1541512016,2016,154151,06/30/2016 00:00:00,S,A,,N,436011930,,N,,SCOTT COUNTY R-IV SCHOOL DISTRICT,4035 STATE HWY 77,,BENTON,MO,63736,FARA JONES,SUPERINTENDENT,5735453541,,FARA.JONES@KELLYHAWKS.ORG,12/15/2016 12:30:45,FARA JONES-SUPERINTENDENT,"STANLEY, DIRNBERGER, HOPPER & ASSOCIATES, LLC",1441 N. MOUNT AUBURN RD,,CAPE GIRARDEAU,MO,63701,PATRICK W. KINTNER,MEMBER / PARTNER,5733343343,,PWK@SDHACPA.COM,12/15/2016 02:01:36,,O,,S,N,N,N,N,U,750000,Y,,1004447,,N,N,N,N,N,N,,84,12/15/2016 00:00:00,12/16/2016 10:12:52,,N,505,1,x00,12/15/2016 00:00:00,,N,FARA JONES,SUPERINTENDENT,12/15/2016 00:00:00,431500106,N,,N,N,CASH,N,U,,Local government,UG,,01/04/2017 10:41:01,01/05/2017 07:12:19,N,G,07/01/2015 00:00:00,,,,
1205503,180632016,2016,18063,06/30/2016 00:00:00,S,A,,N,150532081,,N,002257350,SYRACUSE UNIVERSITY,SKYTOP OFFICE BUILDING,,SYRACUSE,NY,132445300,JEAN B. GALLIPEAU,COMPTROLLER,3154433016,,JBGALLIP@SYR.EDU,03/29/2017 13:24:19,JEAN GALLIPEAU-COMPTROLLER,KPMG LLP,515 BROADWAY,,ALBANY,NY,122072974,DEAN GEESLER,PARTNER,5184274738,,DGEESLER@KPMG.COM,03/29/2017 08:46:12,,C,84,U,N,N,N,N,U,1340777,Y,,254622702,,N,N,N,N,N,N,,,03/29/2017 00:00:00,03/30/2017 11:05:25,,N,904,1,x00,03/29/2017 00:00:00,,N,JEAN GALLIPEAU,COMPTROLLER,03/29/2017 00:00:00,135565207,N,,N,N,,,,,Institution of higher education (IHE),UG,00288200,04/24/2017 10:53:33,04/27/2017 10:09:15,N,B,07/01/2015 00:00:00,,,,
1216029,1954272016,2016,195427,09/30/2016 00:00:00,S,A,,N,636000767,,N,119840916,BIRMINGHAM CITY BOARD OF EDUCATION,2015 PARK PLACE NORTH,,BIRMINGHAM ,AL,35203,SHARON ROBERTS,CHIEF SCHOOL FINANCIAL OFFICER,2052314606,,SROBERTS2@BHM.K12.AL.US,11/01/2017 09:25:29,SHARON K ROBERTS-CHIEF FINANCIAL OFFICER,ALABAMA DEPARTMENT OF EXAMINERS OF PUBLIC ACCOUNTS,"50 NORTH RIPLEY STREET, ROOM 3201",,MONTGOMERY,AL,361043833,MATT RICHARDS,ASSISTANT DIRECTOR-COUNTY AUDITS,3342429200,,MATT.RICHARDS@EXAMINERS.ALABAMA.GOV,11/01/2017 09:34:15,,O,,U,Y,N,N,N,U,1324928,N,,44164278,,N,N,N,N,N,N,,84,11/01/2017 00:00:00,11/02/2017 09:22:44,,N,505,1,x00,11/01/2017 00:00:00,,N,SHARON K ROBERTS,CHIEF FINANCIAL OFFICER,11/01/2017 00:00:00,636000619,N,,Y,N,,,,,Local government,UG,,11/03/2017 08:09:16,11/09/2017 08:25:04,N,G,10/01/2015 00:00:00,,,,
1182835,917422016,2016,91742,05/31/2016 00:00:00,S,A,,N,610466713,,N,071320527,KENTUCKY WESLEYAN COLLEGE,3000 FREDERICA STREET,,OWENSBORO,KY,42301,CINDRA STIFF,VP FOR FINANCE,2708523112,,CINDRAST@KWC.EDU,10/07/2016 13:24:33,CINDRA STIFF-VICE PRESIDENT OF FINANCE,"EBELHAR WHITEHEAD, PLLC","100 W THIRD STREET, SUITE 200",,OWENSBORO,KY,423034119,REBECCA R WHITEHEAD,PARTNER,2709262922,,RWHITEHEAD@EW-CPA.COM,10/07/2016 12:56:47,,O,,U,Y,N,N,N,U,750000,N,,7356513,,N,N,N,Y,Y,N,,84,10/07/2016 00:00:00,10/11/2016 08:48:52,,N,904,1,x84,10/07/2016 00:00:00,,N,CINDRA STIFF,VICE PRESIDENT OF FINANCE,10/07/2016 00:00:00,272616366,N,,Y,N,,,,,NON-PROFIT,UG,00196900,10/12/2016 07:54:03,10/13/2016 08:46:59,S,B,06/01/2015 00:00:00,,,,
1202606,1701842016,2016,170184,06/30/2016 00:00:00,S,A,,N,231683558,,N,,YORK COUNTY SCHOOL OF TECHNOLOGY,2179 S. QUEEN STREET,,YORK,PA,174024628,JON BOYER,BUSINESS MANAGER,7177410820,,JBOYER@YTECH.EDU,02/02/2017 12:40:37,JON BOYER-BUSINESS ADMINISTRATOR,KOCHENOUR EARNEST SMYSER & BURG,710 S. GEORGE STREET,,YORK,PA,17401,MARK KEPHART,CPA,7178438855,,MARK@KESBACCOUNTING.COM,01/27/2017 15:48:41,,O,,U,N,N,N,N,U,750000,Y,,1550706,,N,N,N,N,N,N,,84,02/02/2017 00:00:00,02/03/2017 11:09:23,,N,505,1,x00,02/02/2017 00:00:00,,N,JON BOYER,BUSINESS ADMINISTRATOR,02/02/2017 00:00:00,231315156,N,,N,N,,,,,Local government,UG,,02/03/2017 12:06:55,02/09/2017 08:40:20,N,G,07/01/2015 00:00:00,,,,
1199211,1444482016,2016,144448,06/30/2016 00:00:00,S,A,,N,421029263,,N,,KEYSTONE AREA EDUCATION AGENCY 1,1400 2ND ST. NW,,ELKADER,IA,520430000,AUDIE BAUMGARTNER,BUSINESS MANAGER,5632451480,,ABAUMGARTNER@AEA1.K12.IA.US,01/06/2017 11:36:00,AUDIE BAUMGARTNER-BUSINESS MANAGER,"SCHNURR & COMPANY, LLP","822 CENTRAL AVENUE, SUITE 400",,FORT DODGE,IA,505010000,MURRAY STANLEY ,PARTNER,5155767136,,MURRAY@SCHNURRLLP.COM,01/09/2017 07:27:11,,O,,U,N,N,N,N,U,750000,Y,,8413148,,N,N,N,N,N,N,,84,01/09/2017 00:00:00,01/10/2017 07:23:49,,N,505,1,x00,01/09/2017 00:00:00,,N,AUDIE BAUMGARTNER,BUSINESS MANAGER,01/09/2017 00:00:00,421282836,N,,N,N,,,,,State,UG,,01/23/2017 11:57:03,01/26/2017 07:27:39,N,G,07/01/2015 00:00:00,,,,
1194690,1761142016,2016,176114,06/30/2016 00:00:00,S,A,,Y,546001608,,N,091224170,"COUNTY OF SMYTH, VIRGINIA","121 BAGLEY CIRCLE, SUITE 100",,MARION,VA,24354,MICHAEL CARTER,COUNTY ADMINISTRATOR,2767833298,,MCARTER@SMYTHCOUNTY.ORG,12/22/2016 08:32:18,MIKE CARTER-COUNTY ADMINISTRATOR,"ROBINSON, FARMER, COX ASSOCIATES",108 SOUTHPARK DRIVE,,BLACKSBURG,VA,24060,CORBIN STONE,MEMBER,5405527322,,CSTONE@RFCA.COM,12/20/2016 15:42:06,,O,,U,N,Y,Y,N,U,750000,N,,7387880,,N,N,N,N,N,N,,21,12/22/2016 00:00:00,12/23/2016 10:10:05,,N,100,1,x00,12/22/2016 00:00:00,,N,MIKE CARTER,COUNTY ADMINISTRATOR,12/22/2016 00:00:00,541896113,Y,,N,N,,,,,Local government,UG,,01/10/2017 15:12:55,01/12/2017 09:47:01,N,G,07/01/2015 00:00:00,,,,
1207345,2457772016,2016,245777,06/30/2016 00:00:00,S,A,,N,232040210,,N,,"COATESVILLE AREA SENIOR CENTER, INC.",250 HARMONY STREET,,COATESVILLE,PA,19320,GEORGE CARLINO,PRESIDENT,6103836900,,GVCARLINO@GMAIL.COM,03/10/2017 11:26:13,GEORGE CARLINO-BOARD CHAIRMAN,"ROBERT C. BEZGIN, CPA",802 COUNTRY ROAD,,DOWNINGTOWN,PA,193354455,ROBERT BEZGIN,OWNER,6108732288,,RCBEZGINCPA@VERIZON.NET,03/08/2017 15:59:51,,O,,U,N,N,N,N,U,750000,N,,1228305,,N,N,N,N,N,N,,14,03/10/2017 00:00:00,03/16/2017 07:49:18,,N,888,1,x00,03/10/2017 00:00:00,,N,GEORGE CARLINO,BOARD CHAIRMAN,03/10/2017 00:00:00,232648697,N,,N,N,,,,,Non-profit,UG,,,,,,07/01/2015 00:00:00,,,,
1195600,1811792016,2016,181179,09/30/2016 00:00:00,S,A,,N,421428336,,N,948258421,GIDEON POND HOUSING CORPORATION DBA NEWTON MANOR 092-11196,10000 NEWTON AVENUE SOUTH,,BLOOMINGTON,MN,55437,MARK MEYER,CFO,6516316120,,MMEYER@PRESHOMES.ORG,12/15/2016 11:09:16,MARK MEYER-CFO,CLIFTONLARSONALLEN,"220 SOUTH SIXTH STREET, SUITE 300",,MINNEAPOLIS,MN,55402,CHRIS STEINHOFF,DIRECTOR,6123764500,,CHRIS.STEINHOFF@CLACONNECT.COM,12/15/2016 11:21:16,,O,,U,N,N,N,N,U,750000,Y,,1222120,,N,N,N,N,Y,N,,14,12/15/2016 00:00:00,12/16/2016 08:26:48,,N,903,1,x00x14,12/15/2016 00:00:00,,N,MARK MEYER,CFO,12/15/2016 00:00:00,410746749,N,,N,N,,,,,Non-profit,UG,,,,,,10/01/2015 00:00:00,,,,
1203682,2432872016,2016,243287,06/30/2016 00:00:00,S,A,,N,271465411,,N,961967481,NORTHEAST OHIO COLLEGE PREPARATORY SCHOOL,2357 TREMONT AVENUE,,CLEVELAND,OH,44113,DAVE MASSA,FISCAL OFFICER,3305150572,,DAVE@MASSASOLUTIONSLLC.COM,03/02/2017 10:15:52,DAVE MASSA-FISCAL OFFICER,"REA & ASSOCIATES, INC.",694 EAST WASHINGTON STREET,,MEDINA,OH,44256,ZACHARY MORRIS,PRINCIPAL,3307228222,,,03/02/2017 09:57:00,,O,,U,N,N,N,N,U,750000,N,,1030511,,N,N,N,N,N,N,,84,03/02/2017 00:00:00,03/03/2017 07:51:30,,N,888,1,x00,03/02/2017 00:00:00,,N,DAVE MASSA,FISCAL OFFICER,03/02/2017 00:00:00,341312012,N,,N,N,,,,,State,UG,,03/06/2017 12:44:15,03/09/2017 09:34:05,,N,07/01/2015 00:00:00,,,,
1206409,1934532016,2016,193453,06/30/2016 00:00:00,S,A,,N,586000222,,N,100013564,DADE COUNTY BOARD OF EDUCATION,"52 TRADITIONS LANE, P. O. BOX 188",,TRENTON,GA,30752,PAULA STALLINGS,BOOKKEEPER,7066574361,,PAULASTALLINGS@DADECS.ORG,03/22/2017 08:44:02,PAULA STALLINGS-BOOKKEEPER,GEORGIA DEPARTMENT OF AUDITS AND ACCOUNTS,270 WASHINGTON STREET S. W. SUITE 1-156,,ATLANTA,GA,30334,JENNA OGLESBEE,AUDIT PROCESSING SPECIALIST,4044630171,,OGLESBEE@AUDITS.GA.GOV,03/22/2017 10:11:33,,O,,U,N,N,N,N,U,750000,Y,,2151706,,N,N,N,N,N,N,,10,03/22/2017 00:00:00,03/23/2017 08:23:25,,N,505,1,x00,03/22/2017 00:00:00,,N,PAULA STALLINGS,BOOKKEEPER,03/22/2017 00:00:00,586002005,N,,N,N,,,,,Local government,UG,,03/27/2017 14:57:21,03/30/2017 07:08:22,N,G,07/01/2015 00:00:00,,,,
1198158,1879472016,2016,187947,06/30/2016 00:00:00,S,A,,N,362362364,,N,,"GRAND PRAIRIE SERVICES, INC.",17746 OAK PARK AVENUE,,TINLEY PARK,IL,60477,SHARRONNE WARD,PRESIDENT & CEO,7084441012,,SWARD@GPSBH.ORG,01/09/2017 09:48:47,BARBARA PAPE-VP OF FINANCE,"WIELAND & COMPANY, INC.","201 HOUSTON STREET, SUITE 301",,BATAVIA,IL,60510,PAUL WIELAND,PRESIDENT,6304064490,,PAUL@WIELANDCPAS.NET,01/03/2017 15:48:26,,O,,U,N,Y,Y,N,Q,750000,N,,1785748,,N,Y,N,Y,Y,N,,93,01/09/2017 00:00:00,01/10/2017 08:38:55,,N,909,1,x00x93,01/09/2017 00:00:00,,N,BARBARA PAPE,VP OF FINANCE,01/09/2017 00:00:00,364025026,Y,,N,N,,,,,Non-profit,UG,,,,,,07/01/2015 00:00:00,,,,
1198618,2055362016,2016,205536,06/30/2016 00:00:00,S,A,,Y,066002069,,N,022938112,"TOWN OF PRESTON, CONNECTICUT",398 ROUTE 2,,PRESTON,CT,06365,BOB CONGDON,FIRST SELECTMAN,8608875581,,CONGDON@PRESTON-CT.ORG,01/12/2017 14:26:17,BOB CONGDON-FIRST SELECTMAN,"SANDRA E WELWOOD, LLC",46 MAIN STREET,,DANBURY,CT,06810,SANDRA WELWOOD,MANAGING PARTNER,2037300509,,SEWONLAKE@AOL.COM,01/02/2017 10:13:00,,O,,U,N,Y,N,N,U,750000,N,,1123746,,N,N,N,N,N,N,,84,01/12/2017 00:00:00,01/13/2017 08:55:14,,N,300,1,x00,01/12/2017 00:00:00,,N,BOB CONGDON,FIRST SELECTMAN,01/12/2017 00:00:00,061555228,Y,,N,N,,,,,Local government,UG,,01/24/2017 09:53:34,01/26/2017 07:27:39,N,G,07/01/2015 00:00:00,,,,
1187728,1042892016,2016,104289,06/30/2016 00:00:00,S,A,,N,750859668,,N,071668958,WAYLAND BAPTIST UNIVERSITY,"1900 WEST 7TH STREET, CMB #1262",,PLAINVIEW,TX,79072,LEZLIE HUKILL,CHIEF FINANCIAL OFFICER,8062913446,,LEZLIEH@WBU.EDU,11/07/2016 12:39:03,LEZLIE HUKILL-CHIEF FINANCIAL OFFICER,"DAVIS KINARD & CO, PC","400 PINE, SUITE 600",,ABILENE,TX,79601,L. DIANE TERRELL,AUDIT SHAREHOLDER,3256724000,,DTERRELL@DKCPA.COM,11/07/2016 11:11:26,,O,,U,N,N,N,N,U,750000,Y,,34498120,,N,N,N,N,N,N,,84,11/07/2016 00:00:00,11/08/2016 08:47:47,,N,904,1,x00,11/07/2016 00:00:00,,N,LEZLIE HUKILL,CHIEF FINANCIAL OFFICER,11/07/2016 00:00:00,751332266,N,,N,N,,,,,INSTITUTION OF HIGHER EDUCATION (IHE),UG,00366300,11/09/2016 08:28:25,11/10/2016 07:39:37,N,S,07/01/2015 00:00:00,,,,
1189221,2287452016,2016,228745,06/30/2016 00:00:00,S,A,,N,204707908,,N,847939019,HANCOCK COUNTY HSG ASSOC DBA MARION CORNER APTS 072-EE162,639 YORK STREET,,QUINCY,IL,62301,LYNN NIEWOHNER,PRESIDENT,2172237904,,LYNN@WCIAGINGNETWORK.ORG,10/28/2016 11:33:36,LYNN NIEWOHNER-PRESIDENT,"ELIZABETH A. HAIRE, CPA, P.C.",P.O. BOX 5121,,QUINCY,IL,62305,ELIZABETH HAIRE,CPA,2172220072,,EHAIRE@EHAIRECPA.COM,10/28/2016 11:41:21,,O,,U,N,N,N,N,U,750000,Y,,1341493,,N,N,N,N,N,N,,14,10/28/2016 00:00:00,10/31/2016 08:35:45,,N,403,1,x00,10/28/2016 00:00:00,,N,LYNN NIEWOHNER,PRESIDENT,10/28/2016 00:00:00,471023643,N,,N,N,,,,,NON-PROFIT,UG,,,,,,07/01/2015 00:00:00,,,,
1220922,1996422016,2016,199642,12/31/2016 00:00:00,S,A,,N,954625777,,N,843972493,"TELACU HOUSING-ALHAMBRA, INC.  DBA TELACU LAS PALMAS 122-EE103-WAH-NP",1248 GOODRICH BLVD.,,LOS ANGELES,CA,90022,TOM PROVENCIO,TREASURER,3237211655,,TPROVENCIO@TELACU.COM,09/20/2017 19:12:37,CHRISTIEN TRAN-CONTROLLER,"DAUBY O'CONNOR & ZALESKI, LLC","501 CONGRESSIONAL BLVD., SUITE 300",,CARMEL,IN,46032,KENNY DENNISON,MEMBER,3178485700,,KDENNISON@DOZ.NET,09/21/2017 09:59:07,,O,,U,N,N,N,N,U,750000,Y,,5701623,,N,N,N,N,N,N,,14,09/21/2017 00:00:00,09/22/2017 08:56:51,,N,903,1,x00,09/21/2017 00:00:00,,N,CHRISTIEN TRAN,CONTROLLER,09/21/2017 00:00:00,351750664,N,,N,N,,,,,Non-profit,UG,,,,,,01/01/2016 00:00:00,,,,
1248801,1993142016,2016,199314,06/30/2016 00:00:00,S,A,,N,860834602,,N,,GILA CROSSING COMMUNITY SCHOOL,4665 W. PECOS RD.,,LAVEEN,AZ,85339,JIM MOSLEY,LEAD PRINCIPAL,5205504834,,JIM.MOSLEY@GCCSEAGLES.ORG,03/08/2018 10:26:29,JIM MOSLEY-LEAD PRINCIPAL,"HEINFELD, MEECH & CO., P.C.",3033 N. CENTRAL AVE. SUITE 300,,PHOENIX,AZ,85012,"JILL A. SHAW, CPA",PARTNER,6022779449,,JILL.SHAW@HEINFELDMEECH.COM,03/08/2018 10:44:02,,O,,Q,N,Y,Y,N,Q,750000,N,,7898895,,Y,Y,Y,Y,Y,N,,15,03/08/2018 00:00:00,03/09/2018 11:08:42,,N,505,1,x15x84,03/08/2018 00:00:00,,N,JIM MOSLEY,LEAD PRINCIPAL,03/08/2018 00:00:00,860558065,Y,,N,Y,,,,,Local government,UG,,03/26/2018 13:57:13,03/29/2018 07:34:47,N,G,07/01/2015 00:00:00,,,,
1196440,1810802016,2016,181080,08/31/2016 00:00:00,S,A,,N,751247901,,N,624094624,REGION 17 EDUCATION SERVICE CENTER,1111 WEST LOOP 289,,LUBBOCK,TX,794165029,KERRY WRIGHT,CHIEF FINANCIAL OFFICER,8067924000,,KWRIGHT@ESC17.NET,01/05/2017 17:20:06,KERRY WRIGHT-CFO,"BOLINGER, SEGARS, GILBERT & MOSS, LLP",8215 NASHVILLE AVENUE,,LUBBOCK,TX,794231954,TREY ROWE,PARTNER,8067473806,,TROWE@BSGM.COM,01/06/2017 09:08:55,,O,,U,N,N,N,N,U,750000,Y,,5233930,,N,N,N,N,N,N,,84,01/06/2017 00:00:00,01/09/2017 08:35:31,,N,505,1,x00,01/06/2017 00:00:00,,N,KERRY WRIGHT,CFO,01/06/2017 00:00:00,750882037,N,,N,N,,,,,Local government,UG,,01/23/2017 08:12:06,01/26/2017 07:27:39,N,G,09/01/2015 00:00:00,,,,
1203773,1918402016,2016,191840,06/30/2016 00:00:00,S,A,,N,952104508,,N,830380783,CITY OF SAN DIMAS,245 EAST BONITA AVENUE,,SAN DIMAS,CA,917733002,MICHAEL O'BRIEN,ADMINISTRATIVE SERVICES MANAGER,9093946225,,MOBRIEN@CI.SAN-DIMAS.CA.US,03/07/2017 14:11:18,MICHAEL O'BRIEN-ADMINISTRATIVE SERVICES MANAGER,"LANCE SOLL LUNGHARD,LLP",203 N BREA BLVD SUITE 203,,BREA,CA,92821,BRYAN GRUBER,PARTNER,7146720022,,BRYAN.GRUBER@LSLCPAS.COM,03/07/2017 18:20:07,,O,,U,N,Y,N,N,U,750000,N,,1731750,,N,N,N,Y,N,N,,20,03/07/2017 00:00:00,03/08/2017 09:36:36,,N,200,1,x00,03/07/2017 00:00:00,,N,MICHAEL O'BRIEN,ADMINISTRATIVE SERVICES MANAGER,03/07/2017 00:00:00,952700123,Y,,N,N,,,,,Local government,UG,,,,,,07/01/2015 00:00:00,,,,
1205380,2215462016,2016,221546,08/31/2016 00:00:00,S,A,,N,760392820,,N,162096023,"COMMUNITIES IN SCHOOL OF BRAZORIA COUNTY, INC.","201 E MYRTLE, STE 260",,ANGLETON,TX,77515,JUDY COURTS,CFO,9798490321,,JCOURTS@CISTXJV.ORG,02/20/2017 17:58:49,JUDY COURTS-CFO,RATLIFF & JENTHO CPAS,"606 ROLLINGBROOK STREET, STE 1B",,BAYTOWN,TX,775214086,DAVID JENTHO,CPA,2814222296,,DJENTHO@RJCPAS.COM,02/21/2017 11:16:35,,O,,U,N,N,N,N,U,750000,Y,,1956440,,N,N,N,N,N,N,,84,02/22/2017 00:00:00,02/23/2017 08:25:51,,N,909,1,x00,02/22/2017 00:00:00,,N,JUDY COURTS,CFO,02/22/2017 00:00:00,760127451,N,,N,N,,,,,Non-Profit,UG,,03/03/2017 13:17:53,03/09/2017 09:34:05,N,G,09/01/2015 00:00:00,,,,
1217795,2327222016,2016,232722,09/30/2016 00:00:00,S,A,,N,010215911,,N,071732523,MID COAST HOSPITAL,123 MEDICAL CENTER DRIVE,,BRUNSWICK,ME,040112652,ROBERT MCCUE,"VICE PRESIDENT, FINANCE",2073736028,,RMCCUE@MIDCOASTHEALTH.COM,06/27/2017 13:53:16,ROBERT N. MCCUE-CFO,BAKER NEWMAN & NOYES LLC,280 FORE STREET,,PORTLAND,ME,041014177,WILLIAM J. DUNNETT,PRINCIPAL,2078792100,,BDUNNETT@BNNCPA.COM,06/27/2017 13:31:52,,O,,U,N,N,N,N,U,750000,Y,,967579,,N,N,N,N,N,N,,93,06/27/2017 00:00:00,06/28/2017 10:24:17,,N,902,1,x00,06/27/2017 00:00:00,,N,ROBERT N. MCCUE,CFO,06/27/2017 00:00:00,010494526,N,,N,N,,,,,Non-profit,UG,,,,,,10/01/2015 00:00:00,,,,
1209793,1485752016,2016,148575,06/30/2016 00:00:00,S,A,,N,042443107,,N,,TRITON REGIONAL SCHOOL DISTRICT,112 ELM STREET,,BYFIELD,MA,01922,MICHELLE CRESTA,BUSINESS ADMINISTRATOR,9784652397,,MICHELLE.CRESTA@TRITONSCHOOLS.ORG,03/27/2017 15:57:37,MICHELLE CRESTA-SCHOOL BUSINESS ADMINISTRATOR,"GIUSTI, HINGSTON & COMPANY","36 JACKMAN STREET, UNIT 1",,GEORGETOWN,MA,018331200,RICHARD C. HINGSTON,PARTNER,9783527470,,GIUSTIHINGSTONCO@AOL.COM,03/27/2017 15:41:04,,O,,U,N,N,N,N,U,750000,N,,1798676,,N,N,N,N,N,N,,84,03/27/2017 00:00:00,03/28/2017 10:46:18,,N,505,1,x00,03/27/2017 00:00:00,,N,MICHELLE CRESTA,SCHOOL BUSINESS ADMINISTRATOR,03/27/2017 00:00:00,043043736,N,,N,N,,,,,Local government,UG,,04/10/2017 12:05:59,04/13/2017 10:26:11,N,G,07/01/2015 00:00:00,,,,
1211351,2458682016,2016,245868,06/30/2016 00:00:00,S,A,,N,261491906,,N,,"PRESBYTERIAN APARTMENTS OF NORTHPORT II, INC.",3843 HIGHWAY 69 NORTH,,NORTHPORT,AL,35476,EDWARD HUBBARD,PRESIDENT,2053395180,,EHH@LSF.LEGAL,03/30/2017 17:58:26,EDWARD HUBBARD-PRESIDENT,HARIBN & STOUGH PC,P O BOX 2169,,TUSCALOOSA,AL,35403,PATRICIA STOUGH,CPA,2057583333,,PSTOUGH@HARBINANDSTOUGH.COM,03/30/2017 18:02:18,,O,,U,Y,N,N,N,U,750000,Y,,49572022,,Y,N,N,Y,N,N,,14,03/30/2017 00:00:00,03/31/2017 15:29:15,,N,888,1,x00x14,03/30/2017 00:00:00,,N,EDWARD HUBBARD,PRESIDENT,03/30/2017 00:00:00,200009416,N,,Y,Y,,,,,Non-profit,UG,,,,,,07/01/2015 00:00:00,,,,
1208815,1436622016,2016,143662,06/30/2016 00:00:00,S,A,,N,426004689,,Y,091375675,LEE COUNTY,933 AVENUE H,,FORT MADISON,IA,52627,DENISE FRAISE,COUNTY AUDITOR,3193723705,,DFRAISE@LEECOUNTY.ORG,05/25/2017 15:00:15,DENISE FRAISE-AUDITOR,AUDIOR OF STATE,STATE CAPITOL,,DES MOINES,IA,50319,DONNA KRUGER,MANAGER,5152815834,,DONNA.KRUGER@AUDITOR.STATE.IA.US,05/25/2017 15:04:03,,O,,U,Y,Y,N,N,U,750000,N,,1180098,,N,N,N,N,N,N,,20,05/25/2017 00:00:00,05/26/2017 11:09:35,,N,100,1,x00,05/25/2017 00:00:00,,N,DENISE FRAISE,AUDITOR,05/25/2017 00:00:00,426004571,Y,,Y,N,,,,,Local government,UG,,,,,,07/01/2015 00:00:00,,,,
1204818,2423792016,2016,242379,09/30/2016 00:00:00,S,A,,N,330457199,,N,,"THE SALVATION ARMY SEATTLE RESIDENCES, INC 127-EH148",180 EOCEAN BLVD  10TH FLOOR,,LONG BEACH,CA,90802,SUSAN LAWRENCE,DIRECTOR,5624918767,,SUSAN.LAWRENCE@USW.SALVATIONARMY.ORG,02/16/2017 19:04:58,SUSAN LAWRENCE-EXECUTIVE DIRECTOR,"FREEMAN & FREEMAN, CPA'S",17871 SANTIAGO BLVD  SUITE 225,,VILLA PARK,CA,92861,MARK FREEMAN,CPA,7149748143,,MJFREEMAN27@SBCGLOBAL.NET,02/14/2017 18:57:36,,O,,U,N,N,N,N,U,750000,Y,,3660893,,N,N,N,N,N,N,,14,02/16/2017 00:00:00,02/17/2017 10:39:50,,N,888,1,x00,02/16/2017 00:00:00,,N,SUSAN LAWRENCE,EXECUTIVE DIRECTOR,02/16/2017 00:00:00,330112006,N,,N,N,,,,,Non-profit,UG,,,,,,10/01/2015 00:00:00,,,,
1190109,2454292016,2016,245429,04/30/2016 00:00:00,S,A,,N,370896146,,N,,VILLAGE OF FAYETTEVILLE,2212 MAIN AVENUE,,FAYETTEVILLE,IL,62258,DORA BECKER,TREASURER,6186773343,,MOORESIMONIN@MRSACCOUNTANTS.COM,11/03/2016 17:25:31,ROBERT E. MOORE-CPA,"MOORE & SIMONIN, PC",3636 NORTH BELT WEST,,BELLEVILLE,IL,62226,"ROBERT E. MOORE, CPA",PARTNER,6182335049,,RWIEGAND@MRSACCOUNTANTS.COM,11/03/2016 17:13:54,,O,,S,Y,N,N,N,U,750000,N,,1524949,,N,N,N,N,N,N,,10,11/03/2016 00:00:00,11/04/2016 08:57:12,,N,888,1,x00,11/03/2016 00:00:00,,N,ROBERT E. MOORE,CPA,11/03/2016 00:00:00,371207139,N,,Y,N,OTHER,N,U,,LOCAL GOVERNMENT,UG,,,,,,05/01/2015 00:00:00,,,,
1191734,1656412016,2016,165641,06/30/2016 00:00:00,S,A,,N,731410240,,N,100065671,HENNESSEY  INDEPENDENT SCHOOL DISTRICT #16,604 E OKLAHOMA,,HENNESSEY,OK,73742,MIKE WOODS,SUPERINTENDENT,4058534321,,MWOODS@HPS.K12.OK.US,12/06/2016 12:18:07,MIKE WOODS-SUPERINTENDENT,"ANGEL, JOHNSTON AND BLASINGAME",PO BOX 706,,CHICKASHA,OK,73023,STEVE BLASINGAME,PARTNER,4052246363,,STEVE@AJB-CPAS.COM,12/06/2016 08:12:27,,O,,S,N,N,N,N,U,750000,N,,1128506,,N,N,N,N,N,N,,84,12/09/2016 00:00:00,12/12/2016 08:08:53,,N,505,1,x00,12/09/2016 00:00:00,,N,MIKE WOODS,SUPERINTENDENT,12/09/2016 00:00:00,731379344,N,,N,N,REGULATORY,Y,Q,,STATE,UG,,12/27/2016 11:42:33,01/05/2017 07:12:19,N,G,07/01/2015 00:00:00,,,,
1205948,1354472016,2016,135447,06/30/2016 00:00:00,S,A,,N,840558263,,N,082649674,MORGAN COUNTY SCHOOL DISTRICT RE-3,715 WEST PLATTE AVENUE,,FORT MORGAN,CO,80701,MICHAEL LEE,CHIEF FINANCIAL OFFICER,9708675633,,MIKE.LEE@MORGAN.K12.CO.US,03/13/2017 18:46:33,MIKE LEE-CHIEF FINANCIAL OFFICER,SWANHORST & COMPANY LLC,"8400 EAST CRESCENT PARKWAY, SUITE 600",,GREENWOOD VILLAGE,CO,80111,WENDY SWANHORST,PARTNER,7205284306,,WENDYSWANHORST@SWANHORST.NET,03/13/2017 19:49:19,,O,,U,N,N,N,N,U,750000,Y,,3625059,,N,N,N,N,N,N,,93,03/17/2017 00:00:00,03/20/2017 08:13:41,,N,505,1,x00,03/17/2017 00:00:00,,N,MIKE LEE,CHIEF FINANCIAL OFFICER,03/17/2017 00:00:00,841572271,N,,N,N,,,,,Local government,UG,,03/24/2017 15:53:18,03/30/2017 07:08:22,N,G,07/01/2015 00:00:00,,,,
1226940,2146962016,2016,214696,12/31/2016 00:00:00,S,A,,N,431565929,,N,,TRI-COUNTY WATER AUTHORITY,28405 EAST BLUE VALLEY ROAD,,INDEPENDENCE,MO,64058,JOHN OVERSTREET,MANAGER,8167965857,,J.OVERSTREET@TRI-COUNTYWATERAUTHORITY.COM,09/28/2017 09:55:28,JOHN OVERSTREET-GENERAL MANAGER,"TROUTT, BEEMAN & CO., P.C.","1212 LOCUST, PO BOX 160",,HARRISONVILLE,MO,64701,"MIKE GROSZEK, CPA",PRINCIPAL,8163805500,,MGROSZEK@TBCO.NET,09/28/2017 11:09:59,,O,,U,N,N,N,N,U,750000,N,,18836866,,N,N,N,N,N,Y,,66,09/28/2017 00:00:00,09/29/2017 09:34:20,,N,407,1,x00,09/28/2017 00:00:00,,N,JOHN OVERSTREET,GENERAL MANAGER,09/28/2017 00:00:00,431429186,N,,N,N,,,,,Non-profit,UG,,,,,,01/01/2016 00:00:00,,,,
1217393,1991792016,2016,199179,12/31/2016 00:00:00,S,A,,N,391940292,,N,135418635,"SAFE & SOUND, INC.",801 W MICHIGAN STREET,,MILWAUKEE,WI,53233,JOHN BRANNAN,ACCOUNTANT,4142204793,,JWBRANNAN@SAFESOUND.ORG,06/30/2017 12:22:03,KATIE SANDERS-EXECUTIVE DIRECTOR,"REILLY, PENNER & BENTON, LLP","1233 N. MAYFAIR ROAD, SUITE 302",,MILWAUKEE,WI,532263255,DAVID GROTKIN,PARTNER,4142717800,,DGROTKIN@RPBLLP.COM,06/15/2017 16:50:18,,O,,U,N,N,N,N,U,750000,Y,,1322236,,N,N,N,N,N,N,,95,06/30/2017 00:00:00,07/03/2017 11:12:53,,N,908,1,x00,06/30/2017 00:00:00,,N,KATIE SANDERS,EXECUTIVE DIRECTOR,06/30/2017 00:00:00,390747409,N,,N,N,,,,,Non-profit,UG,,,,,,01/01/2016 00:00:00,,,,
1202872,556082016,2016,55608,09/30/2016 00:00:00,S,A,,N,272236322,,N,,BETHANY VILLA HOUSING ASSOCIATION INCORPORATED II 044-11208,1792 JACKSON DRIVE,,TROY,MI,48083,MARGARET DAVEY,"PRESIDENT, PARAGON MANAGEMENT, INC.",2486852421,,PARAGON1000@COMCAST.NET,01/31/2017 10:43:20,MARGARET DAVEY-MANAGING AGENT,"MARTIN, ARRINGTON, DESAI & MEYERS, P.C.","30200 TELEGRAPH, SUITE 444",,BINGHAM FARMS,MI,48025,MONICA MEYERS,DIRECTOR,2486455370,,STIX414@AOL.COM,01/31/2017 10:19:31,,O,,U,N,N,N,N,U,750000,Y,,2808442,,N,N,N,N,N,N,,14,01/31/2017 00:00:00,02/01/2017 10:11:22,,N,903,1,x00,01/31/2017 00:00:00,,N,MARGARET DAVEY,MANAGING AGENT,01/31/2017 00:00:00,382071689,N,,N,N,,,,,Non-profit,UG,,,,,,10/01/2015 00:00:00,,,,
1179170,2175882016,2016,217588,06/30/2016 00:00:00,S,A,,N,346000500,,N,038092128,CANFIELD LOCAL SCHOOL DISTRICT,100 WADSWORTH STREET,,CANFIELD,OH,44406,PATRICIA PRINCE,TREASURER,3305333303,,PPRINCE@CANFIELDSCHOOLS.NET,03/29/2017 14:34:04,PATRICIA PRINCE-TREASURER,"DAVE YOST, AUDITOR OF STATE",88 E. BROAD ST.,,COLUMBUS,OH,43215,CHRISTINE PITLIK,SENIOR AUDIT MANAGER,8004439272,,CMPITLIK@OHIOAUDITOR.GOV,03/29/2017 13:07:56,,O,,U,N,N,N,N,U,750000,Y,,1046755,,N,N,N,N,N,N,,84,03/29/2017 00:00:00,03/30/2017 12:33:07,,N,505,1,x00,03/29/2017 00:00:00,,N,PATRICIA PRINCE,TREASURER,03/29/2017 00:00:00,311334820,N,,N,N,,,,,Local government,UG,,04/24/2017 15:45:48,04/27/2017 10:09:15,N,G,07/01/2015 00:00:00,,,,
1208518,2240792016,2016,224079,09/30/2016 00:00:00,S,A,,N,650645105,,N,,VILLAGE OF WELLINGTON,12300 FOREST HILL BLVD ,,WELLINGTON ,FL,33414,ANA ACEVEDO,CONTROLLER,5617532594,,AACEVEDO@WELLINGTONFL.GOV,03/22/2017 08:58:47,ANA ACEVEDO-CONTROLLER,GRAU & ASSOCIATES,2700 NORTH MILITARY TRAIL SUITE 350,,BOCA RATON,FL,33431,RACQUEL MCINTOSH,PARTNER,5619396669,,RMCINTOSH@GRAUCPA.COM,03/22/2017 14:23:07,,O,,U,N,N,N,N,U,750000,N,,1217095,,N,N,N,N,N,N,,20,03/22/2017 00:00:00,03/23/2017 09:54:26,,N,200,1,x00,03/22/2017 00:00:00,,N,ANA ACEVEDO,CONTROLLER,03/22/2017 00:00:00,202067322,N,,N,N,,,,,Local government,UG,,,,,,10/01/2015 00:00:00,,,,
1228693,1823722016,2016,182372,12/31/2016 00:00:00,S,A,,N,726001174,,N,079771176,SABINE PARISH POLICE JURY,"400 S. CAPITOL STREET, RM. 101",,MANY,LA,71449,WILLIAM E. WEATHERFORD,SECRETARY TREASURER,3182565637,,BILL.WEATHERFORD@OUTLOOK.COM,10/11/2017 14:49:15,WILLIAM WEATHERFORD-SECRETARY TREASURER,"DEES GARDNER, CERTIFIED PUBLIC ACCOUNTANTS, LLC",122 JEFFERSON STREET,,MANSFIELD,LA,71052,DEBORAH D. DEES,PRINCIPAL,3188723007,,DEESDEBORAHCPA@CP-TEL.NET,10/19/2017 14:06:09,,O,,UA,N,N,Y,N,U,750000,N,,2786790,,N,N,N,N,N,N,,17,10/19/2017 00:00:00,10/20/2017 11:58:03,,N,100,1,x00,10/19/2017 00:00:00,,N,WILLIAM WEATHERFORD,SECRETARY TREASURER,10/19/2017 00:00:00,814241129,N,,N,N,,,,,Local government,UG,,,,,,01/01/2016 00:00:00,,,,
1212583,2022982016,2016,202298,12/31/2016 00:00:00,S,A,,N,161559449,,N,601486009,BISHOP'S COMMONS INC. (BISHOP'S COMMONS AT ST LUKE) #014-43134,4 BURKLE STREET,,OSWEGO,NY,13126,SHELLY YONGS,CONTROLLER,3153423166,,SYOUNGS@STLUKEHS.COM,04/14/2017 09:00:17,SHELLY YOUNGS-CONTROLLER,"BONADIO & CO., LLP","171 SULLY'S TRAIL, SUITE 201",,PITTSFORD,NY,14534,KELLEY DEMONTE,PRINCIPAL,5852492864,,KDEMONTE@BONADIO.COM,04/14/2017 06:35:23,,O,,U,N,N,N,N,U,750000,Y,,4597040,,N,N,N,N,N,N,,14,04/14/2017 00:00:00,04/17/2017 08:46:05,,N,903,1,x00,04/14/2017 00:00:00,,N,SHELLY YOUNGS,CONTROLLER,04/14/2017 00:00:00,161131146,N,,N,N,,,,,Non-profit,UG,,,,,,01/01/2016 00:00:00,,,,
1287593,1766322016,2016,176632,12/31/2016 00:00:00,S,A,,N,916001429,,N,037415189,CITY OF FERNDALE,2095 MAIN ST,,FERNDALE,WA,98248,SIRKE SALMINEN,FINANCE DIRECTOR,3606852352,,SIRKESALMINEN@CITYOFFERNDALE.ORG,02/08/2019 17:28:25,SIRKE SALMINEN-FINANCE DIRECTOR,WASHINGTON STATE AUDITOR'S OFFICE,"11 BELLWETHER WAY, SUITE 211",,BELLINGHAM,WA,98225,DEENA GARZA,AUDIT MANAGER,3606762165,,DEENA.GARZA@SAO.WA.GOV,02/08/2019 17:29:04,,O,,S,N,N,N,N,U,750000,N,,802975,,N,N,N,N,N,N,,97,02/08/2019 00:00:00,02/12/2019 01:30:39,,N,200,1,x00,09/27/2017 00:00:00,,N,SIRKE SALMINEN,FINANCE DIRECTOR,09/27/2017 00:00:00,916001098,N,,N,N,CASH,N,U,,Local government,UG,,,,,,01/01/2016 00:00:00,,,,
1181334,2011802016,2016,201180,06/30/2016 00:00:00,S,A,,N,311037321,,N,602416286,"NCR OF NESHANNOCK, PA DBA NESHANNOCK WOODS 033-11089",2335 NORTH BANK DRIVE,,COLUMBUS,OH,43220,ELIZABETH KING,HOUSING ACCOUTING SUPPORT SUPERVISOR,6142732179,,EKING@NATIONALCHURCHRESIDENCES.ORG,09/29/2016 16:24:09,JULIE FRATIANNE-VICE PRESIDENT OF HOUSING ACCOUNTING,"DAUBY O'CONNOR & ZALESKI, LLC","501 CONGRESSIONAL BLVD, SUITE 300",,CARMEL,IN,46032,HEATHER PERRY,MEMBER,3178485700,,HPERRY@DOZ.NET,09/30/2016 09:48:39,,O,,U,N,N,N,N,U,750000,Y,,3839500,,N,N,N,N,N,N,,14,09/30/2016 00:00:00,10/03/2016 09:11:17,,N,903,1,x00,09/30/2016 00:00:00,,N,JULIE FRATIANNE,VICE PRESIDENT OF HOUSING ACCOUNTING,09/30/2016 00:00:00,351750664,N,,N,N,,,,,NON-PROFIT,UG,,,,,,07/01/2015 00:00:00,,,,
1195897,2277692016,2016,227769,06/30/2016 00:00:00,S,A,,N,204861191,,N,,MASTERY CHARTER SCHOOL - THOMAS CAMPUS,5700 WAYNE AVENUE,,PHILADELPHIA,PA,19144,THOMAS E. GREENWOOD,DEPUTY CHIEF OF FINANCE,2158669000,,THOMAS.GREENWOOD@MASTERYCHARTER.ORG,01/26/2017 13:25:05,THOMAS E. GREENWOOD-DEPUTY CHIEF OF FINANCE,CLIFTONLARSONALLEN LLP,"610 W. GERMANTOWN PIKE, SUITE 400",,PLYMOUTH MEETING,PA,19462,"DAVID M. SEKERAK, CPA",DIRECTOR,2156433900,,DAVID.SEKERAK@CLACONNECT.COM,01/26/2017 15:58:57,,O,,U,N,N,N,N,U,750000,Y,,1763908,,N,N,N,N,N,N,,84,01/27/2017 00:00:00,01/30/2017 08:21:27,,N,905,1,x00,01/27/2017 00:00:00,,N,THOMAS E. GREENWOOD,DEPUTY CHIEF OF FINANCE,01/27/2017 00:00:00,410746749,N,,N,N,,,,,Non-profit,UG,,01/30/2017 11:13:42,02/02/2017 08:34:46,N,G,07/01/2015 00:00:00,,,,
1220444,1999752016,2016,199975,12/31/2016 00:00:00,S,A,,N,391252454,,N,793769014,DANE COUNTY HOUSING AUTHORITY,"6000 GISHOLT DRIVE, SUITE 203",,MONONA,WI,53713,ROBERT DICKE,EXECUTIVE DIRECTOR,6082243636,,RDICKE@DCHA.NET,09/28/2017 09:50:55,ROBERT DICKE-EXECUTIVE DIRECTOR,"BAKER TILLY VIRCHOW KRAUSE, LLP",10 TERRACE COURT PO BOX 7398,,MADISON,WI,537077398,CARLA GOGIN,PARTNER,6082402460,,CARLA.GOGIN@BAKERTILLY.COM,09/28/2017 09:13:00,,O,,U,N,Y,N,N,U,750000,N,,8626670,,Y,Y,Y,Y,Y,N,,14,09/28/2017 00:00:00,09/29/2017 08:31:05,,N,403,1,x14,09/28/2017 00:00:00,,N,ROBERT DICKE,EXECUTIVE DIRECTOR,09/28/2017 00:00:00,380859910,Y,,N,Y,,,,,Local government,UG,,,,,,01/01/2016 00:00:00,,,,
1206870,1758682016,2016,175868,06/30/2016 00:00:00,S,A,,N,030218356,,N,,WINDSOR SOUTHEAST SUPERVISORY UNION,105 MAIN STREET STE 200,,WINDSOR,VT,05089,ED CONNORS,BUSINESS MANAGER,8026742144,,ECONNORS@WSESU.NET,03/08/2017 12:47:34,ED CONNORS-BUSINESS MANAGER,ANGOLANO & COMPANY CPA PC,PO BOX 639,,SHELBURNE,VT,054820639,DAVID H ANGOLANO,CPA,8029858992,,DAVIDH@ANGOLANOANDCOMPANY.COM,03/08/2017 17:11:18,,O,,U,N,N,N,N,U,750000,N,,1272182,,N,N,N,N,N,N,,84,03/08/2017 00:00:00,03/09/2017 07:26:04,,N,505,1,x00,02/17/2017 00:00:00,,N,ED CONNORS,BUSINESS MANAGER,03/08/2017 00:00:00,030322470,N,,N,N,,,,,Local government,UG,,03/14/2017 08:39:37,03/16/2017 07:04:52,N,G,07/01/2015 00:00:00,,,,
1223554,1692022016,2016,169202,12/31/2016 00:00:00,S,A,,N,232006653,,N,056325448,LEHIGH COUNTY HOUSING AUTHORITY,635 BROAD STREET,,EMMAUS,PA,180492757,KIMBERLY MONZO,COMPTROLLER,6109654514,,KIM@LCHA-VHDC.ORG,09/01/2017 14:01:47,KIMBERLY MONZO-COMPTROLLER,NOVOGRADAC & COMPANY LLP,"1433 HOOPER AVENUE, SUITE 329",,TOMS RIVER,NJ,08753,THOMAS STETSON,MANAGER,7326237004,,THOMAS.STETSON@NOVOCO.COM,09/01/2017 12:34:20,,O,,U,N,N,N,N,U,750000,N,,10727534,,N,N,N,N,N,N,,14,09/01/2017 00:00:00,09/05/2017 09:36:03,,N,403,1,x00,09/01/2017 00:00:00,,N,KIMBERLY MONZO,COMPTROLLER,09/01/2017 00:00:00,943108253,N,,N,N,,,,,Local government,UG,,,,,,01/01/2016 00:00:00,,,,
1209945,1525842016,2016,152584,06/30/2016 00:00:00,S,A,,N,646000320,,N,083266655,DESOTO COUNTY SCHOOL DISTRICT,5 EAST SOUTH STREET,,HERNANDO,MS,38632,STACEY GRAVES,BUSINESS MANAGER,6624295271,,STACEY.GRAVES@DCSMS.ORG,03/27/2017 09:22:34,STACEY GRAVES-CHIEF FINANCIAL OFFICER,"CHARLES L SHIVERS, CPA< LLC",P O BOX 2775,,RIDGELAND,MS,39158,CHARLES L SHIVERS,OWNER,6019416649,,CLSCPA@BELLSOUTH.NET,03/26/2017 08:19:39,,O,,U,Y,N,N,N,U,839828,N,,27994254,,N,N,N,N,N,N,,12,03/27/2017 00:00:00,03/28/2017 07:29:06,,N,505,1,x00,03/27/2017 00:00:00,,N,STACEY GRAVES,CHIEF FINANCIAL OFFICER,03/27/2017 00:00:00,263752369,N,,Y,N,,,,,Local government,UG,,03/29/2017 08:15:57,04/06/2017 08:47:45,N,G,07/01/2015 00:00:00,,,,
1220063,1951502016,2016,195150,12/31/2016 00:00:00,S,A,,N,376001425,,N,004221881,GRANITE CITY HOUSING AUTHORITY,2517 NAMEOKI RD.,,GRANITE CITY,IL,62040,SHARON MATHES,EXECUTIVE DIRECTOR,6188760973,,SHARON.MATHES@GRANITECITYHA.ORG,07/25/2017 14:42:10,SHARON MATHES-EXECUTIVE DIRECTOR,"PAMELA J. SIMPSON, CPA",920 W. PERSHING RD.,,DECATUR,IL,62526,PAMELA J. SIMPSON,OWNER,2178721908,,CPAOFFC@AOL.COM,08/03/2017 15:29:42,,O,,U,N,N,N,N,U,750000,Y,,2004014,,N,N,N,N,N,N,,14,08/03/2017 00:00:00,08/04/2017 08:46:38,,N,403,1,x00,08/03/2017 00:00:00,,N,SHARON MATHES,EXECUTIVE DIRECTOR,08/03/2017 00:00:00,371267246,N,,N,N,,,,,Local government,UG,,,,,,01/01/2016 00:00:00,,,,
1227599,1309842016,2016,130984,12/31/2016 00:00:00,S,A,,N,716016996,,N,,CITY OF MCGEHEE ARKANSAS,901 HOLLY STREET,,MCGEHEE,AR,71654,KARON WHITE,FINANCE,8702223160,,KWHITE50@SBCGLOBAL.NET,10/04/2017 11:33:12,KARON WHITE-TREASURER,SEARCY AND ASSOCIATES,201 SOUTH MAIN STREET,,MONTICELLO,AR,71655,TINA MARTIN,MEMBER,8703673580,,TMARTIN@CCC-CABLE.NET,09/29/2017 17:28:51,,O,,S,N,N,N,N,U,750000,N,,2366209,,N,N,N,N,N,Y,,10,10/04/2017 00:00:00,10/05/2017 09:58:53,,N,200,1,x00,10/04/2017 00:00:00,,N,KARON WHITE,TREASURER,10/04/2017 00:00:00,421570005,N,,N,N,REGULATORY,Y,U,,Local government,UG,,,,,,01/01/2016 00:00:00,,,,
1192126,1542062016,2016,154206,06/30/2016 00:00:00,S,A,,N,446004985,,N,021501838,MOUNTAIN GROVE R-III SCHOOL DISTRICT,PO BOX 806,,MOUNTAIN GROVE,MO,657110806,JIM DICKEY,SUPERINTENDENT,4179263177,,JDICKEY@MG.K12.MO.US,11/18/2016 13:59:42,JIM DICKEY-SUPERINTENDENT,MATTHEW L JAMES CPA,203 N WALNUT STREET,,WILLOW SPRINGS,MO,65793,MATTHEW L JAMES,CERTIFIED PUBLIC ACCOUNTANT,4174693636,,MLJCPA@CENTURYTEL.NET,11/18/2016 13:11:17,,O,,S,N,Y,N,N,U,750000,N,,2040241,,N,N,N,N,N,N,,12,11/18/2016 00:00:00,11/21/2016 09:18:51,,N,505,1,x00,11/18/2016 00:00:00,,N,JIM DICKEY,SUPERINTENDENT,11/18/2016 00:00:00,431714830,Y,,N,N,CASH,N,U,,LOCAL GOVERNMENT,UG,,11/21/2016 15:39:14,12/01/2016 08:48:16,N,G,07/01/2015 00:00:00,,,,
1184701,2272992016,2016,227299,06/30/2016 00:00:00,S,A,,N,721600835,,N,966141785,"REDFORD VOA ELDERLY HOUSING, INC. (COVENTRY PLACE II)044-EE093",1660 DUKE STREET,,ALEXANDRIA,VA,22314,VANESSA TRAN,"CONTROLLER, HOUSING",7033415000,,VTRAN@VOA.ORG,11/15/2016 16:37:06,"VANESSA TRAN-CONTROLLER, HOUSING","MADDOX & ASSOCIATES, APC","5627 BANKERS AVENUE, BUILDING 2",,BATON ROUGE,LA,708082610,BRYAN BEALE,CPA,2259263360,,MAIL@MADDOXASSOCIATES.COM,11/25/2016 13:38:15,,O,,U,N,N,N,N,U,750000,Y,,3934268,,N,N,N,Y,N,N,,14,11/25/2016 00:00:00,11/28/2016 07:49:39,,N,903,1,x14x00,11/25/2016 00:00:00,,N,VANESSA TRAN,"CONTROLLER, HOUSING",11/25/2016 00:00:00,721314069,N,,N,N,,,,,NON-PROFIT,UG,,,,,,07/01/2015 00:00:00,,,,
1219979,1935482016,2016,193548,12/31/2016 00:00:00,S,A,,N,846000677,,N,156134397,"CITY OF HOLYOKE, COLORADO",407 EAST DENVER STREET,,HOLYOKE,CO,80734,KATHLEEN L. OLOFSON,CITY CLERK/TREASURER,9708542266,,CITYCLERK@CITYOFHOLYOKE-CO.GOV,07/18/2017 11:49:22,KATHLEEN L. OLOFSON-CITY CLERK/TREASURER,"LAUER, SZABO & ASSOCIATES, P.C.",205 MAIN STREET - P.O. BOX 1886,,STERLING,CO,80751,SCOTT SZABO,CERTIFIED PUBLIC ACCOUNTANT,9705222218,,SSZABO@LAUERCPA.COM,07/18/2017 11:41:43,,O,,U,N,N,N,N,U,750000,N,,1114546,,N,N,N,N,N,N,,20,07/18/2017 00:00:00,07/19/2017 08:36:49,,N,888,1,x00,07/18/2017 00:00:00,,N,KATHLEEN L. OLOFSON,CITY CLERK/TREASURER,07/18/2017 00:00:00,841154648,N,,N,N,,,,,Local government,UG,,,,,,01/01/2016 00:00:00,,,,
1206088,1377022016,2016,137702,06/30/2016 00:00:00,S,A,,N,586000240,,N,100013697,FANNIN COUNTY BOARD OF EDUCATION,2290 EAST FIRST STREET,,BLUE RIDGE,GA,30513,SUSAN HOLLOWAY,FINANCE DIRECTOR,7066323771,,SHOLLOWAY@FANNIN.K12.GA.US,03/27/2017 14:41:52,SUSAN HOLLOWAY-FINANCE DIRECTOR,GEORGA DEPARTMENT OF AUDITS AND ACCOUNTS,270 WASHINGTON STREET S. W. SUITE 1-156,,ATLANTA,GA,30334,JENNA OGLESBEE,AUDIT PROCESSING SPECIALIST,4044630171,,OGLESBEE@AUDITS.GA.GOV,03/28/2017 07:56:20,,O,,U,N,N,N,N,U,750000,Y,,3607792,,N,N,N,N,N,N,,84,03/28/2017 00:00:00,03/29/2017 07:24:54,,N,505,1,x00,03/28/2017 00:00:00,,N,SUSAN HOLLOWAY,FINANCE DIRECTOR,03/28/2017 00:00:00,586002005,N,,N,N,,,,,Local government,UG,,03/31/2017 09:26:45,04/06/2017 08:47:45,N,G,07/01/2015 00:00:00,,,,
1202527,2097412016,2016,209741,06/30/2016 00:00:00,S,A,,N,396025155,,N,017355124,MONTELLO SCHOOL DISTRICT,222 FOREST LANE,,MONTELLO,WI,53949,LYNN BROWN,DISTRICT ADMINISTRATOR,6082972669,,BLBROWN@MONTELLOSCHOOLS.ORG,02/04/2017 10:04:22,LYNN BROWN-DISTRICT ADMINISTRATOR,"MILLER, BRUSSELL, EBBEN & GLAESKE LLC",611 E.WISCONSIN STREET,,PORTAGE,WI,53901,TERRY GEHRMAN,CPA,6087422103,,GEHRMANT@MBEGCPAS.COM,01/31/2017 09:12:43,,O,,U,Y,N,N,N,U,750000,Y,,824131,,Y,N,N,Y,N,N,,84,02/04/2017 00:00:00,02/06/2017 08:58:33,,N,505,1,x00,02/04/2017 00:00:00,,N,LYNN BROWN,DISTRICT ADMINISTRATOR,02/04/2017 00:00:00,390888608,N,,Y,Y,,,,,Local government,UG,,02/13/2017 14:30:10,02/16/2017 09:59:00,N,G,07/01/2015 00:00:00,,,,
1207931,2414942016,2016,241494,12/31/2016 00:00:00,S,A,,N,846111114,,N,156135394,GRAND JUNCTION REGIONAL AIRPORT AUTHORITY,800 EAGLE DRIVE,,GRAND JUNCTION,CO,81506,TY MINNICK,FINANCE AND ACCOUNTING MANAGER,9702488593,,TMINNICK@GJAIRPORT.COM,03/13/2017 15:31:57,TY MINNICK-FINANCE MANAGER,EKS&H LLLP,"7979 EAST TUFTS AVENUE, SUITE 400",,DENVER,CO,80237,LISA MEACHAM,PARTNER,3032244634,,LMEACHAM@EKSH.COM,03/13/2017 16:09:39,,O,,U,N,N,N,N,U,750000,N,,2227090,,N,N,N,N,N,N,,20,03/14/2017 00:00:00,03/17/2017 08:04:56,,N,888,1,x00,03/14/2017 00:00:00,,N,TY MINNICK,FINANCE MANAGER,03/14/2017 00:00:00,461497033,N,,N,N,,,,,Local Government,UG,,,,,,01/01/2015 00:00:00,,,,
1176294,1859022016,2016,185902,06/30/2016 00:00:00,S,A,,N,311399590,,N,961704608,"LSSCO - DELAWARE HOUSING, INC.  DBA OAKHURST PLACE -  043-EE025-NP-WAH","500 W WILSON BRIDGE ROAD, SUITE 245",,WORTHINGTON,OH,43085,PHIL HELSER,CHIEF FINANCIAL OFFICER,6142285200,,PHELSER@LSSCO.ORG,10/10/2016 14:52:12,PHIL HELSER-CFO,"PLANTE & MORAN, PLLC","250 SOUTH HIGH STREET, SUITE 100",,COLUMBUS,OH,43215,JASON GIHA,PARTNER,6148493000,,PM.SINGLEAUDIT@PLANTEMORAN.COM,09/27/2016 21:20:32,,O,,U,N,N,N,N,U,750000,Y,,2620541,,N,N,N,N,N,N,,14,10/10/2016 00:00:00,10/11/2016 11:30:19,,N,903,1,x0,10/10/2016 00:00:00,,N,PHIL HELSER,CFO,10/10/2016 00:00:00,381357951,N,,N,N,,,,,NON-PROFIT,UG,,,,,,07/01/2015 00:00:00,,,,
1210048,1778192016,2016,177819,06/30/2016 00:00:00,S,A,,N,556000334,,N,839762739,JEFFERSON COUNTY BOARD OF EDUCATION,110 MORDINGTON AVENUE,,CHARLES TOWN,WV,25414,BETH MARRONE,TREASURER,3047289244,,BMARRONE@K12.WV.US,03/28/2017 10:58:06,BETH MARRONE-CHIEF SCHOOL BUSINESS OFFICIAL,"PERRY & ASSOCIATES CPAS, A.C.",313 SECOND STREET,,MARIETTA,OH,45750,RANDY NELSON,SENIOR AUDIT MANAGER,7403730056,,RNELSON@PERRYCPAS.NET,03/27/2017 10:56:06,,O,,U,N,N,N,N,U,750000,N,,6596516,,N,N,N,N,N,N,,84,03/28/2017 00:00:00,03/29/2017 08:38:52,,N,505,1,x00,03/28/2017 00:00:00,,N,BETH MARRONE,CHIEF SCHOOL BUSINESS OFFICIAL,03/28/2017 00:00:00,550771624,N,,N,N,,,,,Local government,UG,,04/19/2017 08:20:15,04/27/2017 10:09:15,N,G,07/01/2015 00:00:00,,,,
1186373,2367392016,2016,236739,03/31/2016 00:00:00,S,A,,N,352367059,,N,,"KALISPELL SENIOR HOUSING, INC. 093-EE021",2550 UNIVERSITY AVE. W. SUITE 330N,,ST. PAUL,MN,55114,CHUCK REUTER,ACCOUNTING MANAGER,6516457271,,CREUTER@ACCESSIBLESPACE.ORG,10/19/2016 13:52:58,CHUCK REUTER-ACCOUNTING MANAGER,"HINRICHS & ASSOCIATES, LTD.","1000 SHELARD PARKWAY, STE 110",,MINNEAPOLIS,MN,55426,ROBERT BAKER,SHAREHOLDER,9525428010,,BOB@HINRICHSASSOCIATES.COM,10/24/2016 07:37:09,,O,,U,N,N,N,N,U,750000,N,,3571933,,N,N,N,N,N,N,,14,10/24/2016 00:00:00,10/25/2016 07:31:49,,N,903,1,x00,10/24/2016 00:00:00,,N,CHUCK REUTER,ACCOUNTING MANAGER,10/24/2016 00:00:00,411629155,N,,N,N,,,,,NON-PROFIT,UG,,,,,,04/01/2015 00:00:00,,,,
1203461,1341992016,2016,134199,06/30/2016 00:00:00,S,A,,N,952939365,,N,,SAN MARCOS UNIFIED SCHOOL DISTRICT,255 PICO AVENUE STE 250,,SAN MARCOS,CA,92069,DAVID MCADAMS,EXECUTIVE DIRECTOR OF FINANCE,7607521260,,DAVID.MCADAMS@SMUSD.ORG,02/02/2017 13:41:28,DAVID MCADAMAS-EXECUTIVE DIRECTOR OF FINANCE,WILKINSON HADLEY KING & CO. LLP,218 W. DOUGLAS AVE,,EL CAJON,CA,92020,P. ROBERT WILKINSON,PARTNER,6194476700,,WHKLLP@GMAIL.COM,02/02/2017 13:14:55,,O,,U,N,N,N,N,U,750000,Y,,14969063,,N,N,N,N,N,N,,93,02/02/2017 00:00:00,02/03/2017 10:53:07,,N,505,1,x00,02/02/2017 00:00:00,,N,DAVID MCADAMAS,EXECUTIVE DIRECTOR OF FINANCE,02/02/2017 00:00:00,522354566,N,,N,N,,,,,Local government,UG,,02/13/2017 09:56:41,02/16/2017 09:59:00,N,G,07/01/2015 00:00:00,,,,
1219762,127972016,2016,12797,12/31/2016 00:00:00,S,A,,N,133073995,,N,603651121,ERMA CAVA HOUSING DEVELOPMENT FUND CO. INC. 012-11-284,885 BRUCKNER BLVD,,BRONX,NY,10459,IAN RESNICK,CONTROLLER,7186172800,,IRESNICK@SEBCODEVELOPMENT.ORG,07/13/2017 10:46:46,IAN RESNICK-CONTROLLER,"A GARY AARONSON CPA, PLLC",42 W 38TH STREET SUITE 1003,,NEW YORK,NY,10018,A GARY AARONSON,CPA,2126845770,,AGCOUNT@AOL.COM,07/14/2017 15:10:05,,O,,U,N,N,N,N,U,750000,Y,,2736548,,N,N,N,N,N,N,,14,07/14/2017 00:00:00,07/17/2017 08:57:37,,N,903,1,x00,07/14/2017 00:00:00,,N,IAN RESNICK,CONTROLLER,07/14/2017 00:00:00,453610272,N,,N,N,,,,,Non-profit,UG,,,,,,01/01/2016 00:00:00,,,,
1211026,2178282016,2016,217828,06/30/2016 00:00:00,S,A,,N,582065581,,N,170477319,"CHRISTIAN MANOR, II, INC.  086-EE014",100 RIVERA DRIVE,,HENDERSONVILLE,TN,37075,ROBERT PAGE,MANAGER,6158249250,,CM2@BELLSOUTH.NET,03/30/2017 12:21:11,ROBERT PAGE-PROPERTY MANAGER,"JOHN P. YOUNG, P.C.","114 CANFIELD PLACE, A-7",,HENDERSONVILLE,TN,37075,"JOHN P. YOUNG, CPA",PRESIDENT,6158228202,,JOHNYOUNGPC@BELLSOUTH.NET,03/29/2017 21:42:25,,O,,U,N,N,N,N,U,750000,N,,3947447,,N,N,N,N,N,N,,14,03/30/2017 00:00:00,03/31/2017 09:49:19,,N,903,1,x00,03/30/2017 00:00:00,,N,ROBERT PAGE,PROPERTY MANAGER,03/30/2017 00:00:00,621796708,N,,N,N,,,,,Non-profit,UG,,,,,,07/01/2015 00:00:00,,,,
1197899,1359232016,2016,135923,06/30/2016 00:00:00,S,A,,N,060862104,,N,131006777,HOUSING AUTHORITY OF THE TOWN OF HAMDEN,P.O. BOX 185095,,HAMDEN,CT,06518,HAZELANN COOK,EXECTUTIVE DIRECTOR,2032489036,,HHAHAZEL@AOL.COM,12/28/2016 15:00:44,HAZELANN COOK-EXECUTIVE DIRECTOR,"DOOLEY & VICARS CPAS, LLP",21 S. SHEPPARD STREET,,RICHMOND,VA,23221,TODD VERNON,CPA,8043552808,,TODD@DVCPAS.COM,12/28/2016 15:11:10,,O,,U,N,N,N,N,U,750000,Y,,2595758,,N,N,N,N,N,N,,14,12/28/2016 00:00:00,12/29/2016 09:33:47,,N,403,1,x00,12/28/2016 00:00:00,,N,HAZELANN COOK,EXECUTIVE DIRECTOR,12/28/2016 00:00:00,541950231,N,,N,N,,,,,Local government,UG,,,,,,07/01/2015 00:00:00,,,,
1179204,2207802016,2016,220780,06/30/2016 00:00:00,S,A,,N,571018175,,N,192269236,"ROCK HILL SENIOR PROPERTIES, INC DBA GREEN STREET PLAZA APTS  054EE016",1415 OLD MILL CIRCLE,,WINSTON-SALEM,NC,27103,LAURA GRIMES,ACCOUNTING MANAGER,3362318134,,LGRIMES@CMC-NC.COM,10/03/2016 10:36:03,LAURA GRIMES-ACCOUNTING MANAGER,"DAUBY O'CONNOR & ZALESKI, LLC","501 CONGRESSIONAL BLVD., SUITE 300",,CARMEL,IN,46032,HEATHER PERRY,MEMBER,3178485700,,HPERRY@DOZ.NET,10/03/2016 16:11:04,,O,,U,N,N,N,N,U,750000,Y,,3558016,,N,N,N,N,N,N,,14,10/03/2016 00:00:00,10/04/2016 09:23:26,,N,903,1,x00,10/03/2016 00:00:00,,N,LAURA GRIMES,ACCOUNTING MANAGER,10/03/2016 00:00:00,351750664,N,,N,N,,,,,NON-PROFIT,UG,,,,,,07/01/2015 00:00:00,,,,
1239856,226872016,2016,22687,12/31/2016 00:00:00,S,A,,N,222577631,,N,,"THE GREATER MERCER TRANSPORTATION MANAGEMENT ASSOCIATION, INC.",15 ROSZEL ROAD,,PRINCETON,NJ,08540,CHERYL KASTRENAKES,EXECUTIVE DIRECTOR,6094521491,,CKASTRENAKES@GMTMA.ORG,12/27/2017 11:31:13,CHERYL KASTRENAKES-EXECUTIVE DIRECTOR,"KLATZKIN & COMPANY, LLP",1670 WHITEHORSE-HAMILTON SQUARE ROAD,,HAMILTON,NJ,08690,BRUCE LUDLOW,PARTNER,6098909189,,BLUDLOW@KLATZKIN.COM,12/29/2017 13:25:00,,O,,U,Y,N,N,N,U,750000,N,,954351,,Y,N,N,Y,Y,Y,,20,12/29/2017 00:00:00,01/03/2018 12:55:14,,N,906,1,x20x00,12/29/2017 00:00:00,,N,CHERYL KASTRENAKES,EXECUTIVE DIRECTOR,12/29/2017 00:00:00,210650289,N,,Y,Y,,,,,Non-profit,UG,,,,,,01/01/2016 00:00:00,,,,
1219120,2388032016,2016,238803,09/30/2016 00:00:00,S,A,,N,261492440,,N,965386860,"WELLNESS HOUSE, INC. HALE OLI PROJECT 140-HD032-NP-CMI","1221 KAPIOLANI BLOULEVARD, SUITE 345",,HONOLULU,HI,968143510,MELBY ALBANO,HOUSING DIVISION MANAGER,8085294557,,MALBANO@MHKHAWAII.ORG,06/30/2017 23:16:43,MELBY ALBANO-HOUSING DIVISION MANAGER,"WIKOFF COMS & CO., LLC","1001 BISHOP STREET, SUITE 2760",,HONOLULU,HI,96813,JENNIE YU,SENIOR AUDIT MANAGER,8087911414,,JENNIE@WIKOFFCOMBSCPA.COM,06/30/2017 23:21:45,,O,,U,N,N,N,N,U,750000,Y,,851915,,N,N,N,N,N,N,,14,06/30/2017 00:00:00,07/05/2017 14:51:03,,N,888,1,x00,06/30/2017 00:00:00,,N,MELBY ALBANO,HOUSING DIVISION MANAGER,06/30/2017 00:00:00,651203311,N,,N,N,,,,,Non-profit,UG,,,,,,10/01/2015 00:00:00,,,,
1196050,1526022016,2016,152602,06/30/2016 00:00:00,S,A,,N,640501359,,N,,CLINTON PUBLIC SCHOOL DISTRICT,203 EASTHAVEN DR,,CLINTON,MS,39056,SANDY HALLIWELL,BUSINESS MANAGER,6019247533,,SHALLIWELL@CLINTONPUBLICSCHOOLS.COM,12/15/2016 10:19:39,SANDI HALLIWELL-FINANCE DIRECTOR,"FORTENBERRY & BALLARD, PC","1929 SPILLWAY RD, SUITE B",,BRANDON,MS,390476079,BRENT BALLARD,PARTNER,6019925292,,BRENT@FORTCPA.COM,12/20/2016 14:22:30,,O,,U,N,N,N,N,U,750000,Y,,3920389,,N,N,N,N,N,N,,84,12/20/2016 00:00:00,12/21/2016 11:00:34,,N,505,1,x00,12/20/2016 00:00:00,,N,SANDI HALLIWELL,FINANCE DIRECTOR,12/20/2016 00:00:00,640887736,N,,N,N,,,,,Local government,UG,,01/06/2017 17:06:10,01/12/2017 09:47:01,N,G,07/01/2015 00:00:00,,,,
1222558,2452032016,2016,245203,12/31/2016 00:00:00,S,A,,N,454323888,,N,078367362,THE SCINTILLON INSTITUTE,6868 NANCY RIDGE DRIVE,,SAN DIEGO,CA,92121,ERICA CHAVIN,"DIRECTOR, SPONSORED RESEARCH AND ADMIN",8586579145,,ERICACHAVIN@SCINTILLON.ORG,09/08/2017 11:10:12,ERICA CHAVIN-DIRECTOR,"LEAF & COLE, LLP","2810 CAMINO DEL RIO SOUTH, STE 200",,SAN DIEGO,CA,92108,JULIE FIRL,PARTNER,6192947200,,LEAFCOLEDATA@LEAF-COLE.COM,09/11/2017 11:25:51,,O,,U,Y,N,N,N,U,750000,N,,3264366,,Y,N,N,Y,Y,N,,93,09/11/2017 00:00:00,09/12/2017 10:20:28,,N,888,1,x93,09/11/2017 00:00:00,,N,ERICA CHAVIN,DIRECTOR,09/11/2017 00:00:00,952076568,N,,Y,Y,,,,,Non-profit,UG,,,,,,01/01/2016 00:00:00,,,,
1210081,927842016,2016,92784,06/30/2016 00:00:00,S,A,,N,620202000,,N,052144326,FISK UNIVERSITY,1000 17TH AVENUE NORTH,,NASHVILLE,TN,37208,WILLIE HUGHEY,VP OF FINANCE & ADMINISTRATION,6153212389,,WHUGHEY@FISK.EDU,03/29/2017 18:24:14,WILLIE HUGHEY-INTERIM VICE PRESIDENT OF FINANCE &CFO,"CROSSLIN, PLLC","3803 BEDFORD AVENUE, SUIT 103",,NASHVILLE,TN,37215,DAVID HUNT,AUDIT PRINCIPAL,6153205500,,DAVID.HUNT@CROSSLINPC.COM,03/29/2017 15:33:57,,O,,U,N,Y,N,N,Q,750000,N,,17884764,,Y,Y,Y,Y,Y,N,,84,03/29/2017 00:00:00,03/30/2017 10:26:25,,N,904,1,x84,03/29/2017 00:00:00,,N,WILLIE HUGHEY,INTERIM VICE PRESIDENT OF FINANCE &CFO,03/29/2017 00:00:00,275360847,Y,,N,Y,,,,,Local Government,UG,00349000,03/31/2017 11:00:55,04/06/2017 08:47:45,S,B,01/01/2016 00:00:00,,,,
1185711,1849592016,2016,184959,06/30/2016 00:00:00,S,A,,N,936002376,,N,037077195,PACIFIC STATES MARINE FISHERIES COMMISSION,"205 SE SPOKANE STREET, SUITE 100",,PORTLAND,OR,972026413,PAM KAHUT,FISCAL MANAGER,5035953232,,PKAHUT@PSMFC.ORG,10/06/2016 14:58:35,PAM KAHUT-FINANCE OFFICER,"CLIFTONLARSONALLEN, LLP","3000 NORTHUP WAY, SUITE 200",,BELLEVUE,WA,980041446,CAROLINE WRIGHT,ENAGEMENT DIRECTOR,5093636351,,CAROLINE.WRIGHT@CLACONNECT.COM,10/06/2016 14:05:31,,O,,U,N,N,N,N,U,1468356,Y,,48945194,,N,N,N,N,Y,N,,11,10/06/2016 00:00:00,10/07/2016 08:26:48,,N,909,1,x00x11,10/06/2016 00:00:00,,N,PAM KAHUT,FINANCE OFFICER,10/06/2016 00:00:00,410746749,N,,N,N,,,,,LOCAL GOVERNMENT,UG,,,,,,07/01/2015 00:00:00,,,,
1205138,1647022016,2016,164702,06/30/2016 00:00:00,S,A,,N,346002865,,N,828258801,CLAYMONT CITY SCHOOL DISTRICT,201 NORTH THIRD STREET,,DENNISON,OH,44621,LOR STATLER,TREASURER,7409225478,,LSTATLER@CLAYMONTSCHOOLS.ORG,03/22/2017 07:24:25,LORI STATLER-TREASURER,"DAVE YOST, AUDITOR OF STATE OF OHIO",88 EAST BROAD STREET,,COLUMBUS,OH,43215,"DAVID M. SHOEMAKER, CPA",CHIEF AUDITOR,7405943300,,DCF-SOUTHEAST@OHIOAUDITOR.GOV,03/23/2017 14:12:37,,O,,U,Y,N,N,N,U,750000,Y,,1937696,,N,N,N,N,N,N,,84,03/24/2017 00:00:00,03/27/2017 07:24:02,,N,505,1,x00,03/24/2017 00:00:00,,N,LORI STATLER,TREASURER,03/24/2017 00:00:00,311334820,N,,Y,N,,,,,Local government,UG,,04/11/2017 09:41:04,04/13/2017 10:26:11,N,G,07/01/2015 00:00:00,,,,
1191730,1696682016,2016,169668,06/30/2016 00:00:00,S,A,,N,231745816,,N,,READING AREA COMMUNITY COLLEGE,10 SOUTH SECOND STREET,,READING ,PA,196031706,DOLORES PETERSON,ASSOCIATE VP FOR BUSINESS SERVICES,6106076230,,DPETERSON@RACC.EDU,12/08/2016 08:57:48,DOLORES PETERSON-ASSOCIATE VP FINANCE & ADMIN SERVICES,"HERBEIN + COMPANY, INC.",2763 CENTURY BLVD,,READING,PA,19610,LINDA HIMEBACK,PARTNER,6103780999,,LSHIMEBACK@HERBEIN.COM,12/08/2016 12:13:32,,O,,U,N,N,N,N,U,750000,Y,,22236103,,N,N,N,N,N,N,,84,12/08/2016 00:00:00,12/09/2016 08:33:22,,N,504,1,x00,12/08/2016 00:00:00,,N,DOLORES PETERSON,ASSOCIATE VP FINANCE & ADMIN SERVICES,12/08/2016 00:00:00,232415973,N,,N,N,,,,,LOCAL GOVERNMENT,UG,01038800,12/20/2016 12:09:58,12/22/2016 16:12:18,N,B,07/01/2015 00:00:00,,,,
1211339,1843492016,2016,184349,06/30/2016 00:00:00,S,A,,N,942542559,,N,869384248,HOUSING AUTHORITY OF THE CITY OF MADERA,205 NORTH G STREET,,MADERA,CA,93637,SALLY BOMPREZZI,FINANCIAL SERVICES MANAGER,5596745695,,SALLY@MADERAHA.ORG,03/30/2017 18:53:49,SALLY BOMPREZZI-FINANCIAL SERVICES MANAGER,"PRICE, PAIGE & COMPANY",677 SCOTT AVE,,CLOVIS,CA,93612,DAVID DYBAS,AUDIT MANAGER,5592999540,,DAVID@PPCPAS.COM,03/30/2017 18:16:58,,O,,U,N,N,N,N,U,750000,N,,6551650,,Y,N,Y,Y,Y,N,,14,03/30/2017 00:00:00,04/06/2017 11:19:24,,N,203,1,x14,02/28/2017 00:00:00,,N,SALLY BOMPREZZI,FINANCIAL SERVICES MANAGER,02/28/2017 00:00:00,770203007,N,,N,Y,,,,,Local government,UG,,,,,,07/01/2015 00:00:00,,,,
1201845,1327502016,2016,132750,06/30/2016 00:00:00,S,A,,N,954351663,,N,836140475,SOUTHERN CALIFORNIA REGIONAL RAIL AUTHORITY,"ONE GATEWAY PLAZA, FLOOR 12",,LOS ANGELES,CA,90012,RONNIE CAMPBELL,CFO,2134520438,,CAMPBELLR@SCRRA.NET,01/23/2017 17:06:36,RONNIE CAMPBELL-CHIEF FINANCIAL OFFICER,MOSS ADAMS LLP,"2707 COLBY AVENUE, SUITE 801",,EVERETT,WA,98201,OLGA DARLINGTON,PARTNER,4255515712,,OLGA.DARLINGTON@MOSSADAMS.COM,01/24/2017 14:32:41,,O,,U,Y,Y,N,N,U,1079791,N,,35993041,,Y,N,N,Y,Y,N,,20,01/24/2017 00:00:00,01/25/2017 10:28:28,,N,406,1,x20,01/24/2017 00:00:00,,N,RONNIE CAMPBELL,CHIEF FINANCIAL OFFICER,01/24/2017 00:00:00,910189318,Y,,Y,Y,,,,,Local government,UG,,,,,,07/01/2015 00:00:00,,,,
1220015,2263222016,2016,226322,06/30/2016 00:00:00,S,A,,N,364658034,,N,,AREA AGENCY ON AGING OF LAKE & MENDOCINO COUNTIES,PO BOX 9000,,LOWER LAKE,CA,95457,TRACY KEENER,ACCOUNTING SUPERVISOR,7079954282,,TKEENER@DSS.CO.LAKE.CA.US,07/18/2017 19:09:02,TRACY KEENER-ACCOUNTING SUPERVISOR,"ROBERTSON & ASSOCIATES, CPAS",1101 N MAIN ST,,LAKEPORT,CA,95453,JOHN S ROBERTSON,ENGAGEMENT DIRECTOR,7072639012,,JOHN@ROBERTSONCPA.COM,07/20/2017 19:09:47,,O,,U,N,N,N,N,U,750000,Y,,1045946,,N,N,N,N,N,N,,93,07/25/2017 00:00:00,07/26/2017 09:00:23,,N,409,1,x00,07/25/2017 00:00:00,,N,TRACY KEENER,ACCOUNTING SUPERVISOR,07/25/2017 00:00:00,680290978,N,,N,N,,,,,Local Government,UG,,,,,,07/01/2015 00:00:00,,,,
1197890,1830212016,2016,183021,09/30/2016 00:00:00,S,A,,N,061350567,,N,,"CONNECTICUT BAPTIST HOUSING, INC. HUD PROJECT NO. 017-35305",292 THORPE AVE.,,MERIDEN,CT,06450,PATRICIA MORSE,PRESIDENT,2032371206,,PMORSE@CTBAPTISTHOMES.ORG,01/23/2017 14:30:05,PATRICIA MORSE-PRESIDENT,"BLUM, SHAPIRO & COMPANY, P.C.",29 SOUTH MAIN STREET,,WEST HARTFORD,CT,06107,LORI BUDNICK,PARTNER,8605614000,,LBUDNICK@BLUMSHAPIRO.COM,01/23/2017 09:33:26,,O,,U,N,N,N,N,U,750000,Y,,2790345,,N,N,N,N,N,N,,14,01/23/2017 00:00:00,01/24/2017 09:40:35,,N,903,1,x00,01/23/2017 00:00:00,,N,PATRICIA MORSE,PRESIDENT,01/23/2017 00:00:00,061009205,N,,N,N,,,,,Non-profit,UG,,,,,,10/01/2015 00:00:00,,,,
1226104,2279962016,2016,227996,12/31/2016 00:00:00,S,A,,N,410982430,,N,018634618,"CEDAR RIVERSIDE PEOPLE'S CENTER, D/B/A PEOPLE'S CENTER HEALTH SERVICES",425 20TH AVENUE SOUTH,,MINNEAPOLIS,MN,55454,SAHRA NOOR,CHIEF EXECUTIVE OFFICER,6123555568,,NOORS@PEOPLES-CENTER.ORG,09/29/2017 13:23:24,SAHRA NOOR-CEO,WIPFLI LLP,"7601 FRANCE AVENUE SOUTH, SUITE 400",,MINNEAPOLIS,MN,55435,TIM RITTER,PARTNER,9525483400,,TRITTER@WIPFLI.COM,09/29/2017 12:29:58,,O,,U,N,N,N,N,U,750000,Y,,1452202,,Y,N,N,Y,Y,N,,93,09/29/2017 00:00:00,10/02/2017 14:37:30,,N,902,1,x93,09/29/2017 00:00:00,,N,SAHRA NOOR,CEO,09/29/2017 00:00:00,390758449,N,,N,Y,,,,,Non-profit,UG,,,,,,01/01/2016 00:00:00,,,,
1193810,2142672016,2016,214267,06/30/2016 00:00:00,S,A,,N,226014975,,N,,MANCHESTER REGIONAL HIGH SCHOOL BOARD OF EDUCATION,70 CHURCH STREET,,HALEDON,NJ,07508,"JOHN A. SERAPIGLIA, JR.",BOARD SECRETARY/BUSINESS ADMINISTRATOR,9733892842,,JSERAPIGLIA@MRHS.NET,12/02/2016 12:36:37,JOHN SERAPIGLIA-BUSINESS ADMINISTRATOR,"FERRAIOLI, WIELKOTZ, CERULLO & CUVA, P.A.",401 WANAQUE AVENUE,,POMPTON LAKES,NJ,074421804,JAMES CERULLO,CPA/RMA,9738357900,,JCERULLO@FWCC-CPA.COM,12/02/2016 13:49:10,,O,,U,N,N,N,N,U,750000,Y,,960148,,N,N,N,N,N,N,,93,12/02/2016 00:00:00,12/05/2016 12:53:11,,N,505,1,x00,12/02/2016 00:00:00,,N,JOHN SERAPIGLIA,BUSINESS ADMINISTRATOR,12/02/2016 00:00:00,222037794,N,,N,N,,,,,LOCAL GOVERNMENT,UG,,12/13/2016 14:45:05,12/15/2016 10:00:41,,N,07/01/2015 00:00:00,,,,
1212511,262762016,2016,26276,06/30/2016 00:00:00,S,A,,N,231712664,,N,071463699,"ASPIRA, INC. OF PENNSYLVANIA",4322 NORTH 5TH STREET,,PHILADELPHIA,PA,19140,XIN YI,CONTROLLER,2154551300,,XYI@ASPIRAPA.ORG,04/17/2017 12:22:41,XIN YI-CONTROLLER,WITHUMSMITH+BROWN P.C.,"TWO LOGAN SQUARE, EIGHTEENTH AND ARCH STREETS",,PHILADELPHIA,PA,19103,ERIC STRAUSS,PARTNER,2155462140,,ESTRAUSS@WITHUM.COM,04/10/2017 11:51:44,,O,,U,N,N,N,N,U,750000,Y,,2608486,,N,N,N,N,N,N,,84,04/24/2017 00:00:00,04/25/2017 09:48:55,,N,908,1,x00,04/24/2017 00:00:00,,N,XIN YI,CONTROLLER,04/24/2017 00:00:00,222027092,N,,N,N,,,,,Non-profit,UG,,05/05/2017 11:22:52,05/11/2017 11:04:19,N,G,07/01/2015 00:00:00,,,,
1211516,894432016,2016,89443,06/30/2016 00:00:00,S,A,,N,591842440,,N,,OPPORTUNITY DEVELOPMENT INC DBA INDEPENDENT LIVING RESOURCE CTR OF NE ,2709 ART MUSEUM DRIVE,,JACKSONVILLE,FL,32207,SAMANTHA RODGERS,OPERATIONS MANAGER,9043998484,,SAMANTHAR@THEILRC.ORG,03/31/2017 15:50:21,SAMANTHA RODGERS-OPERATIONS MANAGER,"MASTERS, SMITH & WISBY, P.A.",4811 BEACH BLVD. #300,,JACKSONVILLE,FL,32207,DAVID HOWIE,PARTNER,9043962202,,DHOWIE@MSWCPA.COM,03/31/2017 15:31:04,,O,,U,N,N,N,N,U,750000,Y,,786885,,N,N,N,N,N,N,,96,03/31/2017 00:00:00,04/05/2017 08:21:04,,N,909,1,x00,03/31/2017 00:00:00,,N,SAMANTHA RODGERS,OPERATIONS MANAGER,03/31/2017 00:00:00,591466001,N,,N,N,,,,,Non-profit,UG,,04/07/2017 09:52:49,04/13/2017 10:26:11,,N,07/01/2015 00:00:00,,,,
1224880,899892016,2016,89989,06/30/2016 00:00:00,S,A,,N,592240502,,N,101962454,"THE LORD'S PLACE, INC.",2808 NORTH AUSTRALIAN AVENUE,,WEST PALM BEACH,FL,33407,TOBY DOUTHWRIGHT,CHIEF FINANCIAL OFFICER,5614940125,,TDOUTHWRIGHT@THELORDSPLACE.ORG,09/25/2017 08:24:57,TOBY DOUTHWRIGHT-CFO/COO,"TEMPLETON & COMPANY, LLP","222 LAKEVIEW AVENUE, SUITE 1200",,WEST PALM BEACH,FL,33401,JUAN COCUY,AUDIT PARTNER,5617989988,,JCOCUY@TEMPLETONCO.COM,09/25/2017 09:22:57,,O,,U,N,N,N,N,U,750000,Y,,1364600,,N,N,N,N,N,N,,14,09/25/2017 00:00:00,09/26/2017 10:38:58,,N,908,1,x00,09/25/2017 00:00:00,,N,TOBY DOUTHWRIGHT,CFO/COO,09/25/2017 00:00:00,141918990,N,,N,N,,,,,Non-profit,UG,,,,,,07/01/2015 00:00:00,,,,
1209910,1900512016,2016,190051,06/30/2016 00:00:00,S,A,,N,646011102,,N,,HOLMES COMMUNITY COLLEGE,1 HILL STREET,,GOODMAN,MS,39079,MATT SURRELL,DIRECTOR OF BUSINESS SERVICES,6624729178,,MSURRELL@HOLMESCC.EDU,03/26/2017 10:17:54,MATT SURRELL-DIRECTOR OF BUSINESS SERVICES,"FORTENBERRY & BALLARD, PC","1929 SPILLWAT RD, SUITE B",,BRANDON,MS,390476079,BRENT BALLARD,PARTNER,6019925292,,BRENT@FORTCPA.COM,03/25/2017 18:09:01,,O,,U,N,N,N,N,U,750000,Y,,20053874,,N,N,N,N,N,N,,84,03/27/2017 00:00:00,03/28/2017 07:59:33,,N,505,1,x00,03/27/2017 00:00:00,,N,MATT SURRELL,DIRECTOR OF BUSINESS SERVICES,03/27/2017 00:00:00,640887736,N,,N,N,,,,,Local government,UG,00240800,03/29/2017 08:10:29,04/06/2017 08:47:45,N,B,07/01/2015 00:00:00,,,,
1184149,1839192016,2016,183919,06/30/2016 00:00:00,S,A,,N,721317429,,N,008877438,NEW BERN  VOA  ELDERLY HOUSING  INC. (THE MEADOWS) 053-EE049,1660 DUKE STREET,,ALEXANDRIA,VA,22314,VANESSA TRAN,"CONTROLLER, HOUSING",7033415000,,VTRAN@VOA.ORG,12/19/2016 15:06:38,"VANESSA TRAN-CONTROLLER, HOUSING","MADDOX & ASSOCIATES, APC","5627 BANKERS AVENUE, BUILDING 2",,BATON ROUGE,LA,708082610,JEFF MADDOX,CPA,2259263360,,MAIL@MADDOXASSOCIATES.COM,12/20/2016 16:42:31,,O,,U,N,N,N,N,U,750000,Y,,3202216,,N,N,N,N,N,N,,14,12/20/2016 00:00:00,12/21/2016 12:46:17,,N,903,1,x00,12/20/2016 00:00:00,,N,VANESSA TRAN,"CONTROLLER, HOUSING",12/20/2016 00:00:00,721314069,N,,N,N,,,,,Non-profit,UG,,,,,,07/01/2015 00:00:00,,,,
1194917,828322016,2016,82832,06/30/2016 00:00:00,S,A,,N,561765360,,N,958016297,"PASSAGE HOME, INC",712 W. JOHNSON ST.,,RALEIGH,NC,27603,JEANNE TEDROW,CEO,9198340666,,JTEDROW@PASSAGEHOME.ORG,12/13/2016 14:37:29,JEANNE TEDROW-CEO,"PETWAY MILLS & PEARSON, PA",806 NORTH ARENDELL AVENUE,,ZEBULON,NC,27597,PHYLLIS PEARSON,PARTNER,9192697405,,PPEARSON@PMPCPA.COM,12/12/2016 10:48:45,,O,,U,N,N,N,N,U,750000,N,,2239998,,N,N,N,N,Y,Y,,64,12/13/2016 00:00:00,12/14/2016 10:13:21,,N,908,1,x00x93,12/13/2016 00:00:00,,N,JEANNE TEDROW,CEO,12/13/2016 00:00:00,202102404,N,,N,N,,,,,Non-profit,UG,,,,,,07/01/2015 00:00:00,,,,
1184784,1029152016,2016,102915,06/30/2016 00:00:00,S,A,,N,742431303,,N,193493541,"FORT BEND VOA ELDERLY HSG, INC. (FORT BEND GARDENS)114EH089L8NPWAH",1660 DUKE STREET,,ALEXANDRIA,VA,22314,VANESSA TRAN,"CONTROLLER, HOUSING",7033415000,,VTRAN@VOA.ORG,11/15/2016 16:20:02,"VANESSA TRAN-CONTROLLER, HOUSING","MADDOX & ASSOCIATES, APC","5627 BANKERS AVENUE, BUILDING 2",,BATON ROUGE,LA,708082610,BRYAN BEALE,CPA,2259263360,,MAIL@MADDOXASSOCIATES.COM,11/22/2016 11:07:08,,O,,U,N,N,N,N,U,750000,Y,,2188402,,N,N,N,N,N,N,,14,11/22/2016 00:00:00,11/23/2016 12:16:51,,N,903,1,x00,11/22/2016 00:00:00,,N,VANESSA TRAN,"CONTROLLER, HOUSING",11/22/2016 00:00:00,721314069,N,,N,N,,,,,NON-PROFIT,UG,,,,,,07/01/2015 00:00:00,,,,
1198360,336352016,2016,33635,06/30/2016 00:00:00,S,A,,N,237359883,,N,069505345,CENTER ON DEAFNESS,3444 DUNDEE ROAD,,NORTHBROOK,IL,60062,BONITA SIMON,EXECUTIVE DIRECTOR,8475590110,,BSIMON@CENTERONDEAFNESS.ORG,01/16/2017 12:27:11,BONITA SIMON-EXECUTIVE DIRECTOR,WARADY & DAVIS LLP,"1717 DEERFIELD ROAD, SUITE 300 SOUTH",,DEERFIELD,IL,600153977,"SUSAN GREGGO, CPA",PARTNER,8472679600,,SGREGGO@WARADYDAVIS.COM,01/12/2017 19:17:27,,O,,U,N,N,N,N,U,750000,N,,903495,,N,N,N,N,N,N,,84,01/16/2017 00:00:00,01/17/2017 13:17:11,,N,908,1,x00,01/16/2017 00:00:00,,N,BONITA SIMON,EXECUTIVE DIRECTOR,01/16/2017 00:00:00,362170602,N,,N,N,,,,,Non-profit,UG,,01/27/2017 11:15:21,02/02/2017 08:34:46,,N,07/01/2015 00:00:00,,,,
1213940,607362016,2016,60736,12/31/2016 00:00:00,S,A,,N,396092761,,N,076162429,"SAINT FRANCIS CHILDREN'S CENTER, INC",6700 N PORT WASHINGTON RD,,MILWAUKEE,WI,53217,MARA DUCKENS,EXECUTIVE DIRECTOR,4143510450,,MDUCKENS@SFCCKIDS.ORG,05/11/2017 15:13:51,MARA DUCKENS-EXECUTIVE DIRECTOR,RITZ HOLMAN LLP,"330 E KILBOURN AVE, STE 550",,MILWAUKEE,WI,53202,ANDREW HOLMAN,PARTNER,4142711451,,ANDY@RITZHOLMAN.COM,05/15/2017 10:55:13,,O,,U,N,N,N,N,U,750000,Y,,1121932,,N,N,N,N,N,N,,93,05/15/2017 00:00:00,05/16/2017 08:34:33,,N,908,1,x00,05/15/2017 00:00:00,,N,MARA DUCKENS,EXECUTIVE DIRECTOR,05/15/2017 00:00:00,390919055,N,,N,N,,,,,Non-profit,UG,,05/16/2017 10:15:00,05/18/2017 09:43:22,,N,01/01/2016 00:00:00,,,,
