ELECAUDITHEADERID,ID,AUDITYEAR,DBKEY,FYENDDATE,AUDITTYPE,PERIODCOVERED,NUMBERMONTHS,MULTIPLEEINS,EIN,EINSUBCODE,MULTIPLEDUNS,DUNS,AUDITEENAME,STREET1,STREET2,CITY,STATE,ZIPCODE,AUDITEECONTACT,AUDITEETITLE,AUDITEEPHONE,AUDITEEFAX,AUDITEEEMAIL,AUDITEEDATESIGNED,AUDITEENAMETITLE,CPAFIRMNAME,CPASTREET1,CPASTREET2,CPACITY,CPASTATE,CPAZIPCODE,CPACONTACT,CPATITLE,CPAPHONE,CPAFAX,CPAEMAIL,CPADATESIGNED,CPANAMETITLE,COG_OVER,COGAGENCY,TYPEREPORT_FS,REPORTABLECONDITION,MATERIALWEAKNESS,MATERIALNONCOMPLIANCE,GOINGCONCERN,TYPEREPORT_MP,DOLLARTHRESHOLD,LOWRISK,REPORTREQUIRED,TOTFEDEXPEND,COPIES,REPORTABLECONDITION_MP,MATERIALWEAKNESS_MP,QCOSTS,CYFINDINGS,PYSCHEDULE,DUP_REPORTS,COG_AGENCY,OVERSIGHTAGENCY,DATERECEIVED,DATEFIREWALL,PREVIOUSDATEFIREWALL,FINDINGREFNUM,TYPEOFENTITY,IMAGE,AGENCYCFDA,INITIALDATE,DATERECEIVEDOTHER,MULTIPLE_CPAS,AUDITEECERTIFYNAME,AUDITEECERTIFYTITLE,FACACCEPTEDDATE,AUDITOR_EIN,SD_MATERIALWEAKNESS,SD_MATERIALWEAKNESS_MP,SIGNIFICANTDEFICIENCY,SIGNIFICANTDEFICIENCY_MP,SP_FRAMEWORK,SP_FRAMEWORK_REQUIRED,TYPEREPORT_SP_FRAMEWORK,SUPPRESSION_CODE,ENTITY_TYPE,TYPEAUDIT_CODE,OPEID,DATETOED,DATEFINISHED,TYPEFINDING,TYPEFUNDING,FYSTARTDATE,CPAFOREIGN,UEI,MULTIPLEUEIS,CPACOUNTRY
1267881,1029642017,2017,102964,12/31/2017 00:00:00,S,A,,N,742459189,,N,,"OPERATION LIFESAVER, INC.",425 THIRD STREET SW SUITE 915,,WASHINGTON,DC,20024,WENDE CORCORAN,INTERIM EXECUTIVE DIRECTOR,7035198267,,WCORCORAN@OLI.ORG,09/28/2018 17:00:51,WENDE CORCORAN-INTERIM PRESIDENT,"RUBINO AND COMPANY, CHARTERED",6903 ROCKLEDGE DRIVE,,BETHESDA,MD,208171818,PATRICK CURTIS,SHAREHOLDER,7035198267,,PCURTIS@RUBINO.COM,09/28/2018 16:03:27,,O,,U,N,N,Y,N,U,750000,N,,1647683,,N,N,N,Y,Y,N,,20,09/28/2018 00:00:00,10/04/2018 01:30:21,,N,908,1,x20,09/28/2018 00:00:00,,N,WENDE CORCORAN,INTERIM PRESIDENT,09/28/2018 00:00:00,521186096,N,,N,N,,,,,Non-profit,UG,,,,,,01/01/2017 00:00:00,,,,
1254940,2408642017,2017,240864,12/31/2017 00:00:00,S,A,,N,900887510,,N,,CHG - OAKLAND CITY LLC GA06A003002,"520 PIKE STREET, SUITE 1004",,SEATTLE,WA,98101,SHANNON WOODARD,CONTROLLER,2065128903,,SWOODARD@INTEGRAPROP.COM,05/08/2018 13:27:06,SHANNON WOODARD-CONTROLLER,CARTER & COMPANY CPA LLC,"543 HARBOR BLVD, SUITE 201",,DESTIN,FL,32541,DAVID BELL,AUDIT PARTNER,8506500125,,DAVID@CARTERCPA.NET,04/10/2018 09:24:09,,O,,U,N,N,N,N,U,750000,Y,,1027949,,N,N,N,N,N,N,,14,05/09/2018 00:00:00,05/11/2018 01:30:21,,N,888,1,x00,05/09/2018 00:00:00,,N,SHANNON WOODARD,CONTROLLER,05/09/2018 00:00:00,582646754,N,,N,N,,,,,Non-profit,UG,,,,,,01/01/2017 00:00:00,,,,
1221621,390552017,2017,39055,05/31/2017 00:00:00,S,A,,N,311025386,,N,163788441,"LAFONTAINE CENTER, INC. 073-EH187",911 NORTH STUDEBAKER ROAD,,LONG BEACH,CA,90815,CHRISTOPHER PURCELL,CONTROLLER,5622575100,,CHRISTOPHER.PURCELL@RHF.ORG,09/26/2017 19:40:29,CHRISTOPHER PURCELL-CONTROLLER,"DAUBY O'CONNOR & ZALESKI, LLC","501 CONGRESSIONAL BLVD., SUITE 300",,CARMEL,IN,46032,JACOB T. BUEHLER,MEMBER,3178485700,,JBUEHLER@DOZ.NET,09/28/2017 10:01:51,,O,,U,N,N,N,N,U,750000,Y,,2153589,,N,N,N,N,N,N,,14,09/28/2017 00:00:00,09/29/2017 08:45:26,,N,903,1,x00,09/28/2017 00:00:00,,N,CHRISTOPHER PURCELL,CONTROLLER,09/28/2017 00:00:00,351750664,N,,N,N,,,,,Non-profit,UG,,,,,,06/01/2016 00:00:00,,,,
1245369,681012017,2017,68101,06/30/2017 00:00:00,S,A,,N,440605373,,N,073067480,THE CHILDREN'S MERCY HOSPITAL,2401 GILLHAM RD,,KANSAS CITY,MO,64108,SARAH KLUESENER,SENIOR MANAGER RESEARCH ACCOUNTING,8167011322,,SKLUESENER@CMH.EDU,03/22/2018 12:00:39,MARY TOMLINSON-VICE PRESIDENT,KPMG LLP,"1000 WALNUT, SUITE 1100",,KANSAS CITY,MO,64106,CASSANDRA MESCHKE,MANAGING DIRECTOR,8168025633,,CMMESCHKE@KPMG.COM,03/21/2018 22:35:21,,O,,U,N,N,N,N,U,750000,Y,,8333667,,N,N,N,N,N,N,,93,03/22/2018 00:00:00,03/24/2018 01:30:21,,N,902,1,x00,03/22/2018 00:00:00,,N,MARY TOMLINSON,VICE PRESIDENT,03/22/2018 00:00:00,135565207,N,,N,N,,,,,Non-profit,UG,,,,,,07/01/2016 00:00:00,,,,
1258957,1364882017,2017,136488,12/31/2017 00:00:00,S,A,,N,591316716,,N,027067651,ALACHUA COUNTY HOUSING AUTHORITY,703 NE FIRST STREET,,GAINESVILLE,FL,32601,KEN ARMSTRONG,EXECUTIVE DIRECTOR,3523722549,,KORI@ACHA-FL.COM,06/04/2018 14:26:54,KORI ALLEN-CFO,"MALCOLM JOHNSON & COMPANY, P.A.",P.O. BOX 530848,,DEBARY,FL,327530848,MALCOLM P. JOHNSON,PRESIDENT,3866686464,,MALCOLMJOHNSON@MPINET.NET,06/04/2018 14:31:33,,O,,U,N,N,N,N,U,750000,N,,8914406,,N,N,N,N,N,N,,14,06/04/2018 00:00:00,06/06/2018 01:30:21,,N,403,1,x00,06/04/2018 00:00:00,,N,KORI ALLEN,CFO,06/04/2018 00:00:00,593382992,N,,N,N,,,,,Local government,UG,,,,,,12/31/2016 00:00:00,,,,
1237843,2328032017,2017,232803,06/30/2017 00:00:00,S,A,,N,256008305,,N,,WILMINGTON AREA SCHOOL DISTRICT,300 WOOD STREET,,NEW WILMINGTON,PA,16142,JOSHUA LATORE,BUSINESS MANAGER,7246568866,,LATORE@WASD.SCHOOL,12/13/2017 11:59:26,JOSHUA LATORE-BUSINESS MANAGER,"MCGILL, POWER, BELL & ASSOCIATES, LLP",1446 LIBERTY STREET,,FRANKLIN,PA,16323,JOY S. STRAIN,PARTNER,8144379568,,JSTRAIN@MPBCPA.COM,12/13/2017 12:01:58,,O,,U,N,N,N,N,U,750000,N,,893645,,N,N,N,N,N,N,,84,12/13/2017 00:00:00,12/15/2017 10:34:54,,N,505,1,x00,12/13/2017 00:00:00,,N,JOSHUA LATORE,BUSINESS MANAGER,12/13/2017 00:00:00,251031405,N,,N,N,,,,,Local government,UG,,12/19/2017 10:24:47,12/21/2017 10:04:34,,N,07/01/2016 00:00:00,,,,
1233768,1565432017,2017,156543,06/30/2017 00:00:00,S,A,,N,226088440,,N,069884633,ROWAN COLLEGE AT GLOUCESTER COUNTY,1400 TANYARD ROAD,,SEWELL,NJ,08080,CHERYL LEWIS,SENIOR CONTROLLER,8564152223,,CLEWIS@RCGC.EDU,01/25/2018 09:41:55,"CHERY LEWIS-EXECUTIVE DIRECTOR, FINANCIAL SERVICES",BOWMAN & COMPANY LLP,601 WHITE HORSE ROAD,,VOORHEES,NJ,08043,CAROL A. MCALLISTER,PARTNER,8568216864,,CMCALLISTER@BOWMANLLP.COM,01/25/2018 09:33:17,,O,,U,N,N,N,N,U,750000,Y,,21425438,,N,N,N,N,N,N,,84,01/25/2018 00:00:00,01/26/2018 08:17:20,,N,104,1,x00,01/25/2018 00:00:00,,N,CHERY LEWIS,"EXECUTIVE DIRECTOR, FINANCIAL SERVICES",01/25/2018 00:00:00,210658561,N,,N,N,,,,,Institution of higher education (IHE),UG,00690100,02/02/2018 11:22:02,02/08/2018 07:42:37,N,B,07/01/2016 00:00:00,,,,
1230391,1505972017,2017,150597,06/30/2017 00:00:00,S,A,,N,386004188,,N,193291192,REDFORD UNION SCHOOL DISTRICT #1,17715 BRADY STREET,,REDFORD,MI,48240,GREG MCINTYRE,ASST SUPERINTENDENT OF BUSINESS,3132426009,,MCINTYG@REDFORDU.K12.MI.US,11/01/2017 09:58:55,GREGORY R. MCINTYRE-ASSISTANT SUPERINTENDENT,"YEO & YEO, P.C.","691 N. SQUIRREL RD., SUITE 100",,AUBURN HILLS,MI,48326,"ALAN D. PANTER, CPA",PRINCIPAL,2482390900,,ALAPAN@YEOANDYEO.COM,11/01/2017 09:50:10,,O,,U,Y,Y,Y,N,U,750000,N,,4389271,,N,N,N,Y,N,N,,84,11/03/2017 00:00:00,11/06/2017 11:22:58,,N,505,1,x00,11/03/2017 00:00:00,,N,GREGORY R. MCINTYRE,ASSISTANT SUPERINTENDENT,11/03/2017 00:00:00,382706146,Y,,Y,N,,,,,Local government,UG,,11/07/2017 09:08:26,11/09/2017 08:25:04,,N,07/01/2016 00:00:00,,,,
1241395,2378712017,2017,237871,06/30/2017 00:00:00,S,A,,N,066002017,,N,039622089,"TOWN OF ESSEX, CONNECTICUT",29 WEST AVENUE,,ESSEX,CT,064261140,KELLY STERNER,DIRECTOR OF FINANCE,8607674340,,KSTERNER@ESSEXCT.GOV,01/05/2018 12:53:44,KELLY STERNER-DIRECTOR OF FINANCE,MAHONEY SABOL & COMPANY LLP,180 GLASTONBURY BOULEVARD,,GLASTONBURY,CT,060334439,JENNIFER HAWKINS,PARTNER,8605412000,,JHAWKINS@MAHONEYSABOL.COM,01/04/2018 13:22:56,,O,,U,N,N,N,N,U,750000,Y,,995111,,N,N,N,N,N,N,,84,01/05/2018 00:00:00,01/08/2018 13:17:28,,N,888,1,x00,01/05/2018 00:00:00,,N,KELLY STERNER,DIRECTOR OF FINANCE,01/05/2018 00:00:00,061289571,N,,N,N,,,,,Local government,UG,,01/09/2018 13:44:34,01/11/2018 13:16:22,N,G,07/01/2016 00:00:00,,,,
1266540,1996942017,2017,199694,12/31/2017 00:00:00,S,A,,N,316400081,,N,154171375,NOBLE COUNTY,200 COURTHOUSE SQUARE,,CALDWELL,OH,43724,PEGGY DAVIS,COUNTY AUDITOR,7407324044,,PDAVIS@NOBLECOUNTYOHIO.GOV,07/02/2019 13:49:32,PEGGY DAVIS-AUDITOR,"KEITH FABER, AUDITOR OF STATE OF OHIO",88 EAST BROAD STREET,,COLUMBUS,OH,43215,SHANE STATLER,CHIEF AUDITOR,7405943300,,DCF-SOUTHEAST@OHIOAUDITOR.GOV,07/02/2019 11:13:59,,O,,U,N,N,Y,N,U,750000,Y,,2013973,,N,N,N,N,N,N,,93,07/02/2019 00:00:00,07/04/2019 01:30:40,,N,100,1,x00,07/02/2019 00:00:00,,N,PEGGY DAVIS,AUDITOR,07/02/2019 00:00:00,311334820,N,,N,N,,,,,Local government,UG,,,,,,01/01/2017 00:00:00,,,,US
1243130,2379132017,2017,237913,06/30/2017 00:00:00,S,A,,N,936000924,,N,622716173,INTERMOUNTAIN ESD,2001 SW NYE STREET,,PENDLETON,OR,97801,BETH O'HANLON,CFO,5419663103,,BETH.OHANLON@IMESD.K12.OR.US,01/12/2018 12:04:18,BETH O'HANLON-CFO,"DICKEY AND TREMPER, LLP",110 SE FIRST STREET,,PENDLETON,OR,97801,ROBERT F. TREMPER,CPA,5412766862,,RTREMPER@DICKEYANDTREMPER.COM,01/10/2018 18:06:08,,O,,U,N,N,N,N,U,750000,Y,,4197131,,N,N,N,N,Y,N,,84,01/12/2018 00:00:00,01/17/2018 12:53:55,,N,505,1,x84x00,01/03/2018 00:00:00,,N,BETH O'HANLON,CFO,01/03/2018 00:00:00,200350998,N,,N,N,,,,,Local government,UG,,01/04/2018 14:26:18,01/11/2018 13:16:22,N,G,07/01/2016 00:00:00,,,,
1242069,2315542017,2017,231554,06/30/2017 00:00:00,S,A,,N,263202807,,N,,SUCCESS PREPARATORY ACADEMY,2011 BIENVILLE STREET,,NEW ORLEANS,LA,70112,KATHRYN CONEYBEAR,DIRECTOR OF FINANCE,5049096275,,KCONEYBEAR@SUCCESSPREPARATORY.ORG,01/04/2018 16:14:30,KATHRYN CONEYBEAR-DIRECTOR OF FINANCE,"CARR, RIGGS, & INGRAM, LLC",111 VETERANS MEMORIAL BLVD. SUITE 350,,METAIRIE,LA,70005,AMY VERBERNE,PARTNER,9856295664,,AVERBERNE@CRICPA.COM,01/19/2018 13:46:37,,O,,U,N,N,Y,N,U,750000,N,,1389496,,N,N,N,Y,N,N,,84,01/19/2018 00:00:00,01/24/2018 15:43:16,,N,905,1,x00,01/19/2018 00:00:00,,N,KATHRYN CONEYBEAR,DIRECTOR OF FINANCE,01/19/2018 00:00:00,721396621,N,,N,N,,,,,Non-profit,UG,,02/06/2018 11:25:12,02/08/2018 07:42:37,N,G,07/01/2016 00:00:00,,,,
1242944,1969012017,2017,196901,08/31/2017 00:00:00,S,A,,N,741587916,,N,076926153,"EDUCATION SERVICE CENTER, REGION II",209 N. WATER ST,,CORPUS CHRISTI,TX,78401,RYAN JOHNSTON,CHIEF FINANCIAL OFFICER,3615615618,,RYAN.JOHNSTON@ESC2.US,01/26/2018 01:25:56,RYAN JOHNSTON-CHIEF FINANCIAL OFFICER,"GOWLAND, STREALY, MORALES, & CO., PLLC","5934 S. STAPLES, SUITE 201",,CORPUS CHRISTI,TX,78413,DAVID MORALES,CERTIFIED PUBLIC ACCOUNTANT,3619931000,,DMORALES@GOWLAND-CPA.COM,01/22/2018 09:51:54,,O,,U,N,N,N,N,U,750000,Y,,3546519,,N,N,N,N,N,N,,84,01/26/2018 00:00:00,01/29/2018 08:11:40,,N,505,1,x00,01/26/2018 00:00:00,,N,RYAN JOHNSTON,CHIEF FINANCIAL OFFICER,01/26/2018 00:00:00,742804712,N,,N,N,,,,,Local government,UG,,02/16/2018 11:17:45,02/22/2018 12:20:13,N,G,09/01/2016 00:00:00,,,,
1230556,1608902017,2017,160890,06/30/2017 00:00:00,S,A,,N,136007115,,N,,UNION FREE SCHOOL DISTRICT OF THE TARRYTOWNS,200 N BROADWAY,,SLEEPY HOLLOW,NY,10591,KEVIN A ZIEMBA,SCHOOL BUSINESS ADMINISTRATOR,9146319401,,KZIEMBA@TUFSD.ORG,10/24/2017 14:57:27,KEVIN A ZIEMBA-SBA,BERARD & ASSOCIATES CPAS PC,44 PARK AVENUE,,SUFFERN,NY,10901,KATHLEEN M HAUBNER,AUDITOR,8453575668,,KATHLEEN@BERARDCPAS.COM,10/24/2017 12:16:41,,O,,U,N,N,N,N,U,750000,Y,,2054934,,Y,N,N,Y,N,N,,84,10/26/2017 00:00:00,10/27/2017 08:16:58,,N,505,1,x00,10/16/2017 00:00:00,,N,KEVIN A ZIEMBA,SBA,10/26/2017 00:00:00,133774222,N,,N,Y,,,,,Local government,UG,,10/27/2017 12:18:33,11/02/2017 06:39:57,N,G,07/01/2016 00:00:00,,,,
1244848,1827302017,2017,182730,06/30/2017 00:00:00,S,A,,N,566000798,,N,130537822,ALBEMARLE REGIONAL HEALTH SERVICES,711 ROANOKE AVE,,ELIZABETH CITY,NC,27909,GINGER MIDGETT,FINANCE OFFICER,2523383860,,GMIDGETT@ARHS-NC.ORG,02/15/2018 16:39:18,GINGER MIDGETT-FINANCE DIRECTOR,"MASON L SPRUILL, CPA","MASON L. SPRUILL, CPA",,ELIZABETH CITY,NC,27909,"MASON L. SPRUILL, CPA",OWNER/CPA,2523383860,,MLS@MLSPRUILLCPA.COM,02/10/2018 14:17:58,,O,,U,N,N,N,N,U,750000,Y,,6191174,,N,N,N,N,N,Y,,93,02/16/2018 00:00:00,02/20/2018 10:04:33,,N,908,1,x00,02/16/2018 00:00:00,,N,GINGER MIDGETT,FINANCE DIRECTOR,02/16/2018 00:00:00,561283149,N,,N,N,,,,,Local government,UG,,03/12/2018 10:43:08,03/15/2018 08:48:43,N,G,07/01/2016 00:00:00,,,,
1243467,1200412017,2017,120041,06/30/2017 00:00:00,S,A,,N,942479393,,N,847356318,CATHOLIC CHARITIES OF THE DIOCESE OF SANTA ROSA,987 AIRWAY COURT,,SANTA ROSA,CA,954032408,MARILYN STUART,DIRECTOR OF FINANCE & ACCOUNTING,7075288712,,MSTUART@SRCHARITIES.ORG,02/01/2018 12:31:28,MARILYN STUART-DIRECTOR OF FINANCE AND ACCOUNTING,ARMANINO LLP,"44 MONTGOMERY STREET, SUITE 900",,SAN FRANCISCO,CA,94104,GRANT LAM,PARTNER,4155683291,,GRANT.LAM@ARMANINOLLP.COM,01/30/2018 01:36:22,,O,,U,N,N,N,N,U,750000,Y,,2031382,,N,N,N,N,N,N,,14,02/01/2018 00:00:00,02/02/2018 09:06:51,,N,908,1,x00,02/01/2018 00:00:00,,N,MARILYN STUART,DIRECTOR OF FINANCE AND ACCOUNTING,02/01/2018 00:00:00,946214841,N,,N,N,,,,,Non-profit,UG,,02/27/2018 08:24:02,03/01/2018 09:19:18,,N,07/01/2016 00:00:00,,,,
1236295,1577452017,2017,157745,06/30/2017 00:00:00,S,A,,N,216004798,,N,,FREEHOLD REGIONAL HIGH SCHOOL DISTRICT,11 PINE STREET,,ENGLISHTOWN,NJ,07726,SEAN BOYCE,ASST. SUPERINTENDENT TO BUSINESS ADMIN.,7327927300,,SBOYCE@FRHSD.COM,12/04/2017 16:10:55,SEAN BOYCE-ASSISTANT SUPERINTENDENT,"SUPLEE, CLOONEY & COMPANY",308 E BROAD STREET,,WESTFIELD,NJ,07090,ROBERT SWISHER,PARTNER,9087899300,,RSWISHER@SCNCO.COM,12/04/2017 16:09:14,,O,,U,N,N,N,N,U,750000,Y,,3861258,,N,N,N,N,N,N,,93,12/04/2017 00:00:00,12/05/2017 08:14:44,,N,505,1,x00,12/04/2017 00:00:00,,N,SEAN BOYCE,ASSISTANT SUPERINTENDENT,12/04/2017 00:00:00,221427684,N,,N,N,,,,,Local government,UG,,12/05/2017 08:27:36,12/07/2017 07:44:38,N,G,07/01/2016 00:00:00,,,,
1225407,1501092017,2017,150109,06/30/2017 00:00:00,S,A,,N,381711021,,N,074791427,BAY DE NOC COMMUNITY COLLEGE,2001 N. LINCOLN ROAD,,ESCANABA,MI,49829,ANN VALIQUETTE,DIRECTOR OF THE BUSINESS OFFICE,9062174070,,ANN.VALIQUETTE@BAYCOLLEGE.EDU,11/02/2017 15:36:57,ANN VALIQUETTE-DIRECTOR OF BUSINESS OFFICE,REHMANN ROBSON LLC,2330 EAST PARIS AVENUE SE,,GRAND RAPIDS,MI,49546,"LISA VANDEWEERT, CPA",PRINCIPAL,6169754100,,LISA.VANDEWEERT@REHMANN.COM,11/02/2017 16:04:30,,O,,U,N,N,N,N,U,750000,Y,,6305992,,N,N,N,N,N,N,,84,11/02/2017 00:00:00,11/03/2017 11:31:33,,N,504,1,x00,11/02/2017 00:00:00,,N,ANN VALIQUETTE,DIRECTOR OF BUSINESS OFFICE,11/02/2017 00:00:00,383635706,N,,N,N,,,,,Institution of higher education (IHE),UG,00224000,11/03/2017 14:37:33,11/09/2017 08:25:04,N,B,07/01/2016 00:00:00,,,,
1256605,2462872017,2017,246287,12/31/2017 00:00:00,S,A,,N,431106228,,N,,LEGAL SERVICES OF SOUTHERN MISSOURI,809 N. CAMPBELL,,SPRINGFIELD,MO,65802,SHARON ALEXANDER,DIRECTOR OF DEVELOPMENT,4178811397,,SHARON@LSOSM.ORG,04/27/2018 08:29:20,SHARON ALEXANDER-DIRECTOR OF DEVELOPMENT,"ROBERTS, MCKENZIE, MANGAN & CUMMINGS PC",4035 S. FREMONT,,SPRINGFIELD,MO,65804,JEFF KEELING,PARTNER,4178835348,,JK@RMMC-CPA.COM,04/27/2018 08:18:24,,O,,U,N,N,N,N,U,750000,N,,1951194,,N,N,N,N,N,N,,09,04/27/2018 00:00:00,05/01/2018 01:30:21,,N,888,1,x00,04/27/2018 00:00:00,,N,SHARON ALEXANDER,DIRECTOR OF DEVELOPMENT,04/27/2018 00:00:00,431244312,N,,N,N,,,,,Non-profit,UG,,,,,,01/01/2017 00:00:00,,,,
1283286,2478872017,2017,247887,06/30/2017 00:00:00,S,B,,N,430951012,,N,096729157,CITY OF FRANKFORD MISSOURI,217 MAIN ST,,FRANKFORD,MO,634011000,MARILYN FRAZER,CITY CLERK,5737842618,,MFRAZER9988@ATT.NET,01/18/2019 10:40:12,MARILYN FRAZER-CITY CLERK,DENNIS G KOCH & ASSOC LLC,1706 N 16TH ST,,QUINCY,IL,623011404,DENNIS G KOCH,OWNER,2172248484,,DGKOCH@DGKOCHCPA.COM,01/07/2019 16:57:36,,O,,U,N,N,N,N,U,750000,N,,1666784,,N,N,N,N,N,Y,,10,01/18/2019 00:00:00,01/23/2019 01:30:20,,N,888,1,x00,01/18/2019 00:00:00,,N,MARILYN FRAZER,CITY CLERK,01/18/2019 00:00:00,821349697,N,,N,N,,,,,Local government,UG,,,,,,07/01/2016 00:00:00,,,,
1269812,2136652017,2017,213665,12/31/2017 00:00:00,S,A,,N,344429426,,N,101647592,"EAST TOLEDO FAMILY CENTER, INC.",1020 VARLAND AVE.,,TOLEDO,OH,43605,JODI GROSS,EXECUTIVE DIRECTOR,4196911429,,JODIG@ETFC.ORG,10/01/2018 16:30:19,JODI GROSS-EXECUTIVE,"DEMARCO & ASSOCIATES CPAS, LLC","845 COMMERCE DRIVE, SUITE 3",,PERRYSBURG,OH,43551,"LESLIE DEMARCO, CPA",OWNER,4199310250,,LDEMARCO@DEMARCOCPALLC.COM,10/01/2018 17:05:57,,O,,U,N,N,N,N,U,750000,N,,799799,,N,N,N,N,N,Y,,93,10/01/2018 00:00:00,10/06/2018 01:30:20,,N,908,1,x00,10/01/2018 00:00:00,,N,JODI GROSS,EXECUTIVE,10/01/2018 00:00:00,463287546,N,,N,N,,,,,Non-profit,UG,,10/10/2018 10:47:53,10/11/2018 10:37:17,,N,01/01/2017 00:00:00,,,,
1260943,2431142017,2017,243114,12/31/2017 00:00:00,S,A,,N,640678962,,N,876865585,"LAUDERDALE SR SVCS, INC. - ALDERSGATE  RETIRE  CTR- PHASE I 065EH083",109 SOUTH BROADWAY; P.O. BOX 1567,,TUPELO,MS,38802,CHRISTIE VANCE,VP OF FINANCE,6628448977,,CHRISTIE.VANCE@MSS.ORG,08/10/2018 11:04:06,CHRISTIE VANCE-CFO,"WATKINS, WARD AND STAFFORD, PLLC",53 NORTH DUNN STREET; P.O. BOX 311,,EUPORA,MS,39744,ANITA GOODRUM,PARTNER,6622582331,,AGOODRUM@WWSCPA.COM,07/25/2018 09:13:27,,O,,U,N,N,N,N,U,750000,Y,,1141367,,N,N,N,N,N,Y,,14,08/13/2018 00:00:00,08/15/2018 01:30:21,,N,888,1,x00,08/13/2018 00:00:00,,N,CHRISTIE VANCE,CFO,08/13/2018 00:00:00,640394922,N,,N,N,,,,,Non-profit,UG,,,,,,01/01/2017 00:00:00,,,,
1247750,1357802017,2017,135780,06/30/2017 00:00:00,S,A,,N,066001971,,N,,"TOWN OF CHESHIRE, CONNECTICUT",84 SOUTH MAIN ST.,,CHESHIRE,CT,06410,JAMES JASKOT,FINANCE DIRECTOR,2032716617,,JJASKOT@CHESHIRECT.ORG,02/21/2018 12:25:35,JAMES JASKOT-FINANCE DIRECTOR/TREASURER,RSM US LLP,157 CHURCH ST.,,NEW HAVEN,CT,06510,SCOTT A. BASSETT,PARTNER,2037731909,,SCOTT.BASSETT@RSMUS.COM,02/21/2018 08:57:31,,O,,U,N,N,N,N,U,750000,Y,,1808504,,N,N,N,N,N,N,,84,02/21/2018 00:00:00,02/22/2018 12:43:39,,N,300,1,x00,02/21/2018 00:00:00,,N,JAMES JASKOT,FINANCE DIRECTOR/TREASURER,02/21/2018 00:00:00,420714325,N,,N,N,,,,,Local government,UG,,03/09/2018 10:11:41,03/15/2018 08:48:43,N,G,07/01/2016 00:00:00,,,,
1241743,1539442017,2017,153944,06/30/2017 00:00:00,S,A,,N,446003597,,N,,MT. VERNON R-V SCHOOL DISTRICT,731 S LANDRUM STREET,,MT. VERNON,MO,657121723,MR. SCOTT COOK,SUPERINTENDENT,4174667573,,COOKSCOTT@MTVERNON.K12.MO.US,01/10/2018 10:41:22,SCOTT COOK-SUPERINTENDENT,"KPM CPAS, PC",1445 E REPUBLIC ROAD,,SPRINGFIELD,MO,65804,RANDALL MOOTS,SHAREHOLDER,4178824300,,RMOOTS@KPMCPA.COM,01/06/2018 22:07:45,,O,,S,N,Y,N,N,U,750000,N,,1379463,,N,N,N,N,N,N,,84,01/10/2018 00:00:00,01/11/2018 09:06:22,,N,505,1,x00,01/10/2018 00:00:00,,N,SCOTT COOK,SUPERINTENDENT,01/10/2018 00:00:00,431109768,Y,,N,N,CASH,N,U,,Local government,UG,,01/26/2018 11:53:06,02/01/2018 07:50:21,N,G,07/01/2016 00:00:00,,,,
1260570,2188592017,2017,218859,09/30/2017 00:00:00,S,A,,N,593479845,,N,031723286,"CITY OF MARCO ISLAND, FLORIDA",50 BALD EAGLE DRIVE,,MARCO ISLAND,FL,34145,GUILLERMO POLANCO,FINANCE DIRECTOR,2393895016,,GPOLANCO@CITYOFMARCOISLAND.COM,06/22/2018 14:08:39,GUILLERMO A. POLANCO-FINANCE DIRECTOR,"MAULDIN & JENKINS, LLC",1401 MANATEE AVE W,,BRADENTON,FL,34205,WADE SANSBURY,PARTNER,9417474483,,WSANSBURY@MJCPA.COM,06/23/2018 15:03:10,,O,,U,N,N,N,N,U,750000,N,,824959,,N,N,N,N,N,N,,20,07/30/2018 00:00:00,08/01/2018 01:30:20,,N,200,1,x00,07/30/2018 00:00:00,,N,GUILLERMO A. POLANCO,FINANCE DIRECTOR,07/30/2018 00:00:00,580692043,N,,N,N,,,,,Local government,UG,,,,,,10/01/2016 00:00:00,,,,
1255240,591652017,2017,59165,12/31/2017 00:00:00,S,A,,N,391078133,,N,068321512,"OPPORTUNITIES, INC. OF JEFFERSON COUNTY",200 EAST CRAMER STREET,,FORT ATKINSON,WI,53538,BARBARA LE DUC,PRESIDENT,9205632437,,BLEDUC@OPPINC.COM,04/17/2018 10:03:09,BARBARA LE DUC-PRESIDENT/CEO,WIPFLI LLP,PO BOX 8700,,MADISON,WI,53708,"DENES L. TOBIE, CPA",PARTNER,6082741980,,DTOBIE@WIPFLI.COM,04/17/2018 14:00:31,,O,,U,N,N,N,N,U,750000,N,,1076729,,N,N,N,N,N,N,,84,04/17/2018 00:00:00,04/24/2018 01:30:20,,N,908,1,x00,04/17/2018 00:00:00,,N,BARBARA LE DUC,PRESIDENT/CEO,04/17/2018 00:00:00,390758449,N,,N,N,,,,,Non-profit,UG,,05/03/2018 12:01:16,05/10/2018 10:32:59,,N,01/01/2017 00:00:00,,,,
1233085,1935202017,2017,193520,03/31/2017 00:00:00,S,A,,N,056000192,,N,093212215,HOUSING AUTHORITY OF THE CITY OF PAWTUCKET,PO BOX 1303,,PAWTUCKET,RI,02862,JOSEPH LOCONTO,FINANCE DIRECTOR,4017259113,,JLOCONTO@PAWTHOUSING.ORG,11/20/2017 09:32:59,JOSEPH LOCONTO-DIRECTOR OF FINANCE,"GUYDER HURLEY, P.C.","100 GRANDVIEW ROAD, SUITE 320",,BRAINTREE,MA,02184,MICHAEL GUYDER,DIRECTOR,6179331054,,MGUYDER@GUYDER-HURLEY.COM,11/19/2017 15:37:57,,O,,U,N,N,N,N,U,750000,N,,11750596,,N,N,N,N,N,N,,14,11/20/2017 00:00:00,11/21/2017 08:51:55,,N,403,1,x00,11/20/2017 00:00:00,,N,JOSEPH LOCONTO,DIRECTOR OF FINANCE,11/20/2017 00:00:00,043520245,N,,N,N,,,,,Local government,UG,,,,,,04/01/2016 00:00:00,,,,
1268455,711922017,2017,71192,12/31/2017 00:00:00,S,A,,Y,510072149,,N,805165909,THE ARC OF DELAWARE,2 SOUTH AUGUSTINE STREET ,,WILMINGTON,DE,19804,ELIZABETH HARRIS,CONTROLLER,3029969400,,EHARRIS@THEARCOFDELAWARE.ORG,09/28/2018 13:48:03,ELIZABETH HARRIS-CONTROLLER,SANTORA CPA GROUP,"220 CONTINENTAL DRIVE, SUITE 112",,NEWARK,DE,19713,JOHN D'AGOSTINO,DIRECTOR,3027376200,,JDAG@SANTORACPAGROUP.COM,09/28/2018 12:01:36,,O,,U,Y,N,N,N,U,750000,N,,9022767,,Y,N,N,Y,Y,N,,14,09/28/2018 00:00:00,10/03/2018 01:30:21,,N,908,1,x14,09/28/2018 00:00:00,,N,ELIZABETH HARRIS,CONTROLLER,09/28/2018 00:00:00,510284658,N,,Y,Y,,,,,Non-Profit,UG,,,,,,01/01/2017 00:00:00,,,,
1231299,2138172017,2017,213817,06/30/2017 00:00:00,S,A,,N,593740977,,N,610198888,SR CARE GROUP OF MCDOWELL LLC DBA DEER PARK REHAB & CARE  05322131 ,306 DEER PARK ROAD,,NEBO,FL,28761,AMY BARNHART,CHIEF FINANCIAL OFFICER,8133412735,,ABARNHART@SENIORCAREGROUP.COM,11/07/2017 13:17:09,AMY BARNHART-CHIEF FINANCIAL OFFICER,"PDR CPAS + ADVISORS, INC.","4023 TAMPA ROAD, SUITE 2000",,OLDSMAR,FL,34677,NANCY RIDENOUR,CPA/SHAREHOLDER,7278574447,,NRIDENOUR@PDR-CPA.COM,11/08/2017 09:07:11,,O,,U,N,Y,Y,Y,Q,750000,N,,6494675,,N,Y,Y,Y,Y,N,,14,11/08/2017 00:00:00,11/09/2017 09:59:40,,N,909,1,x14,11/08/2017 00:00:00,,N,AMY BARNHART,CHIEF FINANCIAL OFFICER,11/08/2017 00:00:00,591687531,Y,,N,N,,,,,Non-profit,UG,,,,,,07/01/2016 00:00:00,,,,
1224206,1714502017,2017,171450,06/30/2017 00:00:00,S,A,,Y,626000909,,N,961937844,WHITE COUNTY TENNESSEE,"1 E. BOCKMAN WAY, ROOM 204",,SPARTA ,TN,38583,CHAD MARCUM,WHITE COUNTY FINANCE DIRECTOR,9318363216,,CHAD.MARCUM@WHITECOUNTYTN.GOV,12/06/2017 12:06:56,CHAD MARCUM-DIRECTOR OF FINANCE,COMPTROLLER OF THE TREASURY,"CORDELL HULL BLDG, 425 FIFTH AVE. NORTH",,NASHVILLE,TN,372433400,GREG WORLEY,AUDIT REVIEW MANAGER,6154017846,,GREG.WORLEY@COT.TN.GOV,12/06/2017 10:02:22,,O,,U,Y,N,N,N,U,750000,Y,,5112668,,N,N,N,N,N,N,,23,12/12/2017 00:00:00,12/13/2017 09:53:42,,N,100,1,x00,12/12/2017 00:00:00,,N,CHAD MARCUM,DIRECTOR OF FINANCE,12/12/2017 00:00:00,626001145,N,,Y,N,,,,,Local government,UG,,12/13/2017 13:06:30,12/14/2017 06:59:43,N,G,07/01/2016 00:00:00,,,,
1222793,1945902017,2017,194590,03/31/2017 00:00:00,S,A,,N,930705898,,N,785579871,NORTHEAST OREGON HOUSING AUTHORITY,PO BOX 3357,,LA GRANDE,OR,97850,PAM THOMPSON,DIRECTOR OF FINANCE,5419633682,,PGTHOMP54@GMAIL.COM,08/24/2017 16:05:42,PAMALA THOMPSON-DIRECTOR OF FINANCE,"LEWIS, POE, MOELLER, GUNDERSON & ROBERTS, LLC",PO BOX 1024,,LA GRANDE,OR,97850,YVONNE ROBERTS,OWNER/MEMBER,5419634191,,YROBERTS@LAGRANDECPA.COM,08/24/2017 12:19:44,,O,,U,N,N,N,N,U,750000,Y,,5009080,,N,N,N,N,N,N,,14,08/24/2017 00:00:00,08/25/2017 10:32:20,,N,403,1,x00,08/24/2017 00:00:00,,N,PAMALA THOMPSON,DIRECTOR OF FINANCE,08/24/2017 00:00:00,931245066,N,,N,N,,,,,Local government,UG,,,,,,04/01/2016 00:00:00,,,,
1244281,2356732017,2017,235673,06/30/2017 00:00:00,S,A,,N,942553319,,N,787531420,WESTCOAST CHILDREN'S CLINIC,"3301 EAST 12TH STREET, SUITE 259",,OAKLAND,CA,94601,JEFF WANDS,CFO,5102699030,,JWANDS@WESTCOASTCC.ORG,02/01/2018 20:15:06,PAMELA NEYLAND-DIRECTOR OF FINANCE AND ACCOUNTING,"GILMORE & ASSOCIATES, CPA","177 BOVET ROAD, SUITE 550",,SAN MATEO,CA,94402,CAPRICE WUMMER,DIRECTOR,6504326110,,CWUMMER@GILMORECPA.COM,01/18/2018 18:16:19,,O,,U,N,N,N,N,U,750000,Y,,1306033,,N,N,N,N,N,N,,93,02/01/2018 00:00:00,02/02/2018 11:01:43,,N,902,1,x00,02/01/2018 00:00:00,,N,PAMELA NEYLAND,DIRECTOR OF FINANCE AND ACCOUNTING,02/01/2018 00:00:00,943128112,N,,N,N,,,,,Non-profit,UG,,,,,,07/01/2016 00:00:00,,,,
1227862,1856302017,2017,185630,06/30/2017 00:00:00,S,A,,N,680373721,,N,,"OLIVE AVENUE APARTMENTS, INC. 121-HD023","2169 EAST FRANCISCO BLVD, STE B",,SAN RAFAEL,CA,94901,ROSE PAPPAS,PROPERTY ACCOUNTING MANAGER,4152581800,,ROSE.PAPPAS@EAHHOUSING.ORG,10/02/2017 18:25:16,ROSE PAPPAS-ACCOUNTING MANAGER,"SPITERI, NARASKY & DALEY, LLP",1024 COUNTRY CLUB DRIVE,,MORAGA,CA,94556,ANNETTE SPITERI,PARTNER,9253762195,,ASPITERI@SNDCPA.COM,10/02/2017 16:41:43,,O,,U,N,N,N,N,U,750000,Y,,2040896,,N,N,N,N,N,N,,14,10/02/2017 00:00:00,10/03/2017 14:46:36,,N,903,1,x00,10/02/2017 00:00:00,,N,ROSE PAPPAS,ACCOUNTING MANAGER,10/02/2017 00:00:00,680199099,N,,N,N,,,,,Non-profit,UG,,,,,,07/01/2016 00:00:00,,,,
1243633,1609552017,2017,160955,06/30/2017 00:00:00,S,A,,N,566001521,,N,616168266,BEAUFORT COUNTY,121 WEST THIRD STREET,,WASHINGTON,NC,27889,ANITA RADCLIFFE,CHIEF FINANCIAL OFFICER,2529460079,,ANITA.RADCLIFFE@CO.BEAUFORT.NC.US,01/30/2018 14:50:09,ANITA RADCLIFFE-FINANCE OFFICER,JEFF BEST CPA PLLC,382 PAMLICO STREET PO BOX 399,,BELHAVEN,NC,278890399,JEFF BEST,PARTNER,2529432723,,ALATHAM@JEFFBESTCPA.COM,01/30/2018 14:15:13,,C,16,U,N,N,N,N,U,1894630,N,,63154339,,N,N,N,N,N,N,,,01/30/2018 00:00:00,01/31/2018 10:15:07,,N,100,1,x00,01/30/2018 00:00:00,,N,ANITA RADCLIFFE,FINANCE OFFICER,01/30/2018 00:00:00,822682240,N,,N,N,,,,,Local government,UG,,02/23/2018 11:18:33,03/01/2018 09:19:18,N,G,07/01/2016 00:00:00,,,,
1242226,704492017,2017,70449,06/30/2017 00:00:00,S,A,,N,480812610,,N,177866563,SER CORPORATION,1020 N. MAIN SUITE D,,WICHITA,KS,67203,RICHARD E. LOPEZ,CEO,3162645372,,RELOPEZ@SERCORP.COM,01/05/2018 15:15:27,RICHARD LOPEZ-PRESIDENT & CEO,"ADAMS, BROWN, BERAN & BALL, CHTD",545 N. WOODLAWN,,WICHITA,KS,67208,ROBERT DECKER,PRINCIPAL,3166832067,,RDECKER@ABBB.COM,01/08/2018 09:26:08,,O,,U,N,Y,N,N,U,750000,N,,1029556,,N,Y,N,Y,Y,Y,,17,01/08/2018 00:00:00,01/09/2018 08:54:13,,N,908,1,x17,01/08/2018 00:00:00,,N,RICHARD LOPEZ,PRESIDENT & CEO,01/08/2018 00:00:00,481040139,Y,,N,N,,,,,Non-profit,UG,,,,,,07/01/2016 00:00:00,,,,
1232237,808132017,2017,80813,06/30/2017 00:00:00,S,A,,N,550583675,,N,789992708,YOUTH SERVICES SYSTEM INC.,"87 15TH STREET, PO BOX 6041",,WHEELING,WV,26003,MOLLY WILLIAMS,CFO,3042182888,,MWILLIAMS@YSSWV.COM,12/19/2017 12:50:00,MOLLY WILLIAMS-M. E. WILLIAMS,PERRY & ASSOCIATES CPAS A.C.,313 SECOND STREET,,MARIETTA,OH,45750,JESSICA HELDMAN,SENIOR AUDIT MANAGER,7403730056,,JHELDMAN@PERRYCPAS.NET,12/19/2017 13:26:42,,O,,U,N,N,N,N,U,750000,Y,,1814306,,N,N,N,N,N,N,,93,12/19/2017 00:00:00,12/20/2017 09:45:15,,N,908,1,x00,12/19/2017 00:00:00,,N,MOLLY WILLIAMS,M. E. WILLIAMS,12/19/2017 00:00:00,550771624,N,,N,N,,,,,Non-profit,UG,,,,,,07/01/2016 00:00:00,,,,
1270058,2374142017,2017,237414,12/31/2017 00:00:00,S,A,,N,264314165,,N,,"RMC PROPERTY HOLDINGS, LLC 105-43079",576 W 900 SO # 260,,WOODS CROSS,UT,84010,NATHAN BANGERTER,ACCOUNTANT,8013974000,,NATHAN.BANGERTER@RMCARE.COM,10/02/2018 11:15:28,NATHAN BANGERTER-SENIOR ACCOUNTING DIRECTOR,WSRP,155 NO 400 W #400,,SLC,UT,84103,TYLER CURTIS,CPA,8013282011,,TCURTIS@WSRP.COM,10/01/2018 23:58:52,,O,,U,N,Y,Y,N,Q,750000,Y,,11663855,,N,Y,Y,Y,N,N,,14,10/02/2018 00:00:00,10/06/2018 01:30:20,,N,903,1,x00x14,10/02/2018 00:00:00,,N,NATHAN BANGERTER,SENIOR ACCOUNTING DIRECTOR,10/02/2018 00:00:00,870517754,Y,,N,N,,,,,Non-profit,UG,,,,,,01/01/2017 00:00:00,,,,
1221674,1624112017,2017,162411,06/30/2017 00:00:00,S,A,,N,316402079,,N,041071101,KENT STATE UNIVERSITY,234 SCHWARTZ CENTER,,KENT,OH,44242,ASHLEY BAKER,MGR. ACCOUNTING,3306720986,,ALBAKER@KENT.EDU,12/06/2017 17:10:36,"ASHLEY BAKER-MANAGER, GRANTS ACCOUNTING","PLANTE & MORAN, PLLC",3434 GRANITE CIRCLE,,TOLEDO,OH,43617,ROBB ROSE,PARTNER,4198426188,,PM.SINGLEAUDIT@PLANTEMORAN.COM,11/30/2017 09:08:14,,C,84,U,N,N,N,N,U,750000,N,,344109248,,N,N,N,N,N,N,,,12/07/2017 00:00:00,12/08/2017 08:54:32,,N,004,1,x00,12/07/2017 00:00:00,,N,ASHLEY BAKER,"MANAGER, GRANTS ACCOUNTING",12/07/2017 00:00:00,381357951,N,,N,N,,,,,Institution of higher education (IHE),UG,00305100,12/08/2017 11:53:45,12/14/2017 06:59:43,N,B,07/01/2016 00:00:00,,,,
1251342,2113432017,2017,211343,06/30/2017 00:00:00,S,A,,N,943372130,,N,101744428,"SOUTH COUNTY COMMUNITY HEALTH CENTER, INC.",1798- A BAY ROAD,,EAST PALO ALTO,CA,94303,WAYNE YOST,CHIEF FINANCIAL OFFICER,6503307407,,WYOST@RAVENSWOODFHC.ORG,03/20/2018 18:37:28,WAYNE YOST-CHIEF FINANCIAL OFFICER,"PATEL & ASSOCIATES, LLP","266 17TH STREET, SUITE 200",,OAKLAND,CA,946124124,SANWAR HARSHWAL,MANAGING PARTNER,5104525051,,SHARSHWAL@PATELCPA.COM,03/20/2018 16:52:40,,O,,U,N,N,N,N,U,750000,Y,,4162442,,N,N,N,N,N,N,,93,03/20/2018 00:00:00,03/23/2018 01:30:21,,N,908,1,x00,03/20/2018 00:00:00,,N,WAYNE YOST,CHIEF FINANCIAL OFFICER,03/20/2018 00:00:00,364781081,N,,N,N,,,,,Non-profit,UG,,,,,,07/01/2016 00:00:00,,,,
1256539,1876842017,2017,187684,09/30/2017 00:00:00,S,A,,N,386005853,,N,,MANISTEE COUNTY,415 THIRD STREET,,MANISTEE,MI,49660,RUSSEL POMEROY,TREASURER,2317233173,,RAPOMEROY@MANISTEECOUNTYMI.GOV,05/01/2018 09:52:53,RUSSEL POMEROY-COUNTY TREASURER,"GABRIDGE & COMPANY, PLC","3940 PENINSULAR DRIVE SE, SUITE 130",,GRAND RAPIDS,MI,49512,JOE VERLIN,PRINCIPAL,6165387100,,JVERLIN@GABRIDGECO.COM,04/26/2018 13:31:16,,O,,U,N,N,N,N,U,750000,N,,1047675,,N,N,N,N,N,N,,10,05/01/2018 00:00:00,05/03/2018 01:30:21,,N,100,1,x00,05/01/2018 00:00:00,,N,RUSSEL POMEROY,COUNTY TREASURER,05/01/2018 00:00:00,260317004,N,,N,N,,,,,Local government,UG,,,,,,10/01/2016 00:00:00,,,,
1242151,1456422017,2017,145642,06/30/2017 00:00:00,S,A,,N,480840310,,N,949884926,"INTERLOCAL NO. 608, NORTHEAST KANSAS EDUCATION SERVICE CENTER",505 S. SUNFLOWER,,OZAWKIE,KS,66770,LISA MORANDO,BUSINESS MANAGER,7858762214,,LMORANDO@KEYSTONELEARNING.ORG,02/07/2018 12:12:41,LISA MORANDO-BUSINESS MANAGER,"JARRED, GILMORE & PHILLIPS, PA","1815 S SANTA FE, PO BOX 779",,CHANTUE,KS,667200779,NEIL L PHILLIPS,AUDITOR IN CHARGE,6204316342,,NPHILLIPS@JGPPA.COM,01/05/2018 10:15:25,,O,,S,N,N,N,N,U,750000,N,,1699838,,N,N,N,N,N,N,,84,02/07/2018 00:00:00,02/08/2018 10:11:08,,N,505,1,x00,02/07/2018 00:00:00,,N,LISA MORANDO,BUSINESS MANAGER,02/07/2018 00:00:00,203906022,N,,N,N,REGULATORY,N,U,,Local government,UG,,03/05/2018 15:16:21,03/08/2018 07:45:34,N,G,07/01/2016 00:00:00,,,,
1232404,1761102017,2017,176110,06/30/2017 00:00:00,S,A,,Y,546001582,,N,077928455,"COUNTY OF ROCKINGHAM, VIRGINIA",20 EAST GAY STREET,,HARRISONBURG,VA,22802,PATRICIA DAVIDSON,DIRECTOR OF FINANCE,5405643010,,TDAVIDSON@ROCKINGHAMCOUNTYVA.GOV,11/21/2017 13:18:56,PATRICIA DAVIDSON-DIRECTOR OF FINANCE,"PBMARES, LLP",558 SOUTH MAIN STREET,,HARRISONBURG,VA,22801,BETSY HEDRICK,PARTNER,5404345975,,BHEDRICK@PBMARES.COM,11/21/2017 08:27:53,,O,,U,N,N,N,N,Q,750000,N,,17453103,,N,Y,N,Y,N,N,,97,11/21/2017 00:00:00,11/22/2017 10:28:16,,N,100,1,x00,11/21/2017 00:00:00,,N,PATRICIA DAVIDSON,DIRECTOR OF FINANCE,11/21/2017 00:00:00,540737372,N,,N,N,,,,,Local government,UG,,11/27/2017 10:31:44,11/30/2017 07:11:25,N,G,07/01/2016 00:00:00,,,,
1241465,1610042017,2017,161004,06/30/2017 00:00:00,S,A,,N,566001012,,N,,COLUMBUS COUNTY BOARD OF EDUCATION,P O BOX 729,,WHITEVILLE,NC,28472,TERRY DUDNEY,FINANCE OFFICER,9106425168,,TDUDNEY@COLUMBUS.K12.NC.US,01/12/2018 08:07:12,TERRY DUDNEY-FINANCE OFFICER,"THOMPSON, PRICE, SCOTT, ADAMS, & CO., PA",P O BOX 398,,WHITEVILLE,NC,28472,ALAN THOMPSON,ENGAGEMENT PARTNER,9106422109,,ALANTHOMPSON@TPSACPAS.COM,01/12/2018 13:03:31,,O,,U,Y,N,N,N,U,750000,N,,10383117,,N,N,N,N,N,Y,,12,01/12/2018 00:00:00,01/17/2018 14:19:45,,N,105,1,x00,01/12/2018 00:00:00,,N,TERRY DUDNEY,FINANCE OFFICER,01/12/2018 00:00:00,561824665,N,,Y,N,,,,,Local government,UG,,01/29/2018 13:44:04,02/01/2018 07:50:21,N,G,07/01/2016 00:00:00,,,,
1225027,2180632017,2017,218063,06/30/2017 00:00:00,S,A,,N,251865764,,N,,"WESTLAKE ELDERLY APARTMENTS, INC.  033-EE101",803 EAST PITTSBURGH PLAZA,,EAST PITTSBURGH,PA,15112,MATT PATSEY,SENIOR ACCOUNTANT,4128293910,,MPATSEY@SHMS-ACTIONHOUSING.ORG,09/25/2017 10:12:42,MATT PATSEY-SR ACCOUNTANT,"GOFF BACKA ALFERA & COMPANY, LLC",3325 SAW MILL RUN BOULEVARD,,PITTSBURGH,PA,15227,JENNIFER VARLEY ,PARTNER ,4128855045,,JAVARLEY@GBACO.COM,09/22/2017 13:01:57,,O,,U,N,N,N,N,U,750000,Y,,2193752,,N,N,N,N,N,N,,14,10/01/2017 00:00:00,10/03/2017 10:50:19,,N,903,1,x00,10/01/2017 00:00:00,,N,MATT PATSEY,SR ACCOUNTANT,10/01/2017 00:00:00,251871184,N,,N,N,,,,,Non-profit,UG,,,,,,07/01/2016 00:00:00,,,,
1260484,2268372017,2017,226837,12/31/2017 00:00:00,S,A,,N,570848637,,N,787205897,AID UPSTATE,PO BOX 150,,GREENVILLE,SC,29602,ANDREW HALL,EXECUTIVE DIRECTOR,8642500608,,ANDY.HALL@AIDUPSTATE.ORG,09/13/2018 10:06:30,B. ANDREW HALL-CEO,DIXON HUGHES GOODMAN,11 BRENDAN WAY ,,GREENVILLE,SC,29615,SABRINA PRESTON,SENIOR MANAGER,8642134031,,SABRINA.PRESTON@DHGLLP.COM,09/13/2018 07:36:18,,O,,U,Y,N,N,N,U,750000,Y,,4320447,,N,N,N,N,N,N,,93,09/13/2018 00:00:00,09/15/2018 01:30:21,,N,908,1,x00,09/13/2018 00:00:00,,N,B. ANDREW HALL,CEO,09/13/2018 00:00:00,560747981,N,,Y,N,,,,,Non-profit,UG,,,,,,01/01/2017 00:00:00,,,,
1243548,1664882017,2017,166488,06/30/2017 00:00:00,S,A,,N,936000205,,N,,CORVALLIS SCHOOL DISTRICT 509J,1555 SW 35TH STREET,,CORVALLIS,OR,97333,DEBBIE BELL,CONTROLLER,5417575927,,DEBBIE.BELL@CORVALLIS.K12.OR.US,01/19/2018 15:31:42,DEBBIE BELL-CONTROLLER,"PAULY, ROGERS AND CO, P.C.",12700 SW 72ND AVE,,TIGARD,OR,97223,HANNAH SIRPLESS,TEAM MANAGER,5036202632,,HANNAHS@RASCPAS.COM,01/19/2018 16:52:12,,O,,U,N,N,N,N,U,750000,Y,,4495826,,N,N,N,N,N,N,,84,01/19/2018 00:00:00,01/24/2018 17:07:18,,N,505,1,x00,01/19/2018 00:00:00,,N,DEBBIE BELL,CONTROLLER,01/19/2018 00:00:00,930936123,N,,N,N,,,,,Local government,UG,,02/05/2018 15:26:01,02/08/2018 07:42:37,N,G,07/01/2016 00:00:00,,,,
1221440,791552017,2017,79155,01/31/2017 00:00:00,S,A,,N,541074890,,N,796064582,"BLAND COUNTY MEDICAL CLINIC, INC.",12301 GRAPEFIELD ROAD,,BASTIAN,VA,243140102,SUSAN GREEVER,EXECUTIVE DIRECTOR,2766884336,,SGREEVER@BLANDCLINIC.NET,08/08/2017 16:52:01,SUSAN GREEVER-EXECUTIVE DIRECTOR,JUAN GARCIA,PO BOX 821,,ABINGDON,VA,242120821,JUAN GARCIA,AUDITOR,2766281123,,JJG@FIRMCPA.COM,08/16/2017 09:06:27,,O,,U,N,N,N,N,U,750000,Y,,1913083,,N,N,N,N,N,N,,93,08/16/2017 00:00:00,08/17/2017 08:15:35,,N,908,1,x00,08/16/2017 00:00:00,,N,SUSAN GREEVER,EXECUTIVE DIRECTOR,08/16/2017 00:00:00,061662488,N,,N,N,,,,,Non-profit,UG,,,,,,02/01/2016 00:00:00,,,,
1239463,1644932017,2017,164493,06/30/2017 00:00:00,S,A,,N,310819594,,N,076785708,UPPER VALLEY CAREER CENTER,8811 CAREER DRIVE,,PIQUA,OH,45356,ANTHONY FRALEY,TREASURER,9377781980,,FRALEYA@UPPERVALLEYCC.ORG,01/31/2018 08:54:02,ANTHONY FRALEY-TREASURER/CFO,"DAVE YOST, AUDITOR OF STATE OF OHIO",88 EAST BROAD STREET,,COLUMBUS,OH,43215,SCOTT BOWSER,ASSISTANT CHIEF AUDITOR,9372856677,,DCF-WEST@OHIOAUDITOR.GOV,01/31/2018 09:24:01,,O,,U,N,Y,N,N,U,750000,Y,,1838027,,N,N,N,N,N,N,,84,01/31/2018 00:00:00,02/01/2018 10:36:58,,N,505,1,x00,01/31/2018 00:00:00,,N,ANTHONY FRALEY,TREASURER/CFO,01/31/2018 00:00:00,311334820,Y,,N,N,,,,,Local government,UG,02116900,02/26/2018 10:55:55,03/01/2018 09:19:18,N,B,07/01/2016 00:00:00,,,,
1222126,620502017,2017,62050,06/30/2017 00:00:00,S,A,,N,410970173,,N,010347649,ADLER GRADUATE SCHOOL,1550 EAST 78TH STREET,,RICHFIELD,MN,55423,KATHERINE BENGTSON,VP FOR FINANCE AND ADMINISTRATION,6128617554,,KATHERINE.BENGTSON@ALFREDADLER.EDU,11/22/2017 09:14:57,KATERINE BENGTSON-VICE PRESDEN FOR FINANCE AND ADMINISTRATION,"BAKER TILLY VIRCHOW KRAUSE, LLP","225 SOUTH SIXTH STREET, SUITE 2300",,MINNEAPOLIS,MN,55402,RYAN ENGELSTAD,PARTNER,6128764613,,RYAN.ENGELSTAD@BAKERTILLY.COM,11/21/2017 15:20:50,,O,,U,Y,N,N,N,U,750000,N,,3898664,,N,N,N,Y,Y,N,,84,11/22/2017 00:00:00,11/27/2017 07:55:21,,N,904,1,x84,11/22/2017 00:00:00,,N,KATERINE BENGTSON,VICE PRESDEN FOR FINANCE AND ADMINISTRATION,11/22/2017 00:00:00,390859910,N,,Y,N,,,,,Non-profit,UG,03051900,11/27/2017 09:03:05,11/30/2017 07:11:25,S,S,07/01/2016 00:00:00,,,,
1234709,1623902017,2017,162390,06/30/2017 00:00:00,S,A,,N,310796550,,N,079427811,ZANE STATE COLLEGE,1555 NEWARK ROAD,,ZANESVILLE,OH,43701,TAMMY HUFFMAN,COMPTROLLER,7404542501,,THUFFMAN@ZANESTATE.EDU,01/03/2018 10:41:38,TAMMY HUFFMAN-COMPTROLLER,PERRY & ASSOCIATES CPAS A.C.,313 SECOND STREET,,MARIETTA,OH,45750,JESSICA HELDMAN,SENIOR AUDIT MANAGER,7403730056,,JHELDMAN@PERRYCPAS.NET,01/04/2018 10:54:52,,O,,U,Y,N,N,N,U,750000,Y,,5985985,,N,N,N,N,N,N,,84,01/04/2018 00:00:00,01/05/2018 09:52:05,,N,004,1,x00,01/04/2018 00:00:00,,N,TAMMY HUFFMAN,COMPTROLLER,01/04/2018 00:00:00,550771624,N,,Y,N,,,,,Institution of higher education (IHE),UG,00813300,01/05/2018 10:00:18,01/11/2018 13:16:22,N,B,07/01/2016 00:00:00,,,,
1248417,1654932017,2017,165493,06/30/2017 00:00:00,S,A,,N,736021050,,N,159303213,NOBLE S.D. NO. I-40,111 S. 4TH ST.,,NOBLE,OK,73068,FRANK SOLOMON,SUPERINTENDENT,4058723452,,FSOLOMON@NOBLEPS.COM,02/26/2018 08:59:37,FRANK SOLOMON-SUPERINTENDENT,"KERRY JOHN PATTEN, CPA",2101 N. WILLOW AVE.,,BROKEN ARROW,OK,74012,KERRY PATTEN,OWNER,9182508838,,KERRY.PATTEN@PATTENCPA.NET,02/26/2018 11:45:04,,O,,S,N,N,N,N,U,750000,N,,2124458,,N,N,N,N,N,N,,84,02/26/2018 00:00:00,02/27/2018 14:56:39,,N,505,1,x00,02/26/2018 00:00:00,,N,FRANK SOLOMON,SUPERINTENDENT,02/26/2018 00:00:00,731408273,N,,N,N,REGULATORY,N,Q,,Local government,UG,,03/14/2018 11:57:37,03/15/2018 08:48:43,N,G,07/01/2016 00:00:00,,,,
1232777,1928942017,2017,192894,06/30/2017 00:00:00,S,A,,N,580951360,,N,078313632,COASTAL REGIONAL COMMISSION OF GEORGIA,1181 COASTAL DRIVE SW,,DARIEN,GA,313056154,LENA GEIGER,FINANCE DIRECTOR,9124370820,,LGEIGER@CRC.GA.GOV,11/15/2017 07:46:04,LENA GEIGER-FINANCE DIRECTOR,"MCNAIR, MCLEMORE, MIDDLEBROOKS & CO., LLC",P.O. BOX ONE,,MACON,GA,31202,PAT MUSE,PARTNER,4787466277,,PMUSE@MMMCPA.COM,11/15/2017 10:23:04,,O,,U,N,N,N,N,U,750000,Y,,7021685,,N,N,N,N,N,N,,93,11/15/2017 00:00:00,11/16/2017 09:22:51,,N,109,1,x00,11/15/2017 00:00:00,,N,LENA GEIGER,FINANCE DIRECTOR,11/15/2017 00:00:00,581094351,N,,N,N,,,,,Non-profit,UG,,11/20/2017 10:01:46,11/30/2017 07:11:25,,N,07/01/2016 00:00:00,,,,
1232569,1884612017,2017,188461,06/30/2017 00:00:00,S,A,,N,383359822,,N,152892667,DOVE ACADEMY OF DETROIT,8210 ROLYAT ST,,DETROIT,MI,48234,ADAM HOLCOMB,CFO,6167858440,,ADAMHOLCOMB@CHOICESCHOOLS.COM,11/16/2017 13:32:20,ADAM HOLCOMB-CHIEF FINANCIAL OFFICER,"CROSKEY LANNI, P.C.","345 DIVERSION ST., STE 400",,ROCHESTER,MI,48307,PATRICK SWEENEY,CPA,2486595305,,PSWEENEY@CROSKEYLANNI.COM,11/20/2017 15:50:35,,O,,U,N,N,N,N,U,750000,N,,785530,,N,N,N,N,N,N,,84,11/20/2017 00:00:00,11/21/2017 13:37:32,,N,905,1,x00,11/20/2017 00:00:00,,N,ADAM HOLCOMB,CHIEF FINANCIAL OFFICER,11/20/2017 00:00:00,382777982,N,,N,N,,,,,Non-profit,UG,,11/21/2017 13:52:27,11/30/2017 07:11:25,,N,07/01/2016 00:00:00,,,,
1250023,1777742017,2017,177774,06/30/2017 00:00:00,S,A,,N,550545332,,N,128663879,HOUSING AUTHORITY OF THE CITY OF BECKLEY,PO BOX 1780,,BECKLEY,WV,258021780,SHARON HARMON,EXECUTIVE DIRECTOR,3042561770,,SHARONHARMON@SUDDENLINK.COM,03/15/2018 11:31:59,SHARON HARMON-EXECUTIVE DIRECTOR,BLAIR AND COMPANY AC,PO BOX 1991,,CHARLESTON,WV,253271991,RAYMOND RUSHDEN,AUDIT DIRECTOR,3043434603,,GABE.RUSHDEN@BLAIRCPAS.COM,03/14/2018 13:56:22,,O,,U,N,N,N,N,U,750000,Y,,3152642,,N,N,N,N,N,Y,,14,03/15/2018 00:00:00,03/17/2018 01:30:21,,N,403,1,x00,03/15/2018 00:00:00,,N,SHARON HARMON,EXECUTIVE DIRECTOR,03/15/2018 00:00:00,550720046,N,,N,N,,,,,Non-profit,UG,,,,,,07/01/2016 00:00:00,,,,
1256403,1834092017,2017,183409,12/31/2017 00:00:00,S,A,,N,952461674,,N,965860294,GRACE TOWER 129-35122,PO BOX 7070,,PASADENA,CA,911097070,SAM OROZCO,DIRECTOR OF FINANCE,3232583512,,SAMOROZCO@FGA-NET.COM,05/08/2018 19:28:33,SAM OROZCO-DIRECTOR OF FINANCE,"LEAF & COLE, LLP","2810 CAMINO DEL RIO SOUTH, SUITE 200",,SAN DIEGO,CA,92108,STEVEN W. NORTHCOTE,PARTNER,6192947200,,LEAFCOLEDATA@LEAF-COLE.COM,05/08/2018 22:02:51,,O,,U,N,N,N,N,U,750000,Y,,9776215,,N,N,N,N,N,N,,14,05/08/2018 00:00:00,05/10/2018 01:30:21,,N,903,1,x00,05/08/2018 00:00:00,,N,SAM OROZCO,DIRECTOR OF FINANCE,05/08/2018 00:00:00,952076568,N,,N,N,,,,,Non-profit,UG,,,,,,01/01/2017 00:00:00,,,,
1245832,1377472017,2017,137747,06/30/2017 00:00:00,S,A,,N,586000276,,N,100646165,LEE COUNTY BOARD OF EDUCATION,"P.O. BOX 399, 126 STARKSVILLE AVE				",,LEESBURG,GA,31763,GARY KELLEY,ASSISTANT SUPRINTENDENT OF FINANCE				,2299032115,,KELLEYG@LEE.K12.GA.US,02/27/2018 14:23:39,GARY KELLEY-ASSISTANT SUPERINTENDENT,GEORGIA DEPARTMENT OF AUDITS AND ACCOUNTS,270 WASHINGTON STREET S. W. SUITE 1-156,,ATLANTA,GA,30334,JESSICA WALKER,REPORT PROCESSING COORDINATOR,4044632681,,WALKERJ@AUDITS.GA.GOV,03/06/2018 13:34:00,,O,,U,N,N,N,N,U,750000,Y,,4929576,,N,N,N,N,N,N,,12,03/06/2018 00:00:00,03/07/2018 10:58:43,,N,505,1,x00,03/06/2018 00:00:00,,N,GARY KELLEY,ASSISTANT SUPERINTENDENT,03/06/2018 00:00:00,586002005,N,,N,N,,,,,Local government,UG,,03/26/2018 11:04:20,03/29/2018 07:34:47,N,G,07/01/2016 00:00:00,,,,
1240302,2007542017,2017,200754,06/30/2017 00:00:00,S,A,,N,226017240,,N,085696771,HUNTERDON CENTRAL REGIONAL HIGH SCHOOL - BOARD OF EDUCATION,84 ROUTE 31,,FLEMINGTON,NJ,08822,GYMLYN CORBIN,BUSINESS ADMINISTRATOR,9082847110,,GCORBIN@HCRHS.ORG,12/28/2017 11:28:23,GYMLYN CORBIN-BUSINESS ADMINISTRATOR/BOARD SECRETARY,"BKC, CPAS, PC",114 BROAD STREET,,FLEMINGTON,NJ,08822,JOSEPH R. STOUT,MANAGER,9087827900,,JRS@BKC-CPA.COM,12/21/2017 13:16:21,,O,,U,Y,N,N,N,U,750000,Y,,890761,,N,N,N,N,N,N,,93,12/28/2017 00:00:00,12/29/2017 12:26:15,,N,505,1,x00,12/28/2017 00:00:00,,N,GYMLYN CORBIN,BUSINESS ADMINISTRATOR/BOARD SECRETARY,12/28/2017 00:00:00,223299874,N,,Y,N,,,,,Local government,UG,,01/02/2018 14:04:19,01/11/2018 13:16:22,N,G,07/01/2016 00:00:00,,,,
1241061,2105422017,2017,210542,06/30/2017 00:00:00,S,A,,N,841241767,,N,839440476,"CHILDREN'S ADVOCACY CENTER FOR THE PIKES PEAK REGION, INC.",423 SOUTH CASCADE AVENUE,,COLORADO SPRINGS,CO,80903,MAUREEN BASENBERG,EXECUTIVE DIRECTOR,7196362460,,MBASENBERG@SAFEPASSAGECAC.ORG,01/02/2018 15:00:04,MAUREEN BASENBERG-EXECUTIVE DIRECTOR,"OSBORNE, PARSONS & ROSACKER LLP",601 NORTH NEVADA AVENUE,,COLORADO SPRINGS,CO,80903,MITCH DOWNS,PARTNER,7196362321,,MITCH@SPRINGSCPA.COM,01/03/2018 14:45:45,,O,,U,N,N,N,N,U,750000,Y,,793640,,N,N,N,N,N,N,,16,01/03/2018 00:00:00,01/04/2018 11:29:47,,N,908,1,x00,01/03/2018 00:00:00,,N,MAUREEN BASENBERG,EXECUTIVE DIRECTOR,01/03/2018 00:00:00,840636698,N,,N,N,,,,,Non-profit,UG,,,,,,07/01/2016 00:00:00,,,,
1232670,1644252017,2017,164425,06/30/2017 00:00:00,S,A,,N,346002628,,N,026707927,SHEFFIELD-SHEFFIELD LAKE CITY SCHOOL DISTRICT,1824 HARRIS ROAD,,SHEFFIELD,OH,44054,MICHAEL PISSINI,TREASURER,4409494205,,MPISSINI@SHEFFIELDSCHOOLS.ORG,01/11/2018 14:37:12,MICHAEL PISSINI-TREASURER/CFO,"JULIAN & GRUBE, INC.",333 COUNTY LINE ROAD WEST,,WESTERVILLE,OH,43082,"MARK A. GRUBE, CPA",PARTNER,6148461899,,MGRUBE@JGINC.BIZ,01/11/2018 14:33:18,,O,,U,N,N,N,N,U,750000,Y,,1103757,,N,N,N,N,N,N,,84,01/15/2018 00:00:00,01/18/2018 10:36:05,,N,505,1,x00,01/15/2018 00:00:00,,N,MICHAEL PISSINI,TREASURER/CFO,01/15/2018 00:00:00,311440367,N,,N,N,,,,,Local government,UG,,01/31/2018 11:15:33,02/01/2018 07:50:21,,N,07/01/2016 00:00:00,,,,
1258256,2093802017,2017,209380,12/31/2017 00:00:00,S,A,,N,146050436,,N,,"HOPE HOUSE, INC.",573 LIVINGSTON AVE,,ALBANY,NY,12206,DAWN PASQUARELL,DIRECTOR OF FINANCE,5184824673,,DAWN@HOPEHOUSEINC.ORG,05/25/2018 12:10:53,DAWN PASQUARELL-DIRECTOR OF FINANCE,"MARVIN AND COMPANY, PC",11 BRITISH AMERICAN BLVD,,LATHAM,NY,12110,"CAROL A. HAUSAMANN, CPA",DIRECTOR,5187850134,,CAH@MARVINCPA.COM,05/25/2018 11:09:28,,O,,U,N,N,N,N,U,750000,Y,,2396240,,N,N,N,N,N,N,,93,05/29/2018 00:00:00,05/31/2018 01:30:21,,N,908,1,x00,05/29/2018 00:00:00,,N,DAWN PASQUARELL,DIRECTOR OF FINANCE,05/29/2018 00:00:00,141567343,N,,N,N,,,,,Non-profit,UG,,05/30/2018 08:59:49,05/31/2018 07:11:29,,N,01/01/2017 00:00:00,,,,
1267637,1782752017,2017,178275,12/31/2017 00:00:00,S,A,,N,396005617,,N,018526038,CITY OF STEVENS POINT,1515 STRONGS AVENUE,,STEVENS POINT,WI,54481,COREY LADICK,COMPTROLLER TREASURER,7153461573,,CLADICK@STEVENSPOINT.COM,09/27/2018 14:30:14,COREY LADICK-COMPTROLLER-TREASURER,"BAKER TILLY VIRCHOW KRAUSE, LLP",10 TERRACE CT,,MADISON,WI,537077398,JODI DOBSON,PARTNER,6082402469,,JODI.DOBSON@BAKERTILLY.COM,09/27/2018 14:32:14,,O,,U,N,Y,N,N,U,750000,N,,1126508,,N,N,N,N,N,N,,20,09/27/2018 00:00:00,09/29/2018 01:30:21,,N,200,1,x00,09/27/2018 00:00:00,,N,COREY LADICK,COMPTROLLER-TREASURER,09/27/2018 00:00:00,390859910,Y,,N,N,,,,,Local government,UG,,,,,,01/01/2017 00:00:00,,,,
1240344,2076772017,2017,207677,08/31/2017 00:00:00,S,A,,N,741260710,,N,069459576,BCFS HEALTH AND HUMAN SERVICES,1506 BEXAR CROSSING,,SAN ANTONIO,TX,78232,CLAUDIA OLIVEIRA,TREASURER,2102835125,,COLIVEIRA@BCFS.NET,01/03/2018 12:49:59,CLAUDIA OLIVEIRA-TREASURER,BKD CPAS AND ADVISORS,10001 REUNION PLACE SUITE 400,,SAN ANTONIO,TX,78216,RANDY VOGEL,PARTNER,2103419400,,RVOGEL@BKD.COM,01/03/2018 15:26:11,,C,93,U,N,N,N,N,U,3000000,Y,,288619087,,N,N,N,N,N,N,,,01/03/2018 00:00:00,01/04/2018 11:26:41,,N,908,1,x00,01/03/2018 00:00:00,,N,CLAUDIA OLIVEIRA,TREASURER,01/03/2018 00:00:00,440160260,N,,N,N,,,,,Non-profit,UG,,,,,,09/01/2016 00:00:00,,,,
1232171,1958892017,2017,195889,06/30/2017 00:00:00,S,A,,N,366004898,,N,085220614,MUNDELEIN CONSOLIDATED HIGH SCHOOL DISTRICT 120,1350 W. HAWLEY STREET,,MUNDELEIN,IL,60060,ANDY SEARLE,CHIEF SCHOOL BUSINESS OFFICIAL,8479492200,,ASEARLE@D120.ORG,01/17/2018 10:23:56,ANDY SEARLE-CHIEF SCHOOL BUSINESS OFFICIAL,"MILLER COOPER & CO.,LTD.",1751 LAKE COOK ROAD SUITE 400,,DEERFIELD,IL,60015,SUSAN JONES,PRINCIPAL,8472055000,,SJONES@MILLERCOOPER.COM,12/12/2017 13:17:36,,O,,U,N,N,N,N,U,750000,N,,993127,,N,N,N,N,N,N,,84,01/17/2018 00:00:00,01/19/2018 15:07:37,,N,505,1,x00,01/17/2018 00:00:00,,N,ANDY SEARLE,CHIEF SCHOOL BUSINESS OFFICIAL,01/17/2018 00:00:00,362897372,N,,N,N,,,,,Local Government,UG,,02/05/2018 09:34:53,02/08/2018 07:42:37,N,G,07/01/2016 00:00:00,,,,
1243870,173992017,2017,17399,09/30/2017 00:00:00,S,A,,N,141493100,,N,005864228,"FULMONT COMMUNITY ACTION AGENCY, INC.",P.O. BOX 835,,FONDA,NY,12068,PATRICK MARTIN,DIRECTOR OF FINANCE/C.F.O.,5188538364,,PMARTINFULMONT@YAHOO.COM,01/25/2018 09:21:59,PATRICK MARTIN-DIRECTOR OF FINANCE/CFO,"EFPR GROUP CPA'S, PLLC.","6390 MAIN STREET, SUITE 200",,WILLIAMSVILLE,NY,14221,"DOUGLAS E. ZIMMERMAN, CPA",PARTNER,7166340700,,SFSAC@EFPRGROUP.COM,01/24/2018 17:25:12,,O,,U,N,N,N,N,U,750000,Y,,5325637,,N,N,N,N,N,N,,93,01/25/2018 00:00:00,01/26/2018 08:12:03,,N,908,1,x00,01/25/2018 00:00:00,,N,PATRICK MARTIN,DIRECTOR OF FINANCE/CFO,01/25/2018 00:00:00,474526160,N,,N,N,,,,,Non-profit,UG,,,,,,10/01/2016 00:00:00,,,,
1232086,1812262017,2017,181226,06/30/2017 00:00:00,S,A,,N,926000101,,N,100642040,CITY AND BOROUGH OF JUNEAU SCHOOL DISTRICT,10014 CRAZY HORSE DRIVE,,JUNEAU,AK,99801,SARAH JAHN,FINANCE OFFICER,9075231780,,SARAH.JAHN@JUNEAUSCHOOLS.ORG,11/14/2017 19:47:16,SARAH JAHN-FINANCE OFFICER,ELGEE REHFELD MERTZ,"9309 GLACIER HIGHWAY, SUITE B-200",,JUNEAU,AK,99801,KAREN TARVER,PARTNER,9077893178,,KAREN@ERMCPA.COM,11/15/2017 12:20:46,,O,,U,N,N,N,N,U,750000,Y,,4740960,,N,N,N,N,N,Y,,84,11/15/2017 00:00:00,11/16/2017 10:16:51,,N,205,1,x00,11/15/2017 00:00:00,,N,SARAH JAHN,FINANCE OFFICER,11/15/2017 00:00:00,920127098,N,,N,N,,,,,Local government,UG,,11/17/2017 07:58:37,11/30/2017 07:11:25,N,G,07/01/2016 00:00:00,,,,
1230175,2016112017,2017,201611,06/30/2017 00:00:00,S,A,,N,222531971,,N,967263950,BURNET WALNUT CORPORATION 031-EH-197,33 NORTH WALNUT STREET,,EAST ORANGE,NJ,070173516,RICHARD WILSON,VICE PRESIDENT FINANCE,7327312107,,RWILSON@UMH-NJ.ORG,11/03/2017 11:22:42,RICHARD D WILSON-VICE PRESIDENT FINANCE,BAKER TILLY VIRCHOW KRAUSE LLP,99 WOOD AVENUE SOURTH SUITE 801,,ISELIN,NJ,088302713,STEVE REPKO,PARTNER,7323885210,,STEVE.REPKO@BAKERTILLY.COM,11/04/2017 08:33:25,,O,,U,N,N,N,N,U,750000,Y,,4240261,,N,N,N,N,N,N,,14,11/06/2017 00:00:00,11/07/2017 08:57:59,,N,909,1,x00,11/06/2017 00:00:00,,N,RICHARD D WILSON,VICE PRESIDENT FINANCE,11/06/2017 00:00:00,390859910,N,,N,N,,,,,Non-profit,UG,,,,,,07/01/2016 00:00:00,,,,
1249097,1657522017,2017,165752,06/30/2017 00:00:00,S,A,,N,736021162,,N,124523879,NOWATA SCHOOL DISTRICT # I-40,707 WEST OSAGE AVENUE,,NOWATA,OK,740483331,LEON ASHLOCK,SUPERINTENDENT ,9182733425,,LASHLOCK@NPSOK.ORG,03/06/2018 14:54:55,LEON ASHLOCK-SUPERINTENDENT,"JENKINS &KEMPER.CPAS, P.C.",10026-A SOUTH MINGO ROAD #309,,TULSA,OK,741335700,JACK JENKINS,PARTNER,9183664440,,JHJCPA@JACKHJENKINSCPA.COM,03/19/2018 16:17:46,,O,,S,N,N,N,N,U,750000,N,,928510,,N,N,N,N,N,N,,84,03/19/2018 00:00:00,03/21/2018 01:30:21,,N,505,1,x00,03/19/2018 00:00:00,,N,LEON ASHLOCK,SUPERINTENDENT,03/19/2018 00:00:00,731514558,N,,N,N,REGULATORY,Y,Q,,State,UG,,04/09/2018 13:25:06,04/11/2018 17:54:22,N,G,07/01/2016 00:00:00,,,,
1260817,1767862017,2017,176786,09/30/2017 00:00:00,S,A,,N,910814128,,N,792557977,HOUSING AUTHORITY OF ISLAND COUNTY,7 NW 6TH STREET,,COUPEVILLE,WA,98239,TERI ANANIA,EXECUTIVE DIRECTOR,3606784181,,TERIA@ISLANDCOUNTYHA.ORG,06/27/2018 14:56:36,"TERI ANANIA-EXECUTIVE DIRECTOR, HOUSING AUTHORITY OF ISLAND CO","LOVERIDGE HUNT & CO., PLLC",14725 SE 36TH STREET SUITE 401,,BELLEVUE,WA,980061682,RON FECHTNER,MEMBER,4254532088,,RFECHTNER@LOVERIDGEHUNTCPA.COM,06/27/2018 15:45:54,,O,,U,N,N,N,N,U,750000,Y,,2476563,,N,N,N,N,Y,N,,14,06/27/2018 00:00:00,06/29/2018 01:30:20,,N,403,1,x14x00,06/27/2018 00:00:00,,N,TERI ANANIA,"EXECUTIVE DIRECTOR, HOUSING AUTHORITY OF ISLAND CO",06/27/2018 00:00:00,911347576,N,,N,N,,,,,Local government,UG,,,,,,10/01/2016 00:00:00,,,,
1225614,1854892017,2017,185489,06/30/2017 00:00:00,S,A,,N,311426540,,N,962392270,"SETON WASHINGTON COURT HOUSE,INC  043-EE020-NP-WAH",400 NORTH GLENN AVENUE,,WASHINGTON COURT HOUSE,OH,43160,ALICE MYERS,FINANCIAL MANAGER,6144511989,,AMYERS@BORROR.COM,09/28/2017 11:24:15,MARK HUDDY-SECRETARY,DALE SAYLOR & ASSOCIATES,5640 FRANTZ ROAD,,DUBLIN,OH,43017,DALE R. SAYLOR,CPA,6147664224,,DSAYLOR@DALESAYLOR.COM,09/27/2017 13:28:00,,O,,U,N,N,N,N,U,750000,Y,,2118400,,N,N,N,N,N,N,,14,09/28/2017 00:00:00,09/29/2017 10:26:15,,N,903,1,x00,09/28/2017 00:00:00,,N,MARK HUDDY,SECRETARY,09/28/2017 00:00:00,310893064,N,,N,N,,,,,Non-profit,UG,,,,,,07/01/2016 00:00:00,,,,
1237700,423702017,2017,42370,06/30/2017 00:00:00,S,A,,N,340714670,,N,077780377,HIRAM COLLEGE,STATE ROUTE 700,,HIRAM,OH,442341808,DEXTER ODOM,CFO AND VP FOR BUSINESS AND FINANCE,3305695040,,ODOMDI@HIRAM.EDU,12/15/2017 14:11:03,BRETT RIEBAU-CONTROLLER,RSM US LLP,1001 LAKESIDE AVENUE EAST SUITE 200,,CLEVELAND,OH,44114,DAVID ANDREWS ,PARTNER,2165231900,,DAVID.ANDREWS@RSMUS.COM,12/15/2017 10:57:28,,O,,U,N,N,N,N,U,750000,N,,19317150,,N,N,N,N,Y,N,,84,12/15/2017 00:00:00,12/18/2017 13:56:03,,N,904,1,x00x19,12/15/2017 00:00:00,,N,BRETT RIEBAU,CONTROLLER,12/15/2017 00:00:00,420714325,N,,N,N,,,,,Institution of higher education (IHE),UG,00304900,12/18/2017 14:04:03,12/21/2017 10:04:34,N,S,07/01/2016 00:00:00,,,,
1254651,2291972017,2017,229197,06/30/2017 00:00:00,S,A,,N,943370410,,N,026860507,LIGHTHOUSE COMMUNITY PUBLIC SCHOOLS FKA LIGHTHOUSE COMMUNITY CHARTER P,444 HEGENBERGER ROAD ,,OAKLAND ,CA,94621,BRANDON PAIGE ,DIRECTOR OF FINANCE ,5104738809,,BRANDON.PAIGE@LIGHTHOUSECHARTER.ORG,04/08/2018 23:17:33,BRANDON PAIGE-DIRECTOR OF FINANCE,CLIFTONLARSONALLEN,2210 EAST ROUTE 66,,GLENDORA,CA,91740,DERRICK DEBRUYNE,PRINCIPAL,6268577300,,DERRICK.DEBRUYNE@CLACONNECT.COM,05/11/2018 09:47:12,,O,,U,N,Y,N,N,U,750000,Y,,1458476,,Y,N,Y,Y,N,N,,84,05/11/2018 00:00:00,05/16/2018 01:30:21,,N,905,1,x00,03/29/2018 00:00:00,,N,BRANDON PAIGE,DIRECTOR OF FINANCE,05/11/2018 00:00:00,410746749,Y,,N,Y,,,,,State,UG,,05/15/2018 08:18:19,05/17/2018 09:44:51,G,G,07/01/2016 00:00:00,,,,
1254638,2238832017,2017,223883,12/31/2017 00:00:00,S,A,,N,200550401,,N,604565759,"ARP MANOR - KING'S MOUNTAIN, INC. D/B/A KINGS MOUNTAIN MANOR 053-EE150",750 BETHESDA ROAD,,WINSTON-SALEM,NC,27103,JOHN NICHOLS,ASSISTANT VICE PRESIDENT,3367653906,,TVERNON@NCHSM.ORG,05/15/2018 09:06:00,TAMMY VERNON-DIRECTOR OF FINANCE - MGMT AGENT,"BERNARD ROBINSON & COMPANY, L.L.P.","1501 HIGHWOODS BLVD., SUITE 300",,GREENSBORO,NC,27410,ERICA VERNON,PARTNER,3362944494,,EVERNON@BRCCPA.COM,05/15/2018 08:04:30,,O,,U,N,N,N,N,U,750000,Y,,3779443,,N,N,N,N,N,N,,14,05/15/2018 00:00:00,05/17/2018 01:30:21,,N,903,1,x00,05/15/2018 00:00:00,,N,TAMMY VERNON,DIRECTOR OF FINANCE - MGMT AGENT,05/15/2018 00:00:00,560571159,N,,N,N,,,,,Non-profit,UG,,,,,,01/01/2017 00:00:00,,,,
1230562,2204362017,2017,220436,06/30/2017 00:00:00,S,A,,N,940987020,,N,078782018,WINE INSTITUTE,"425 MARKET STREET, SUITE 1000",,SAN FRANCISCO,CA,94105,STEVE HAYES,VP FINANCE,4153567529,,SHAYES@WINEINSTITUTE.ORG,11/08/2017 12:36:28,STEVE HAYES-VP FINANCE,DELOITTE & TOUCHE,555 MISSION STREET,,SAN FRANCISCO,CA,941052230,DAISY CORTEZ,SENIOR MANAGER,4157836851,,DACORTEZ@DELOITTE.COM,11/08/2017 13:14:56,,O,,U,N,N,N,N,U,750000,Y,,7346075,,N,N,N,N,N,N,,10,11/08/2017 00:00:00,11/09/2017 10:13:42,,N,909,1,x00,11/08/2017 00:00:00,,N,STEVE HAYES,VP FINANCE,11/08/2017 00:00:00,133891517,N,,N,N,,,,,Non-profit,UG,,,,,,07/01/2016 00:00:00,,,,
1255714,1388682017,2017,138868,12/31/2017 00:00:00,S,A,,N,366006024,,N,010588770,"VILLAGE OF OAK LAWN, ILLINOIS",9446 S RAYMOND AVE,,OAK LAWN,IL,60453,BRIAN HANIGAN,DIRECTOR OF FINANCE,7084997760,,BHANIGAN@OAKLAWN-IL.GOV,07/20/2018 17:48:58,BRIAN HANIGAN-DIRECTOR OF FINANCE & ADMINISTRATIVE SERVICES,RSM US LLP,"ONE SOUTH WACKER DRIVE, SUITE 800",,CHICAGO,IL,60606,KATIE BARRY,SENIOR MANAGER,3126344415,,KATIE.BARRY@RSMUS.COM,07/20/2018 13:33:11,,O,,U,N,N,N,N,U,750000,N,,1079924,,N,N,N,N,N,N,,14,07/20/2018 00:00:00,07/24/2018 01:30:20,,N,200,1,x00,07/20/2018 00:00:00,,N,BRIAN HANIGAN,DIRECTOR OF FINANCE & ADMINISTRATIVE SERVICES,07/20/2018 00:00:00,470714325,N,,N,N,,,,,Local government,UG,,,,,,01/01/2017 00:00:00,,,,
1247926,1316442017,2017,131644,06/30/2017 00:00:00,S,A,,N,716005178,,N,128265493,HUNTSVILLE SCHOOL DISTRICT NO. 1,P. O. BOX F,,HUNTSVILLE,AR,727400160,CLINT JONES,SUPERINTENDENT,4797382011,,CJONES@1HSD.ORG,03/27/2018 11:30:56,CLINT JONES-SUPERINTENDENT,ARKANSAS LEGISLATIVE AUDIT,"500 WOODLANE STREET, STE 172",,LITTLE ROCK ,AR,722011099,"LARRY W HUNTER, CPA, CFE",DEPUTY LEGISLATIVE AUDITOR,5016838600,,DCF@ARKLEGAUDIT.GOV,03/27/2018 11:20:23,,O,,S,Y,N,N,N,U,750000,N,,2426583,,N,N,N,N,N,N,,84,03/27/2018 00:00:00,03/29/2018 01:30:20,,N,505,1,x00,03/27/2018 00:00:00,,N,CLINT JONES,SUPERINTENDENT,03/27/2018 00:00:00,716042275,N,,Y,N,REGULATORY,Y,U,,Local government,UG,,04/20/2018 16:13:24,04/26/2018 09:53:52,N,G,07/01/2016 00:00:00,,,,
1253153,1604712017,2017,160471,06/30/2017 00:00:00,S,A,,N,116002011,,N,043972199,GREAT NECK UNION FREE SCHOOL DISTRICT,345 LAKEVILLE ROAD,,GREAT NECK,NY,11020,JOHN POWELL,ASSISTANT SUPERINTENDENT FOR BUSINESS,5164414021,,JPOWELL@GREATNECK.K12.NY.US,03/28/2018 17:18:28,JOHN POWELL-ASSISTANT SUPERINTENDENT FOR BUSINESS,"CULLEN & DANOWSKI, LLP",1650 ROUTE 112,,PORT JEFFERSON STATION,NY,117763060,"JILL S. SANDERS, CPA",PARTNER,6314733400,,JSS@CDLLP.NET,03/28/2018 16:55:07,,O,,U,N,N,N,N,Q,750000,Y,,2996737,,N,Y,N,Y,N,N,,84,03/28/2018 00:00:00,03/31/2018 01:30:21,,N,505,1,x00,03/28/2018 00:00:00,,N,JOHN POWELL,ASSISTANT SUPERINTENDENT FOR BUSINESS,03/28/2018 00:00:00,112459188,N,,N,N,,,,,Local government,UG,,04/19/2018 16:56:02,04/26/2018 09:53:52,N,G,07/01/2016 00:00:00,,,,
1222390,2273412017,2017,227341,06/30/2017 00:00:00,S,A,,N,364083919,,N,168422736,"ASSISI HOMES - DOWNER PLACE, INC. 071-EE079","1001 E. TOUHY AVENUE, SUITE 50",,DES PLAINES,IL,600185817,DAVID JENSEN,CHIEF FINANCIAL OFFICER,8476354593,,DAVID.JENSEN@LSSI.ORG,11/03/2017 13:22:53,DAVID JENSEN-CHIEF FINANCIAL OFFICER,"BAKER TILLY VIRCHOW KRAUSE, LLP","777 E. WISCONSIN AVE., 32ND FLOOR",,MILWAUKEE,WI,532029832,"PAUL BATCHELOR, CPA",PARTNER,4147775500,,PAUL.BATCHELOR@BAKERTILLY.COM,10/20/2017 12:51:21,,O,,U,N,N,N,N,U,750000,Y,,7536018,,N,N,N,N,N,N,,14,11/03/2017 00:00:00,11/06/2017 10:16:47,,N,903,1,x00,11/03/2017 00:00:00,,N,DAVID JENSEN,CHIEF FINANCIAL OFFICER,11/03/2017 00:00:00,390859910,N,,N,N,,,,,Non-profit,UG,,,,,,07/01/2016 00:00:00,,,,
1244255,1711652017,2017,171165,06/30/2017 00:00:00,S,A,,N,466000986,,N,922946195,BELLE FOURCHE SCHOOL DISTRICT NO. 9-1,2305 13TH AVENUE,,BELLE FOURCHE,SD,57717,SUSAN L. PROEFROCK,BUSINESS MANAGER,6057233355,,SUSAN.PROEFROCK@K12.SD.US,01/25/2018 12:58:19,SUSAN L. PROEFROCK-BUSINESS MANAGER,"DESMET AND BIGGS, LLP,CPA",2934 WEST MAIN,,RAPID CITY,SD,57702,TERESA A BIGGS,PARTNER,6053488870,,,01/24/2018 21:11:51,,O,,U,N,Y,N,N,U,750000,N,,1671571,,N,Y,N,Y,N,N,,84,01/25/2018 00:00:00,01/26/2018 08:50:10,,N,505,1,x00,01/25/2018 00:00:00,,N,SUSAN L. PROEFROCK,BUSINESS MANAGER,01/25/2018 00:00:00,460448829,Y,,N,N,,,,,Local government,UG,,02/12/2018 14:58:32,02/15/2018 08:27:20,N,G,07/01/2016 00:00:00,,,,
1247283,813162017,2017,81316,05/31/2017 00:00:00,S,A,,N,560529940,,N,075586057,CAMPBELL UNIVERSITY INC.,PO BOX 97,,BUIES CREEK,NC,27506,JULIE BYRD,COMPTROLLER,9108931437,,BYRDJ@CAMPBELL.EDU,02/16/2018 08:27:26,"ALTON W. HARDISON, JR.-ASSISTANT VP FOR BUSINESS",BDO USA LLP,"421 FAYETTEVILLE ST, STE 300",,RALEIGH,NC,27601,CARRIE COLEMAN,PARTNER,9192781920,,CCOLEMAN@BDO.COM,02/15/2018 21:45:33,,C,84,U,N,N,N,N,U,750000,Y,,119791367,,N,N,Y,Y,Y,N,,,02/16/2018 00:00:00,02/20/2018 09:11:47,,N,904,1,x84,02/16/2018 00:00:00,,N,"ALTON W. HARDISON, JR.",ASSISTANT VP FOR BUSINESS,02/16/2018 00:00:00,135381590,N,,N,N,,,,,Institution of higher education (IHE),UG,00291300,03/12/2018 10:54:14,03/15/2018 08:48:43,S,S,06/01/2016 00:00:00,,,,
1249206,1837202017,2017,183720,06/30/2017 00:00:00,S,A,,N,593409057,,N,125116793,"CITRUS LEVY MARION REGIONAL WORKFORCE DEVELOPMENT BOARD, INC.","3003 SW COLLEGE ROAD, STE 107",,OCALA,FL,32025,SUSAN HELLER,CFO,3528737939,,SHELLER@CAREERSOURCECLM.COM,03/12/2018 13:27:08,SUSAN HELLER-DIRECTOR OF FINANCE,"POWELL AND JONES, CPA'S",1359 SW MAIN BLVD,,LAKE CITY,FL,320256685,MARIAN POWELL,PARTNER,3867554200,,MARIAN@POWELLANDJONESCPA.COM,03/10/2018 13:27:15,,O,,U,N,N,N,N,U,750000,Y,,6386957,,N,N,N,N,N,N,,17,03/12/2018 00:00:00,03/13/2018 10:38:34,,N,909,1,x00,03/12/2018 00:00:00,,N,SUSAN HELLER,DIRECTOR OF FINANCE,03/12/2018 00:00:00,592145410,N,,N,N,,,,,Non-Profit,UG,,,,,,07/01/2016 00:00:00,,,,
1246575,1088892017,2017,108889,09/30/2017 00:00:00,S,A,,N,830222330,,N,,SENIOR CITIZENS COUNCIL,211 SMITH STREET,,SHERIDAN,WY,82801,NIKKI STEELE,FINANCE DIRECTOR,3076722240,,FINDIR@THEHUBSHERIDAN.ORG,02/07/2018 13:04:17,NIKKI STEELE-FINANCIAL DIRECTOR,"LENHART MASON & ASSOCIATES, LLC",900 WERNER CT STE 200,,CASPER,WY,82601,JOHN SMITH,PARTNER,3072347800,,JOHNS@WYOCPA.COM,02/07/2018 15:33:39,,O,,U,N,N,N,N,U,750000,Y,,997969,,N,N,N,N,N,N,,93,02/07/2018 00:00:00,02/08/2018 11:28:08,,N,908,1,x00,02/07/2018 00:00:00,,N,NIKKI STEELE,FINANCIAL DIRECTOR,02/07/2018 00:00:00,830327383,N,,N,N,,,,,Non-profit,UG,,,,,,10/01/2016 00:00:00,,,,
1231359,2148432017,2017,214843,06/30/2017 00:00:00,S,A,,N,370662520,,N,025820614,"COORDINATED YOUTH AND HUMAN SERVICES, INC.",2016 MADISON AVENUE,,GRANITE CITY,IL,62040,CINDY GAVILSKY,EXECUTIVE DIRECTOR,6188762383,,CGAVILSKY@CYHS.COM,11/27/2017 13:15:43,KATHY SIGMUND-FINANCE DIRECTOR,C.J. SCHLOSSER & COMPANY L.L.C.,233 EAST CENTER DRIVE,,ALTON,IL,62002,KEVIN TEPEN,PARTNER,6184657717,,KTEPEN@CJSCO.COM,11/27/2017 09:55:06,,O,,U,N,N,N,N,U,750000,Y,,3503338,,N,N,N,N,N,N,,93,11/27/2017 00:00:00,11/28/2017 14:58:21,,N,908,1,x00,11/27/2017 00:00:00,,N,KATHY SIGMUND,FINANCE DIRECTOR,11/27/2017 00:00:00,371031116,N,,N,N,,,,,Local government,UG,,,,,,07/01/2016 00:00:00,,,,
1270972,2243882017,2017,224388,12/31/2017 00:00:00,S,A,,N,660489388,,N,143696164,"LA PERLA DE GRAN PRECIO, INC.",CALLE GAUTIER BENITEZ #66,,SAN JUAN,PR,00917,HECTOR L PAGAN,SUB-DIRECTOR,7872820012,,HECTORLPAGAN@YAHOO.COM,10/10/2018 13:54:34,LISSETTE ALONSO-EXECUTIVE DIRECTOR,"AMILCAR MATOS, CPA",PO BOX 362160,,SAN JUAN,PR,00917,AMILCAR MATOS,CPA,7876177767,,MYCPAPHONE@GMAIL.COM,10/15/2018 14:28:00,,O,,U,N,N,N,N,U,750000,Y,,2229896,,N,N,N,N,N,N,,14,10/15/2018 00:00:00,10/17/2018 01:30:20,,N,909,1,x00,10/15/2018 00:00:00,,N,LISSETTE ALONSO,EXECUTIVE DIRECTOR,10/15/2018 00:00:00,660439862,N,,N,N,,,,,Non-profit,UG,,,,,,01/01/2017 00:00:00,,,,
1254041,2258352017,2017,225835,12/31/2017 00:00:00,S,A,,N,202370922,,N,801481503,"DIXIELAND GARDENS SENIOR HOUSING, INC.  082-EE168",1510 ROCK SPRINGS ROAD,,HARRISON,AR,726021795,BRAD BAILEY,CHIEF OPERATING OFFICER,8707411144,,BBAILEY@AAANWAR.ORG,04/06/2018 11:43:21,RICHARD BAILEY-CHIEF OPERATIONS OFFICER,"BKD, LLP",809 S. 52ND STREET (SUITE A),,ROGERS,AR,72758,CYNTHIA BURNS,SENIOR MANAGER,4798450270,,CBURNS@BKD.COM,04/09/2018 16:19:47,,O,,U,N,N,N,N,U,750000,Y,,2358490,,N,N,N,N,N,N,,14,04/09/2018 00:00:00,04/18/2018 01:30:21,,N,908,1,x00,04/09/2018 00:00:00,,N,RICHARD BAILEY,CHIEF OPERATIONS OFFICER,04/09/2018 00:00:00,440160260,N,,N,N,,,,,Non-profit,UG,,,,,,01/01/2017 00:00:00,,,,
1228684,1820752017,2017,182075,06/30/2017 00:00:00,S,A,,N,364196796,,N,184029940,MID VALLEY SPECIAL EDUCATION JOINT AGREEMENT,1304 RONZHEIMER AVENUE,,ST. CHARLES,IL,60174,NANCY SPORER,DIRECTOR OF BUSINESS AND HR,3312284928,,NANCY.SPORER@D303.ORG,12/06/2017 15:07:29,NANCY SPORER-DIRECTOR OF BUSINESS AND HUMAN RESOURCES,"KLEIN HALL CPAS, LLC",3957 75TH STREET,,AURORA,IL,60504,SCOTT DUENSER,PARTNER,6308985578,,SDUENSER@KLEINHALLCPA.COM,12/06/2017 10:34:12,,O,,U,N,N,N,N,U,750000,N,,5734215,,N,N,N,N,N,N,,84,12/07/2017 00:00:00,12/08/2017 10:24:37,,N,505,1,x00,12/07/2017 00:00:00,,N,NANCY SPORER,DIRECTOR OF BUSINESS AND HUMAN RESOURCES,12/07/2017 00:00:00,371437362,N,,N,N,,,,,Local government,UG,,12/11/2017 08:24:21,12/14/2017 06:59:43,,N,07/01/2016 00:00:00,,,,
1265341,1507292017,2017,150729,12/31/2017 00:00:00,S,A,,N,416005852,,N,605928089,NICOLLET COUNTY,501 SOUTH MINNESOTA AVENUE,,ST. PETER,MN,56082,HEATHER MCCORMICK,FINANCE DIRECTOR,5079347817,,HEATHER.MCCORMICK@CO.NICOLLET.MN.US,09/21/2018 16:41:50,HEATHER MCCORMICK-FINANCE DIRECTOR,MINNESOTA OFFICE OF THE STATE AUDITOR,"525 PARK STREET, SUITE 500",,ST. PAUL,MN,55103,REBECCA OTTO,STATE AUDITOR,6512962551,,STATE.AUDITOR@STATE.MN.US,09/20/2018 10:43:25,,O,,U,N,Y,N,N,Q,750000,N,,3466756,,N,Y,N,Y,N,N,,93,09/21/2018 00:00:00,09/25/2018 01:30:21,,N,100,1,x00,09/21/2018 00:00:00,,N,HEATHER MCCORMICK,FINANCE DIRECTOR,09/21/2018 00:00:00,416007162,Y,,N,N,,,,,Local government,UG,,09/24/2018 11:29:00,09/27/2018 09:06:01,,N,01/01/2017 00:00:00,,,,
1240919,29562017,2017,2956,06/30/2017 00:00:00,S,A,,N,042261109,,N,071721328,"THIRD SECTOR NEW ENGLAND, INC. DBA TSNE MISSIONWORKS","89 SOUTH STREET, SUITE 700",,BOSTON,MA,021112670,ANDREW COX-STAVROS,CHIEF FINANCIAL OFFICER,6178969307,,ACOXSTAVROS@TSNE.ORG,01/04/2018 11:38:38,ANDREW COX-STAVROS-CFO,MAYER HOFFMAN MCCANN PC,500 BOYLSTON ST,,BOSTON,MA,02116,JAMES MECONE,SHAREHOLDER,6177610600,,JMECONE@CBIZTOFIAS.COM,01/04/2018 12:17:52,,O,,U,N,N,N,N,U,750000,Y,,2648592,,N,N,N,N,N,N,,10,01/04/2018 00:00:00,01/05/2018 10:41:09,,N,908,1,x00,01/04/2018 00:00:00,,N,ANDREW COX-STAVROS,CFO,01/04/2018 00:00:00,431947695,N,,N,N,,,,,Non-profit,UG,,01/09/2018 11:54:15,01/11/2018 13:16:22,N,G,07/01/2016 00:00:00,,,,
1223651,834322017,2017,83432,05/31/2017 00:00:00,S,A,,N,570324906,,N,082226366,ANDERSON UNIVERSITY,316 BOULEVARD,,ANDERSON,SC,296214035,KRISTIE COLE,CONTROLLER,8642312000,,KCOLE@ANDERSONUNIVERSITY.EDU,09/06/2017 15:30:52,KRISTIE C. COLE-VP FOR FINANCE AND CFO,CAPINCROUSE LLP,"801 GERVAIS STREET, SUITE 101",,COLUMBIA,SC,29201,"DANIEL CAMPBELL, CPA",PARTNER,8034582169,,DCAMPBELL@CAPINCROUSE.COM,09/07/2017 14:54:06,,O,,U,N,N,N,N,U,750000,Y,,28479031,,Y,N,Y,Y,Y,N,,84,09/07/2017 00:00:00,09/08/2017 12:40:14,,N,904,1,x84,09/07/2017 00:00:00,,N,KRISTIE C. COLE,VP FOR FINANCE AND CFO,09/07/2017 00:00:00,363990892,N,,N,Y,,,,,Institution of higher education (IHE),UG,00341800,09/08/2017 14:15:12,09/14/2017 10:03:22,S,S,06/01/2016 00:00:00,,,,
1246178,1744672017,2017,174467,08/31/2017 00:00:00,S,A,,N,756000027,,N,001947530,ALVARADO INDEPENDENT SCHOOL DISTRICT,102 S. BILL JACKSON,,ALVARADO ,TX,76009,RODNEY TOON,BUSINESS MANAGER,8177836800,,RODNEYT@ALVARADOISD.NET,02/02/2018 12:37:38,RODNEY TOON-CFO,"EVANS, PINGLETON, AND HOWARD, PLLC","8950 GARY BURNS DRIVE, SUITE D",,FRISCO,TX,75034,KIRK EVANS,CPA/PARTNER,9723359754,,KEVANS@EPHCPAS.COM,02/02/2018 14:48:12,,O,,U,N,N,N,N,U,750000,Y,,2974950,,N,N,N,N,N,N,,84,02/02/2018 00:00:00,02/05/2018 11:26:29,,N,505,1,x00,02/02/2018 00:00:00,,N,RODNEY TOON,CFO,02/02/2018 00:00:00,453463504,N,,N,N,,,,,Local government,UG,,03/02/2018 13:23:29,03/08/2018 07:45:34,N,G,09/01/2016 00:00:00,,,,
1268190,713742017,2017,71374,12/31/2017 00:00:00,S,A,,N,510141489,,N,078618295,"HOUSING CONSERVATION COORDINATORS, INC.",777 TENTH AVENUE,,NEW YORK,NY,10019,LESLIE THROPE,EXECUTIVE DIRECTOR,2125415996,,LTHROPE@HCC-NYC.ORG,10/31/2018 15:38:07,LESLIE THROPE-EXECUTIVE DIRECTOR,LOEB & TROPER LLP,655 THIRD AVENUE (12TH FLOOR),,NEW YORK,NY,10017,JOSEPH BLATT,PARTNER,2128674000,,JBLATT@LOEBANDTROPER.COM,10/26/2018 10:13:35,,O,,U,N,N,N,N,U,750000,Y,,873036,,N,N,N,N,N,N,,93,10/31/2018 00:00:00,11/02/2018 01:30:20,,N,908,1,x00,10/31/2018 00:00:00,,N,LESLIE THROPE,EXECUTIVE DIRECTOR,10/31/2018 00:00:00,131517563,N,,N,N,,,,,Non-profit,UG,,,,,,01/01/2017 00:00:00,,,,
1227744,711552017,2017,71155,06/30/2017 00:00:00,S,A,,N,510064335,,N,067373803,WESLEY COLLEGE INC.,120 N. STATE STREET,,DOVER,DE,19901,BELINDA BURKE,CFO/VICE PRESIDENT FOR FINANCE AND ADMIN,3027362484,,BELINDA.BURKE@WESLEY.EDU,10/10/2017 16:32:56,BELINDA BURKE-CFO/VP FOR FINANCE AND ADMINISTRATION,WHISMAN GIORDANO,"111 CONTINENTAL DRIVE, SUITE 210",,NEWARK,DE,19713,JOSEPH V. GIORDANO,DIRECTOR,3022660202,,JVG@WHISMANGIORDANO.COM,10/11/2017 09:28:08,,O,,U,N,N,N,N,U,750000,Y,,21215233,,N,N,N,N,N,N,,84,10/11/2017 00:00:00,10/12/2017 08:54:18,,N,904,1,x00,10/11/2017 00:00:00,,N,BELINDA BURKE,CFO/VP FOR FINANCE AND ADMINISTRATION,10/11/2017 00:00:00,203934956,N,,N,N,,,,,Non-profit,UG,00143300,10/13/2017 10:28:38,10/19/2017 08:24:17,N,B,07/01/2016 00:00:00,,,,
1263638,1572492017,2017,157249,12/31/2017 00:00:00,S,A,,N,226002429,,N,,BERGEN COUNTY UTILITIES AUTHORITY,FOOT OF MEHRHOF ROAD,,LITTLE FERRY,NJ,07643,MATHEW MCCARTER,ACTING TREASURER,2018075819,,MMCCARTER@BCUA.ORG,07/31/2018 16:51:50,MATTHEW MCCARTER-ACTING TREASURER,"LERCH, VINCI & HIGGINS, LLP",17-17 ROUTE 208,,FAIR LAWN,NJ,07410,GARY J. VINCI,PARTNER,2017917100,,GVINCI@LVHCPA.COM,08/01/2018 07:39:52,,O,,U,N,N,N,N,U,750000,N,,917971,,N,N,N,N,N,N,,14,08/01/2018 00:00:00,08/03/2018 01:30:20,,N,107,1,x00,08/01/2018 00:00:00,,N,MATTHEW MCCARTER,ACTING TREASURER,08/01/2018 00:00:00,223015339,N,,N,N,,,,,Local government,UG,,,,,,01/01/2017 00:00:00,,,,
1242512,1745372017,2017,174537,08/31/2017 00:00:00,S,A,,N,746024066,,N,100671395,CENTERVILLE INDEPENDENT SCHOOL DISTRICT,813 S. COMMERCE,,CENTERVILLE,TX,75833,CAROLE DICKEY,ASSISTANT SUPERINTENDENT,9035367812,,CDICKEY@CENTERVILLE.K12.TX.US,01/09/2018 10:57:17,CAROLE DICKEY-ASSISTANT SUPERINTENDENT,"BELT HARRIS PECHACEK, LLLP","3210 BINGLE ROAD, SUITE 300",,HOUSTON,TX,77055,"LAURA HAM, CPA",PARTNER,7132631123,,LHAM@TXAUDITORS.COM,01/09/2018 10:52:30,,O,,U,N,N,N,N,U,750000,Y,,836080,,N,N,N,N,N,N,,84,01/09/2018 00:00:00,01/10/2018 09:25:56,,N,505,1,x00,01/09/2018 00:00:00,,N,CAROLE DICKEY,ASSISTANT SUPERINTENDENT,01/09/2018 00:00:00,262686915,N,,N,N,,,,,Local government,UG,,01/10/2018 10:13:53,01/11/2018 13:16:22,,N,09/01/2016 00:00:00,,,,
1234175,2060762017,2017,206076,09/30/2017 00:00:00,S,A,,N,161542259,,N,,"158 CHENANGO STREET HOUSING DEVELOPMENT FUND COMPANY, INC.  014-EE163",525 WASHINGTON STREET,,BUFFALO,NY,14203,MARGARET GILLIG,EXECUTIVE DIRECTOR,7168471635,,MARGARET.GILLIG@CCWNY.ORG,12/04/2017 07:19:53,MARGARET GILLIG-EXECUTIVE DIRECTOR,"EFPR GROUP, CPA'S, PLLC","6390 MAIN STREET, SUITE 200",,WILLIAMSVILLE,NY,14221,"DOUGLAS E. ZIMMERMAN, CPA",PARTNER,7166340700,,SFSAC@EFPRGROUP.COM,12/01/2017 14:18:18,,O,,U,N,N,N,N,U,750000,Y,,1255766,,N,N,N,N,N,N,,14,12/11/2017 00:00:00,12/13/2017 08:09:28,,N,903,1,x00,12/11/2017 00:00:00,,N,MARGARET GILLIG,EXECUTIVE DIRECTOR,12/11/2017 00:00:00,474526160,N,,N,N,,,,,Non-profit,UG,,,,,,10/01/2016 00:00:00,,,,
1263594,2462752017,2017,246275,12/31/2017 00:00:00,S,A,,N,316400791,,N,807551965,VILLAGE OF MATAMORAS,P.O. BOX 536,,MATAMORAS,OH,45767,CAROL DANVER,FISCAL OFFICER,7408652124,,CAROL.DANVER@VILLAGEOFMATAMORAS.COM,08/28/2018 12:53:02,CAROL DANVER-CLERK-TREASURER,"DAVE YOST, AUDITOR OF STATE",88 EAST BROAD STREET,,COLUMBUS,OH,432161140,SHANE M. STATLER,CHIEF AUDITOR,7405943300,,DCF-SOUTHEAST@OHIOAUDITOR.GOV,08/28/2018 11:35:30,,O,,S,N,Y,Y,N,U,750000,N,,2020583,,N,N,N,N,N,N,,10,08/28/2018 00:00:00,08/30/2018 01:30:20,,N,888,1,x00,08/28/2018 00:00:00,,N,CAROL DANVER,CLERK-TREASURER,08/28/2018 00:00:00,311334820,Y,,N,N,REGULATORY,Y,U,,Local government,UG,,,,,,01/01/2017 00:00:00,,,,
1254485,556802017,2017,55680,09/30/2017 00:00:00,S,A,,N,381957176,,N,,"UPCAP SERVICES, INC.",P.O. BOX 606,,ESCANABA,MI,49829,RICK AIRD,DIRECTOR OF FINANCE,9067864701,,AIRDR@UPCAP.ORG,04/04/2018 13:39:10,RICK AIRD-CFO,"ANDERSON, TACKMAN & COMPANY, PLC",901 LUDINGTON STREET,,ESCANABA,MI,49829,KATHLEEN CIANTAR,PRINCIPAL,9067863111,,KCIANTAR@ATCCPA.COM,04/04/2018 09:01:50,,O,,U,N,N,N,N,U,750000,Y,,2886130,,N,N,N,N,N,N,,93,04/04/2018 00:00:00,04/11/2018 01:30:21,,N,908,1,x00,04/04/2018 00:00:00,,N,RICK AIRD,CFO,04/04/2018 00:00:00,381977929,N,,N,N,,,,,Non-profit,UG,,,,,,10/01/2016 00:00:00,,,,
1249406,1487192017,2017,148719,09/30/2017 00:00:00,S,A,,N,386004855,,N,086183969,HOUGHTON COUNTY,401 E HOUGHTON AVENUE,,HOUGHTON,MI,49931,ERIC FORSBERG,CONTROLLER,9064828307,,ERIC@HOUGHTONCOUNTY.NET,03/29/2018 08:51:30,ERIC FORSBERG-COUNTY ADMINISTRATOR,"RUKKILA, NEGRO AND ASSOCIATES, CPA, PC",310 SHELDEN AVENUE,,HOUGHTON,MI,49931,DEBBIE BRADFORD,AUDIT MANAGER,9064826601,,DEBBIE@RUKKILANEGRO.COM,03/26/2018 15:57:12,,O,,U,N,N,N,N,U,750000,Y,,1951410,,N,N,N,N,N,Y,,10,03/29/2018 00:00:00,03/31/2018 01:30:21,,N,100,1,x00,03/29/2018 00:00:00,,N,ERIC FORSBERG,COUNTY ADMINISTRATOR,03/29/2018 00:00:00,383535918,N,,N,N,,,,,Local government,UG,,,,,,10/01/2016 00:00:00,,,,
1221532,2050902017,2017,205090,06/30/2017 00:00:00,S,A,,N,330043075,,N,351750664,"MAR VISTA ELDORADO, INC. MAR VISTA APTS 122-EH528-WAH-NP",9599 SUMMERTON DRIVE,,FISHERS,IN,46037,DWIGHT HARGETT,PRESIDENT-MANAGING AGENT,8122484008,,KDWIGHTHARGETT@GMAIL.COM,10/03/2017 10:58:17,JEAN HARTLEY-ACCOUNTANT,"DAUBY O'CONNOR & ZALESKI, LLC","501 CONGRESSIONAL BLVD., SUITE 300",,CARMEL,IN,46032,STEVEN M. DAUBY,MEMBER,3178485700,,SDAUBY@DOZ.NET,10/04/2017 08:42:18,,O,,U,N,N,N,N,U,750000,Y,,6657104,,N,N,N,N,N,N,,14,10/04/2017 00:00:00,10/05/2017 08:59:25,,N,903,1,x00,10/04/2017 00:00:00,,N,JEAN HARTLEY,ACCOUNTANT,10/04/2017 00:00:00,351750664,N,,N,N,,,,,Non-profit,UG,,,,,,07/01/2016 00:00:00,,,,
1235550,1808802017,2017,180880,06/30/2017 00:00:00,S,A,,N,731353314,,N,049401458,UNIVERSITY OF CENTRAL OKLAHOMA,100 NORTH UNIVERSITY DRIVE,,EDMOND,OK,730345209,LISA HARPER,"ASSISTANT VP, FINANCIAL OPERATIONS",4059742553,,LHARPER@UCO.EDU,11/30/2017 11:30:00,LISA HARPER-AVP OF FINANCE,"ARLEDGE & ASSOCIATES, P.C.",309 NORTH BRYANT AVENUE,,EDMOND,OK,73034,LADONNA SINNING,PARTNER,4053480615,,LADONNA@JMACPAS.COM,11/30/2017 11:17:55,,C,84,U,N,N,N,N,U,750000,Y,,86156182,,Y,N,N,Y,Y,N,,,11/30/2017 00:00:00,12/01/2017 11:08:51,,N,004,1,x84,11/30/2017 00:00:00,,N,LISA HARPER,AVP OF FINANCE,11/30/2017 00:00:00,731185089,N,,N,Y,,,,,Institution of higher education (IHE),UG,00315200,12/04/2017 11:49:14,12/07/2017 07:44:38,S,B,07/01/2016 00:00:00,,,,
1247247,2458762017,2017,245876,06/30/2017 00:00:00,S,A,,N,561893695,,N,,"RICHMOND COMMUNITY SUPPORT CENTER, INC.",393 W HIGHWAY 74,,ROCKINGHAM,NC,28379,LINDA LOVIN,FINANCE DIRECTOR,9109978440,,LINDALOVIN@OUTLOOK.COM,02/13/2018 15:11:15,LINDA LOVIN-FINANCE DIRECTOR,ANDERSON SMITH & WIKE PLLC,116 GREYLYN ROAD,,ROCKINGHAM,NC,28379,"DALE SMITH, CPA",MEMBER,9109971418,,DSMITH@ASW-CPA.COM,02/16/2018 09:39:31,,O,,U,N,N,N,N,U,750000,N,,1688620,,N,N,N,N,N,N,,17,02/16/2018 00:00:00,02/20/2018 09:25:31,,N,888,1,x00,02/16/2018 00:00:00,,N,LINDA LOVIN,FINANCE DIRECTOR,02/16/2018 00:00:00,271473864,N,,N,N,,,,,Non-profit,UG,,,,,,07/01/2016 00:00:00,,,,
1257182,2444332017,2017,244433,12/31/2017 00:00:00,S,A,,N,201139635,,N,785062824,"SUMMIT COMMUNITY CARE CLINIC, INC.",360 PEAK ONE DRIVE SUITE 100,,FRISCO,CO,80443,CHRIS OSGOOD,CHIEF FINANCIAL OFFICER,9706684049,,COSGOOD@SUMMITCLINIC.ORG,05/15/2018 12:13:37,CHRIS OSGOOD-CFO,CLIFTONLARSONALLEN LLP,"370 INTERLOCKEN BLVD, SUITE 500",,BROOMFIELD,CO,80021,JAMES MANN,PRINCIPAL,3034668822,,JAMES.MANN@CLACONNECT.COM,05/15/2018 11:54:22,,O,,U,N,N,N,N,U,750000,N,,1518791,,Y,Y,Y,Y,Y,N,,93,05/15/2018 00:00:00,05/17/2018 01:30:21,,N,888,1,x93,05/15/2018 00:00:00,,N,CHRIS OSGOOD,CFO,05/15/2018 00:00:00,410746749,N,,N,Y,,,,,Non-profit,UG,,,,,,01/01/2017 00:00:00,,,,
1246427,89942017,2017,8994,06/30/2017 00:00:00,S,A,,N,132984549,,N,101131621,"CENTER FOR INDEPENDENCE OF THE DISABLED IN NEW YORK, INC.","841 BROADWAY, SUITE 301",,NEW YORK ,NY,10003,SUSAN DOOHA,EXECUTIVE DIRECTOR,2126742300,,SDOOHA@CIDNY.ORG,02/23/2018 13:43:30,SUSAN DOOHA-EXECUTIVE DIRECTOR,"SCHALL AND ASHENFARB, CPA LLC",307 FIFTH AVENUE,,NEW YORK,NY,10016,DAVID,ASHENFARB,2122682800,,DASH@SCHALLANDASHENFARB.COM,02/26/2018 12:37:12,,O,,U,N,N,N,N,U,750000,Y,,1737182,,N,N,N,N,N,N,,93,02/26/2018 00:00:00,02/27/2018 14:38:28,,N,908,1,x00,02/26/2018 00:00:00,,N,SUSAN DOOHA,EXECUTIVE DIRECTOR,02/26/2018 00:00:00,134036703,N,,N,N,,,,,Non-Profit,UG,,,,,,07/01/2016 00:00:00,,,,
1227528,1565942017,2017,156594,03/31/2017 00:00:00,S,A,,N,216000740,,N,,ATLANTIC CITY HOUSING AUTHORITY AND URBAN REDEVELOPMENT AGENCY,227 VERMONT AVENUE,,ATLANTIC CITY,NJ,08404,ABDUL WAHAB,ACTING DIRECTOR OF FINANCE,6093441107,,AWAHAB@ATLANTICCITYHA.ORG,12/30/2017 14:07:29,ABDUL WAHAB-ACTING DIRECTOR OF FINANCE,"BARBACANE, THORNTON & COMPANY LLP","3411 SILVERSIDE ROAD, 200 SPRINGER BUILDING",,WILMINGTON,DE,19810,"STEVEN KUTSUFLAKIS, CPA",PARTNER,3024684009,,SKUTSUFLAKIS@BTCPA.COM,12/30/2017 00:47:25,,O,,U,N,Y,N,N,Q,790505,Y,,26390307,,N,Y,Y,Y,N,Y,,14,12/30/2017 00:00:00,01/03/2018 10:26:54,,N,203,1,x14x00,12/30/2017 00:00:00,,N,ABDUL WAHAB,ACTING DIRECTOR OF FINANCE,12/30/2017 00:00:00,216000740,Y,,N,N,,,,,Local government,UG,,,,,,04/01/2016 00:00:00,,,,
1245112,1646802017,2017,164680,06/30/2017 00:00:00,S,A,,N,346001443,,N,076917475,HOWLAND LOCAL SCHOOL DISTRICT,8200 SOUTH STREET SE,,WARREN,OH,44484,RHONDA AMORGANOS,TREASURER,3308568200,,RHONDA.AMORGANOS@HOWLANDSCHOOLS.ORG,03/28/2018 08:51:54,RHONDA AMORGANOS-TREASURER,STATE OF OHIO AUDITOR'S OFFICE,88 EAST BROAD STREET,,COLUMBUS,OH,43215,ERIK HOLESKO,SENIOR AUDIT MANAGER,3307977900,,ETHOLESKO@OHIOAUDITOR.GOV,03/27/2018 13:20:04,,O,,U,N,N,N,N,Q,750000,N,,1811080,,N,Y,N,Y,N,N,,84,03/28/2018 00:00:00,03/30/2018 01:30:20,,N,505,1,x00,03/28/2018 00:00:00,,N,RHONDA AMORGANOS,TREASURER,03/28/2018 00:00:00,311334820,N,,N,N,,,,,Local government,UG,,04/24/2018 07:53:08,04/26/2018 09:53:52,,N,07/01/2016 00:00:00,,,,
1246200,1698172017,2017,169817,06/30/2017 00:00:00,S,A,,N,231667983,,N,609781250,STEELTON-HIGHSPIRE SCHOOL DISTRICT,250 REYNDERS AVENUE,,STEELTON,PA,17113,MICHAEL SIMONETTI,BUSINESS MANAGER,7177043800,,MSIMONETTI@SHSD.K12.PA.US,02/02/2018 15:53:45,MIKE SIMONETTI-BUSINESS MANAGER,BROWN SCHULTZ SHERIDAN & FRITZ,210 GRANDVIEW AVENUE,,CAMP HILL,PA,17011,JOHN BONAWITZ,PRINCIPAL,7177617171,,JOHNBONAWITZ@BSSF.COM,02/03/2018 12:45:38,,O,,U,N,Y,N,N,U,750000,N,,2676828,,N,Y,N,Y,N,N,,84,02/03/2018 00:00:00,02/05/2018 13:39:19,,N,505,1,x00,02/03/2018 00:00:00,,N,MIKE SIMONETTI,BUSINESS MANAGER,02/03/2018 00:00:00,251644159,Y,,N,N,,,,,Local government,UG,,02/13/2018 15:51:08,02/15/2018 08:27:20,,N,07/01/2016 00:00:00,,,,
1255768,1560442017,2017,156044,12/31/2017 00:00:00,S,A,,N,026000141,,Y,005128913,"COUNTY OF CHESHIRE, NEW HAMPSHIRE",12 COURT STREET,,KEENE,NH,03431,SHERYL TROMBLY,FINANCE DIRECTOR,6033550154,,STROMBLY@CO.CHESHIRE.NH.US,04/18/2018 16:37:40,SHERYL TROMBLY-FINANCE DIRECTOR,VACHON CLUKAY & COMPANY PC,608 CHESTNUT STREET,,MANCHESTER,NH,031049804,TAMMY R. WEBB,DIRECTOR OF ASSURANCE SERVICES,6036227070,,TWEBB@VACHONCLUKAY.COM,04/18/2018 16:53:24,,O,,U,N,N,N,N,U,750000,Y,,2544321,,N,N,N,N,N,N,,93,04/18/2018 00:00:00,04/24/2018 01:30:20,,N,100,1,x00,04/18/2018 00:00:00,,N,SHERYL TROMBLY,FINANCE DIRECTOR,04/18/2018 00:00:00,020400031,N,,N,N,,,,,Local government,UG,,,,,,01/01/2017 00:00:00,,,,
1249108,2164692017,2017,216469,12/31/2017 00:00:00,S,A,,N,300060503,,N,965758746,"GEORGE J. LEAKE HOUSING, INC. 054-EE050-WAH",327 N. MARKET STREET,,WASHINGTON,NC,27889,JOSEPH MOORE,DIRECTOR OF OPERATIONS,2529460110,,JRRMOORE@METROPROP.ORG,04/03/2018 08:56:59,JOSEPH MOORE-DIRECTOR OF OPERATIONS,"BERNARD ROBINSON & COMPANY, L.L.P.","1501 HIGHWOODS BLVD., SUITE 300",,GREENSBORO,NC,27410,BEN TIMOTHY SMITH,PARTNER,3362944494,,TSMITH@BRCCPA.COM,04/03/2018 11:44:02,,O,,U,N,N,Y,N,U,750000,Y,,3042284,,N,N,N,Y,N,N,,14,04/03/2018 00:00:00,04/10/2018 01:30:21,,N,903,1,x00x14,04/03/2018 00:00:00,,N,JOSEPH MOORE,DIRECTOR OF OPERATIONS,04/03/2018 00:00:00,560571159,N,,N,N,,,,,Non-profit,UG,,,,,,01/01/2017 00:00:00,,,,
1253560,1453672017,2017,145367,06/30/2017 00:00:00,S,A,,N,480917623,,N,042263116,HOUSING AUTHORITY OF THE CITY OF HALSTEAD,815 WEST 6TH STREET,,HALSTEAD,KS,67056,NICHOLE WILLIS,EXECUTIVE DIRECTOR,3168352026,,HOUSING@HALSTEAD.KSCOXMAIL.COM,03/29/2018 16:09:48,NICHOLE WILLIS-EXECUTIVE DIRECTOR ,"URLAUB & CO., PLLC",PO BOX 2663,,ADA,OK,748212663,MARIA URLAUB,PARTNER,5803324802,,MWURLAUB@GMAIL.COM,03/29/2018 16:10:32,,O,,U,Y,N,N,N,U,750000,Y,,844015,,N,N,N,N,Y,N,,10,03/29/2018 00:00:00,04/03/2018 01:30:21,,N,403,1,x14x10x00,03/29/2018 00:00:00,,N,NICHOLE WILLIS,EXECUTIVE DIRECTOR ,03/29/2018 00:00:00,043837818,N,,Y,N,,,,,Local government,UG,,,,,,07/01/2016 00:00:00,,,,
1247107,1929272017,2017,192927,06/30/2017 00:00:00,S,A,,N,710774495,,N,933646168,CENTERPOINT SCHOOL DISTRICT NO. 43,755 HIGHWAY 8 EAST,,AMITY,AR,719218562,DAN BRESHEARS,SUPERINTENDENT,8703562912,,DAN.BRESHEARS@GOKNIGHTS.US,03/29/2018 08:20:27,DAN BRESHEARS-SUPERINTENDENT OF SCHOOLS,ARKANSAS LEGISLATIVE AUDIT,"500 WOODLANE STREET, STE 172",,LITTLE ROCK,AR,722011099,"LARRY W. HUNTER, CPA, CFE",DEPUTY LEGISLATIVE AUDITOR,5016838600,,DCF@ARKLEGAUDIT.GOV,03/26/2018 07:50:21,,O,,S,N,N,N,N,U,750000,N,,1262973,,N,N,N,N,N,N,,10,03/29/2018 00:00:00,03/31/2018 01:30:21,,N,505,1,x00,03/29/2018 00:00:00,,N,DAN BRESHEARS,SUPERINTENDENT OF SCHOOLS,03/29/2018 00:00:00,716042275,N,,N,N,REGULATORY,Y,U,,Local government,UG,,04/30/2018 10:20:46,05/03/2018 07:47:20,N,G,07/01/2016 00:00:00,,,,
1234033,2289692017,2017,228969,06/30/2017 00:00:00,S,A,,N,134331367,,N,068587112,CHICAGO METROPOLITAN AGENCY FOR PLANNING,233 S WACKER DRIVE SUITE 800,,CHICAGO,IL,60606,ANGELA HARDIMON,"DEPUTY EXEC DIRECTOR, FINANCE & ADMIN",3123868714,,AMANNINGHARDIMON@CMAP.ILLINOIS.GOV,12/12/2017 13:10:43,ANGELA HARDIMON-CHIEF FINANCIAL OFFICER,SIKICH LLP,"1415 W. DIEHL ROAD, SUITE 400",,NAPERVILLE,IL,60563,JIM SAVIO,PARTNER,6305668400,,JIM.SAVIO@SIKICH.COM,12/05/2017 12:55:17,,O,,U,N,N,N,N,U,750000,Y,,17569194,,N,N,N,N,N,N,,20,12/15/2017 00:00:00,12/18/2017 16:01:46,,N,909,1,x00,12/15/2017 00:00:00,,N,ANGELA HARDIMON,CHIEF FINANCIAL OFFICER,12/15/2017 00:00:00,363168081,N,,N,N,,,,,Local government,UG,,,,,,07/01/2016 00:00:00,,,,
1251726,1934782017,2017,193478,06/30/2017 00:00:00,S,A,,N,246002108,,N,,JIM THORPE AREA SCHOOL DISTRICT,410 CENTER AVENUE,,JIM THORPE,PA,18229,LAUREN K. KOVAC,BUSINESS MANAGER,5703253691,,LKOVAC@JTASD.ORG,03/30/2018 09:30:50,LAUREN KOVAC-BUSINESS MANAGER / BOARD SECRETARY,ZELENKOFSKE AXELROD LLC,"2370 YORK ROAD, SUITE A5",,JAMISON,PA,18929,JEFFREY WEISS,PARTNER,2159182277,,JWEISS@ZALLC.ORG,03/30/2018 09:04:37,,O,,U,N,Y,N,N,Q,750000,Y,,1532204,,N,Y,Y,Y,N,N,,84,03/30/2018 00:00:00,04/04/2018 01:30:21,,N,505,1,x00,03/30/2018 00:00:00,,N,LAUREN KOVAC,BUSINESS MANAGER / BOARD SECRETARY,03/30/2018 00:00:00,233022325,Y,,N,N,,,,,Local government,UG,,04/26/2018 16:16:19,05/03/2018 07:47:20,,N,07/01/2016 00:00:00,,,,
1256882,1771712017,2017,177171,08/31/2017 00:00:00,S,A,,N,910933338,,N,012937421,SOUTH WHIDBEY SCHOOL DISTRICT NO. 206,5520 MAXWELL ROAD,,LANGLEY,WA,98260,DAN POOLMAN,ASSISTANT SUPERINTENDENT OF BUSINESS,3602216100,,DPOOLMAN@SW.WEDNET.EDU,05/24/2018 16:17:59,DAN POOLMAN-ASSISTNT SUPERINTENDENT,WASHINGTON STATE AUDITOR'S OFFICE,600 KITSAP STREET SUITE 201,,PORT ORCHARD,WA,98366,TAMMY LANE,ASSISTANT STATE AUDITOR,3608956133,,LANET@SAO.WA.GOV,05/24/2018 15:27:39,,O,,S,N,N,N,N,U,750000,Y,,800639,,N,N,N,N,N,N,,84,05/24/2018 00:00:00,05/26/2018 01:30:20,,N,505,1,x00,05/24/2018 00:00:00,,N,DAN POOLMAN,ASSISTNT SUPERINTENDENT,05/24/2018 00:00:00,916001098,N,,N,N,REGULATORY,Y,U,,Local government,UG,,05/25/2018 09:30:00,05/31/2018 07:11:29,N,G,09/01/2016 00:00:00,,,,
1245048,1795942017,2017,179594,06/30/2017 00:00:00,S,A,,N,396000820,,N,,BALDWIN-WOODVILLE AREA SCHOOL DISTRICT,550 HWY 12,,BALDWIN,WI,54002,PAM ROSE,DISTRICT ACCOUNTANT,7156843411,,PROSE@BWSD.K12.WI.US,01/29/2018 08:36:33,PAM ROSE-DISTRICT ACCOUNTANT,CLIFTONLARSONALLEN,"3402 OAKWOOD MALL DRIVE, SUITE 100",,EAU CLAIRE,WI,54701,BROCK GEYEN,PRINCIPAL,7158521108,,BROCK.GEYEN@CLACONNECT.COM,01/26/2018 15:04:17,,O,,U,N,Y,N,N,U,750000,N,,769535,,N,N,N,N,N,N,,84,01/29/2018 00:00:00,01/30/2018 08:02:00,,N,505,1,x00,01/20/2018 00:00:00,,N,PAM ROSE,DISTRICT ACCOUNTANT,01/29/2018 00:00:00,410746749,Y,,N,N,,,,,Local government,UG,,02/12/2018 13:56:28,02/15/2018 08:27:20,N,G,07/01/2016 00:00:00,,,,
1228405,1383532017,2017,138353,06/30/2017 00:00:00,S,A,,N,826000590,,N,193088374,MARSH VALLEY SCHOOL DISTRICT #21,PO BOX 180,,ARIMO,ID,83214,GALENE ANDERSEN,BUSINESS MANAGER,2082549135,,GANDERSEN@MVSD21.ORG,10/05/2017 16:01:25,GALENE ANDERSON-BUSINESS MANAGER,MORGAN J HATT CPA PC,1855 SATTERFIELD DRIVE,,POCATELLO,ID,83201,MORGAN HATT,CPA,2083176040,,MORGANH@IDA.NET,10/05/2017 15:56:07,,O,,Q,N,N,N,N,U,750000,N,,1094534,,N,N,N,N,N,N,,84,10/05/2017 00:00:00,10/06/2017 08:27:31,,N,505,1,x00,10/04/2017 00:00:00,,N,GALENE ANDERSON,BUSINESS MANAGER,10/05/2017 00:00:00,810866970,N,,N,N,,,,,Local government,UG,,10/06/2017 15:26:31,10/19/2017 08:24:17,N,G,07/01/2016 00:00:00,,,,
1234300,1857992017,2017,185799,06/30/2017 00:00:00,S,A,,N,236005166,,N,071196075,SOUTH EASTERN SCHOOL DISTRICT,377 MAIN STREET,,FAWN GROVE,PA,17321,LAUREL FUHRMAN,ASSISTANT BUSINESS MANAGER,7173824843,,FUHRMANL@SESD.K12.PA.US,12/14/2017 08:50:28,LAUREL FUHRMAN-ASSISTANT BUSINESS MANAGER,"BOYER & RITTER, LLC",211 HOUSE AVENUE,,CAMP HILL,PA,17011,"MATTHEW S. WILDASIN, CPA",PRINCIPAL,7177617210,,MWILDASIN@CPABR.COM,12/19/2017 08:47:26,,O,,U,N,N,N,N,U,750000,Y,,1521760,,N,N,N,N,N,N,,84,12/19/2017 00:00:00,12/21/2017 11:06:26,,N,505,1,x00,12/19/2017 00:00:00,,N,LAUREL FUHRMAN,ASSISTANT BUSINESS MANAGER,12/19/2017 00:00:00,231311005,N,,N,N,,,,,Local government,UG,,12/26/2017 11:19:09,01/11/2018 13:16:22,N,G,07/01/2016 00:00:00,,,,
1236430,1565242017,2017,156524,06/30/2017 00:00:00,S,A,,N,210735947,,N,075522102,BURLINGTON COUNTY INSTITUTE OF TECHNOLOGY,695 WOODLANE ROAD,,WESTAMPTON,NJ,08060,THERESA MARGIOTTA,BUSINESS ADMINISTRATOR,6092674226,,TMARGIOTTA@BURLCOSCHOOLS.ORG,12/05/2017 16:05:23,THERESA MARGIOTTA-BUSINESS ADMINISTRATOR,"HOLMAN FRENIA ALLISON, P.C.",618 STOKES ROAD,,MEDFORD,NJ,08055,DAVID GORSKI,MANAGER,6099538443,,DGORSKI@HFACPAS.COM,12/11/2017 10:52:42,,O,,U,N,N,N,N,U,750000,N,,2064365,,N,N,N,N,N,Y,,84,12/11/2017 00:00:00,12/12/2017 14:51:25,,N,105,1,x00,12/11/2017 00:00:00,,N,THERESA MARGIOTTA,BUSINESS ADMINISTRATOR,12/11/2017 00:00:00,223480145,N,,N,N,,,,,Local government,UG,,12/13/2017 09:06:04,12/14/2017 06:59:43,N,G,07/01/2016 00:00:00,,,,
1258697,591722017,2017,59172,12/31/2017 00:00:00,S,A,,N,391080897,,N,083304105,"CAP SERVICES, INC. AND SUBSIDIARIES",2900 HOOVER ROAD,,STEVENS POINT,WI,54481,MARY PATOKA,CHIEF EXECUTIVE OFFICER,7153437512,,MPATOKA@CAPMAIL.ORG,06/06/2018 17:29:09,MARY PATOKA-PRESIDENT & CEO,WIPFLI LLP,PO BOX 8700,,MADISON,WI,537088700,"JEAN M. CHRISTENSEN, CPA",PARTNER,6082741980,,JMCHRISTENSEN@WIPFLI.COM,06/07/2018 07:06:33,,O,,U,N,N,N,N,U,750000,Y,,9460618,,N,N,N,N,N,N,,93,06/07/2018 00:00:00,06/09/2018 01:30:20,,N,908,1,x00,06/07/2018 00:00:00,,N,MARY PATOKA,PRESIDENT & CEO,06/07/2018 00:00:00,390758449,N,,N,N,,,,,Non-profit,UG,,,,,,01/01/2017 00:00:00,,,,
1249441,1643862017,2017,164386,06/30/2017 00:00:00,S,A,,N,346003081,,N,077768398,WILLOUGHBY-EASTLAKE CITY SCHOOL DISTRICT,32500 CHARDON ROAD,,WILLOUGHBY HILLS,OH,44094,WILLIAM PARKINSON,TREASURER,4409753783,,BILL.PARKINSON@WESCHOOLS.ORG,03/28/2018 07:43:11,WILLIAM PARKINSON-TREASURER,"DAVE YOST, AUDITOR OF STATE",88 EAST BROAD STREET,,COLUMBUS,OH,43216,WILLIAM WARD,SENIOR AUDIT MANAGER,2167873661,,WJWARD@OHIOAUDITOR.GOV,03/27/2018 16:20:07,,O,,U,N,N,N,N,U,750000,Y,,5957469,,N,N,N,N,N,N,,84,03/28/2018 00:00:00,03/30/2018 01:30:20,,N,505,1,x00,03/28/2018 00:00:00,,N,WILLIAM PARKINSON,TREASURER,03/28/2018 00:00:00,311334820,N,,N,N,,,,,Local government,UG,02351500,04/24/2018 08:08:33,04/26/2018 09:53:52,N,B,07/01/2016 00:00:00,,,,
1260586,2184582017,2017,218458,09/30/2017 00:00:00,S,A,,N,943430413,,N,,TIMBER HILLS HOUSING OF TISHOMINGO COUNTY INC. 065-HD026,"751 AVIGNON DRIVE, SUITE #H",,RIDGELAND,MS,39157,SCOTT RUSSELL,MANAGING AGENT,6018562362,,ALPHA4ONE@COMCAST.NET,06/29/2018 12:10:13,SCOTT RUSSELL-PRESIDENT,"HARPER, RAINS, KNIGHT & COMPANY","1052 HIGHLAND COLONY PARKWAY, SUITE 100",,RIDGELAND,MS,39157,BILL FELDER,LEAD AUDITOR,6016050722,,BFELDER@HRKCPA.COM,06/25/2018 09:54:35,,O,,U,N,N,N,N,U,750000,Y,,1094764,,N,N,N,N,N,N,,14,06/29/2018 00:00:00,07/03/2018 01:30:20,,N,908,1,x00,06/29/2018 00:00:00,,N,SCOTT RUSSELL,PRESIDENT,06/29/2018 00:00:00,640809101,N,,N,N,,,,,Non-profit,UG,,,,,,10/01/2016 00:00:00,,,,
1232191,909702017,2017,90970,06/30/2017 00:00:00,S,A,,N,593125675,,N,,"HEALTHY START COALITION OF ORANGE COUNTY, INC.","1040 WOODCOCK ROAD, SUITE 215",,ORLANDO,FL,32803,LINDA SUTHERLAND,EXECUTIVE DIRECTOR,4077415240,,LINDA@HEALTHYSTARTORANGE.ORG,11/28/2017 12:29:20,LINDA SUTHERLAND-EXECUTIVE DIRECTOR,"SCHAFER, TSCHOPP, WHITCOMB, MITCHELL & SHERIDAN, LLP","541 S. ORLANDO AVENUE, SUITE 312",,MAITLAND,FL,32751,TOM WHITCOMB,PARTNER,4078752760,,TWHITCOMB@TWO-CPA.COM,11/17/2017 09:50:33,,O,,U,N,N,N,N,U,750000,Y,,2388051,,N,N,N,N,N,N,,93,11/28/2017 00:00:00,11/29/2017 11:12:08,,N,908,1,x00,11/28/2017 00:00:00,,N,LINDA SUTHERLAND,EXECUTIVE DIRECTOR,11/28/2017 00:00:00,261472386,N,,N,N,,,,,Non-profit,UG,,,,,,07/01/2016 00:00:00,,,,
1284261,10222017,2017,1022,06/30/2017 00:00:00,P,A,,N,020347931,,N,,SOUTHEASTERN NEW HAMPSHIRE ALCOHOL & DRUG ABUSE SERVICES,272 COUNTRY FARM ROAD,,DOVER,NH,03820,DENISE ELWART,DIRECTOR OF FINANCE AND OPERATIONS,6035168170,,DELWART@CO.STRAFFORD.NH.US,01/15/2019 10:13:55,DENISE ELWART-DIRECTOR OF FINACE AND OPERATIONS,DAVID A KREED CPA,36 NORTH STREET,,MANCHESTER,NH,03104,DAVID KREED,OWNER,6036254792,,DKREEDCPA@COMCAST.NET,01/15/2019 09:51:50,,O,,U,N,N,N,N,U,750000,N,,982933,,N,N,N,N,N,N,,93,01/15/2019 00:00:00,01/17/2019 01:30:20,,N,908,1,x00,01/15/2019 00:00:00,,N,DENISE ELWART,DIRECTOR OF FINACE AND OPERATIONS,01/15/2019 00:00:00,020481068,N,,N,N,,,,,Non-profit,UG,,,,,,07/01/2016 00:00:00,,,,
1233376,2069192017,2017,206919,06/30/2017 00:00:00,S,A,,N,930147689,,N,060147689,ANDREW HOUSING COMPANY 176-HD-004,2515 A STREET,,ANCHORAGE,AK,99503,LORI NEALLEY,DIRECTOR OF AFFORDABLE HOUSING,9076778490,,LNEALLEY@NWALASKA.ORG,11/14/2017 17:06:36,LORI NEALLEY-DIRECTOR OF AFFORDABLE HOUSING,"SRAMEK HIGHTOWER, CPAS","2525 C STREET, STE 100",,ANCHORAGE ,AK,99503,ROD HUTCHINGS,CPA,9075614341,,ROD@SH-CPAFIRM.COM,11/14/2017 18:58:57,,O,,U,N,N,N,N,U,750000,Y,,1095968,,N,N,N,N,N,N,,14,11/14/2017 00:00:00,11/15/2017 11:53:07,,N,903,1,x00,11/14/2017 00:00:00,,N,LORI NEALLEY,DIRECTOR OF AFFORDABLE HOUSING,11/14/2017 00:00:00,920122229,N,,N,N,,,,,Non-profit,UG,,,,,,07/01/2016 00:00:00,,,,
1251356,2250642017,2017,225064,06/30/2017 00:00:00,S,A,,N,721489555,,N,124424107,ZACHARY COMMUNITY SCHOOL BOARD,3755 CHURCH STREET,,ZACHARY,LA,70791,JOHN MUSSO,BUSINESS MANAGER,2256584969,,JOHN.MUSSO@ZACHARYSCHOOLS.ORG,03/20/2018 16:53:12,JOHN MUSSO-JOHN P MUSSO,POSTLETHWAITE AND NETTERVILLE,"8550 UNITED PLAZA BLVD., SUITE 1001",,BATON ROUGE,LA,70809,TIFFANI DORSA,DIRECTOR,2254084443,,TDORSA@PNCPA.COM,03/20/2018 17:06:25,,O,,U,Y,N,N,N,U,750000,Y,,3811747,,Y,N,N,Y,N,N,,12,03/20/2018 00:00:00,03/23/2018 01:30:21,,N,505,1,x00,01/11/2018 00:00:00,,N,JOHN MUSSO,JOHN P MUSSO,01/11/2018 00:00:00,721202445,N,,Y,Y,,,,,Local government,UG,,01/26/2018 14:02:52,02/01/2018 07:50:21,N,G,07/01/2016 00:00:00,,,,
1236200,1799402017,2017,179940,06/30/2017 00:00:00,S,A,,N,836000411,,N,030815625,CARBON COUNTY SCHOOL DISTRICT #1,615 RODEO STREET,,RAWLINS,WY,82301,MARGARET COX,BUSINESS MANAGER,3073289229,,MCOX@CRB1.NET,01/04/2018 13:32:37,MARGARET QUINTRALL-ASSISTANT BUSINESS MANAGER,"PORTER, MUIRHEAD, CORNIA & HOWARD",PO BOX 2750,,CASPER,WY,82602,DIANE COX,SHAREHOLDER,3072654311,,DCOX@PMCH.COM,01/04/2018 10:43:49,,O,,U,N,Y,N,N,Q,750000,Y,,2030288,,N,Y,N,Y,N,N,,84,01/04/2018 00:00:00,01/05/2018 09:03:15,,N,505,1,x00,01/04/2018 00:00:00,,N,MARGARET QUINTRALL,ASSISTANT BUSINESS MANAGER,01/04/2018 00:00:00,830220400,Y,,N,N,,,,,Local Government,UG,,01/09/2018 11:17:53,01/11/2018 13:16:22,N,G,07/01/2016 00:00:00,,,,
1231071,872142017,2017,87214,06/30/2017 00:00:00,S,A,,N,582140224,,N,,"CHRISTOPHER HOMES OF HOT SPRINGS, INC.",1010 CONES ROAD,,HOT SPRINGS,AR,71901,ELIZABETH LOPEZ,EXECUTIVE DIRECTOR,5016641881,,LLOPEZ@DOLR.ORG,10/28/2017 13:16:33,ELIZABETH LOPEZ-EXECUTIVE DIRECTOR,"RASCO WINTER ABSTON MOORE & ASSOCIATES, LLP","400 W. CAPITOL, SUITE 1624",,LITTLE ROCK,AR,722014805,R. KEVIN NORTON,MANAGING PARTNER,5013758500,,NORTON@RASCOWINTER.COM,10/27/2017 13:21:47,,O,,U,N,N,N,N,U,750000,Y,,966769,,N,N,N,N,N,N,,14,10/30/2017 00:00:00,10/31/2017 09:04:23,,N,903,1,x00,10/30/2017 00:00:00,,N,ELIZABETH LOPEZ,EXECUTIVE DIRECTOR,10/30/2017 00:00:00,710448488,N,,N,N,,,,,Non-profit,UG,,,,,,07/01/2016 00:00:00,,,,
1247538,1978702017,2017,197870,08/31/2017 00:00:00,S,A,,N,050370946,,N,,"STOP WASTING ABANDONED PROPERTY (S.W.A.P.,INC.) AND SUBSIDIARIES",439 PINE STREET,,PROVIDENCE,RI,02907,DOLORES RICCI-NORCOTT,CONTROLLER,4012720526,,DRN@BTNE.COM,02/17/2018 13:17:58,DOLORES RICCI-NORCOTT-ACCOUNTANT,"DAMIANO, BURK & NUTTALL PC",6 BLACKSTONE VALLEY PLACE SUITE 109,,LINCOLN,RI,02865,VICTORIA,SENIOR,4013332888,,VSYLVIA@DBNCPAS.COM,02/19/2018 09:09:53,,O,,Q,N,N,N,N,U,750000,Y,,6328932,,N,N,N,N,N,N,,21,02/19/2018 00:00:00,02/20/2018 10:40:51,,N,903,1,x00,02/19/2018 00:00:00,,N,DOLORES RICCI-NORCOTT,ACCOUNTANT,02/19/2018 00:00:00,453085083,N,,N,N,,,,,Non-profit,UG,,,,,,09/01/2016 00:00:00,,,,
1237821,1660322017,2017,166032,06/30/2017 00:00:00,S,A,,N,936002295,,N,,"GRANT COUNTY, OREGON",201 S HUMBOLT STREET,,CANYON CITY,OR,97820,JULIE ELLISON,TREASURER,5415751798,,ELLISONJ@GRANTCOUNTY-OR.GOV,12/13/2017 17:07:14,JULIE ELLISON-TREASURER,"OPGCPA, PC",101 NE FIRST AVE,,JOHN DAY,OR,97845,"ROBERT ARMSTRONG, CPA",OWNER,5415752717,,BOBA@OPGCPA.COM,12/13/2017 13:21:49,,O,,U,N,Y,N,N,U,750000,N,,1521629,,N,N,N,N,N,N,,10,12/13/2017 00:00:00,12/15/2017 14:02:13,,N,100,1,x00,12/13/2017 00:00:00,,N,JULIE ELLISON,TREASURER,12/13/2017 00:00:00,464380258,Y,,N,N,,,,,Local government,UG,,,,,,07/01/2016 00:00:00,,,,
1235809,1828612017,2017,182861,06/30/2017 00:00:00,S,A,,N,710784010,,N,088281977,"ROSEWOOD APARTMENTS, INC 082-HD032",8101 I-30 STE A,,LITTLE ROCK,AR,72209,CARL SCHULTZ,PRESIDENT OF BOARD,5012800037,,CSCHULTZ@INTREPIDINC.NET,12/01/2017 12:53:45,CARL SCHULTZ-MANAGING AGENT ,THE KEMP FIRM,8101 I-30 STE B,,LITTLE ROCK,AR,72209,MICHELE KEMP,PARTNER,5012236934,,MKEMP@THEKEMPFIRM.COM,12/03/2017 18:59:55,,O,,U,N,N,N,N,U,750000,Y,,856219,,N,N,N,N,N,N,,14,12/03/2017 00:00:00,12/04/2017 16:57:33,,N,903,1,x00,12/03/2017 00:00:00,,N,CARL SCHULTZ,MANAGING AGENT ,12/03/2017 00:00:00,274290628,N,,N,N,,,,,Non-profit,UG,,,,,,07/01/2016 00:00:00,,,,
1269269,2373132017,2017,237313,12/31/2017 00:00:00,S,A,,N,223035152,,N,,"MUTUAL HOUSING ASSOCIATION OF SOUTHWESTERN CONNECTICUT, INC.",434 MAPLEWOOD AVE,,BRIDGEPORT,CT,06605,RENEE DOBOS,CHIEF EXECUTIVE OFFICER,2034873631,,RDOBOS@CTHOUSINGPARTNERS.ORG,10/01/2018 11:48:00,RENEE DOBOS-CEO,"GUYDER HURLEY, P.C.","100 GRANDVIEW ROAD, SUITE 320",,BRAINTREE,MA,02184,MICHAEL GUYDER,DIRECTOR,6133766226,,MGUYDER@GUYDER-HURLEY.COM,09/27/2018 18:09:10,,O,,U,Y,N,N,N,Q,750000,N,,4142560,,Y,Y,N,Y,Y,N,,14,10/01/2018 00:00:00,10/06/2018 01:30:20,,N,903,1,x14,10/01/2018 00:00:00,,N,RENEE DOBOS,CEO,10/01/2018 00:00:00,043520245,N,,Y,Y,,,,,Non-profit,UG,,,,,,01/01/2017 00:00:00,,,,
1223649,2402802017,2017,240280,06/30/2017 00:00:00,S,A,,N,363191926,,N,,"TRANSITIONAL HOUSING, INC. HUD PROJECT NO. 071-EH205",4101 N RAVENSWOOD AVE,,CHICAGO,IL,60613,AL SHOREIBAH,CFO,7735725500,,AL.SHOREIBAH@THRESHOLDS.ORG,10/02/2017 13:54:18,AL SHOREIBAH-CHIEF FINANCIAL OFFICER,"PLANTE & MORAN, PLLC",10 S. RIVERSIDE PLAZA,,CHICAGO,IL,60606,TONI DIPRIZIO,ENGAGEMENT PARTNER,3129803227,,TONI.DIPRIZIO@PLANTEMORAN.COM,10/02/2017 09:17:36,,O,,U,N,N,N,N,U,750000,Y,,758713,,N,N,N,N,N,N,,14,10/02/2017 00:00:00,10/03/2017 13:43:11,,N,888,1,x00,10/02/2017 00:00:00,,N,AL SHOREIBAH,CHIEF FINANCIAL OFFICER,10/02/2017 00:00:00,381357951,N,,N,N,,,,,Non-profit,UG,,,,,,07/01/2016 00:00:00,,,,
1246121,794542017,2017,79454,09/30/2017 00:00:00,S,A,,N,541327878,,N,161157946,UNITED NETWORK FOR ORGAN SHARING,700 NORTH FOURTH STREET,,RICHMOND,VA,232190000,MATT LOVETRO,DIRECTOR OF FINANCE,8047824880,,MATT.LOVETRO@UNOS.ORG,02/02/2018 08:47:06,"MATT LOVETRO-DIRECTOR, FINANCE",CHERRY BEKAERT LLP,200 SOUTH 10TH STREET,,RICHMOND ,VA,232190000,RUSSELL COLEMAN ,PARTNER,8046735740,,RCOLEMAN@CBH.COM,02/05/2018 11:17:23,,O,,U,N,N,N,N,U,750000,Y,,5412415,,N,N,N,N,N,N,,93,02/05/2018 00:00:00,02/06/2018 10:58:40,,N,908,1,x00,02/05/2018 00:00:00,,N,MATT LOVETRO,"DIRECTOR, FINANCE",02/05/2018 00:00:00,560574444,N,,N,N,,,,,Non-profit,UG,,,,,,10/01/2016 00:00:00,,,,
1222522,1505162017,2017,150516,06/30/2017 00:00:00,S,A,,N,386003657,,N,061953628,STURGIS PUBLIC SCHOOL DISTRICT,107 W. WEST STREET,,STURGIS,MI,49091,RAYMOND STERLING,DIRECTOR OF FINANCE,2696591500,,RSTERLING@STURGISPS.ORG,10/18/2017 09:24:26,RAYMOND STERLING-DIRECTOR OF FINANCE,"PLANTE & MORAN, PLLC",750 TRADE CENTRE WAY SUITE 300,,PORTAGE,MI,49002,"THOMAS H. COLE III, CPA",PARTNER,2695674500,,PM.SINGLEAUDIT@PLANTEMORAN.COM,10/17/2017 08:48:44,,O,,U,Y,N,N,N,U,750000,Y,,2585319,,N,N,N,N,Y,N,,10,10/18/2017 00:00:00,10/19/2017 08:13:10,,N,505,1,x00x10,10/18/2017 00:00:00,,N,RAYMOND STERLING,DIRECTOR OF FINANCE,10/18/2017 00:00:00,381357951,N,,Y,N,,,,,Local government,UG,,10/20/2017 08:19:53,10/26/2017 07:57:13,N,G,07/01/2016 00:00:00,,,,
1251123,2332212017,2017,233221,06/30/2017 00:00:00,S,A,,N,860326269,,N,176755684,PPEP MICROBUSINESS AND HOUSING DEVELOPMENT CORPORATION,802 E 46TH STREET,,TUCSON,AZ,85713,BARBARA CORONADO,CHIEF FINANCIAL OFFICER,5206223553,,BCORONADO@PPEP.ORG,03/27/2018 19:12:07,BARBARA CORONADO-COO/DIRECTOR OF FINANCE,"ADDINGTON & ASSOCIATES, PLLC","5431 N ORACLE ROAD, SUITE #101",,TUCSON,AZ,85704,"PAUL D ADDINGTON, CPA",OWNER,5208871120,,PAUL@ADDINGTONCPA.COM,03/26/2018 23:39:53,,O,,U,N,N,N,N,U,750000,Y,,4373548,,N,N,N,N,Y,N,,10,03/27/2018 00:00:00,03/29/2018 01:30:20,,N,909,1,x00x14,03/27/2018 00:00:00,,N,BARBARA CORONADO,COO/DIRECTOR OF FINANCE,03/27/2018 00:00:00,861010758,N,,N,N,,,,,Non-profit,UG,,,,,,07/01/2016 00:00:00,,,,
1252031,1666152017,2017,166615,06/30/2017 00:00:00,S,A,,N,936000597,,N,,JUNCTION CITY SCHOOL DISTRICT NO. 69,325 MAPLE STREET,,JUNCTION CITY,OR,97448,ALISON COVEY,BUSINESS MANAGER,5419986311,,ACOVEY@JUNCTIONCITY.K12.OR.US,03/27/2018 12:55:05,ALISON COVEY-BUSINESS MANAGER,"PAULY, ROGERS & CO., P.C.",12700 SW 72ND AVE.,,TIGARD,OR,97223,MATTHEW GRAVES,PARTNER,5036202632,,MATTHEWG@RASCPAS.COM,03/23/2018 18:03:04,,O,,U,N,N,N,N,U,750000,N,,1310096,,N,N,N,N,N,N,,84,03/27/2018 00:00:00,03/29/2018 01:30:20,,N,505,1,x00,01/29/2018 00:00:00,,N,ALISON COVEY,BUSINESS MANAGER,03/27/2018 00:00:00,930936123,N,,N,N,,,,,Local government,UG,,04/23/2018 11:13:39,04/26/2018 09:53:52,N,G,07/01/2016 00:00:00,,,,
1237013,2402922017,2017,240292,09/30/2017 00:00:00,S,A,,N,452872284,,N,078407391,"LANE MANOR RHF HOUSING, INC. DBA LANE MANOR 061-EE166",911 NORTH STUDEBAKER ROAD,,LONG BEACH,CA,90815,CHRISTOPHER PURCELL,CONTROLLER,5622575100,,CHRISTOPHER.PURCELL@RHF.ORG,01/24/2018 18:10:05,CHRISTOPHER PURCELL-CONTROLLER,"DAUBY O'CONNOR & ZALESKI, LLC","501 CONGRESSIONAL BLVD., SUITE 300",,CARMEL,IN,46032,JACOB BUEHLER,MEMBER,3178485700,,JBUEHLER@DOZ.NET,01/25/2018 09:18:37,,O,,U,N,N,Y,N,Q,750000,Y,,5945952,,Y,N,N,Y,N,N,,14,01/25/2018 00:00:00,01/26/2018 08:27:54,,N,888,1,x00x14,01/25/2018 00:00:00,,N,CHRISTOPHER PURCELL,CONTROLLER,01/25/2018 00:00:00,351750664,N,,N,Y,,,,,Non-profit,UG,,,,,,10/01/2016 00:00:00,,,,
1244314,2254862017,2017,225486,06/30/2017 00:00:00,S,A,,N,421541685,,N,135910581,HOUSING AUTHORITY OF COCHISE COUNTY,P.O. BOX 167,,BISBEE,AZ,856030167,ANITA BACA,EXECUTIVE DIRECTOR,5204328883,,ABACA@COCHISE.AZ.GOV,01/19/2018 15:52:34,ANITA BACA-EXECUTIVE DIRECTOR,"MALCOLM JOHNSON & COMPANY, P.A.",P.O. BOX 530848,,DEBARY,FL,327530848,MALCOLM P. JOHNSON,PRESIDENT,3866686464,,MALCOLMJOHNSON@MPINET.NET,01/22/2018 09:30:11,,O,,U,N,N,N,N,U,750000,Y,,3243191,,N,N,N,N,N,N,,14,01/22/2018 00:00:00,01/25/2018 08:50:10,,N,103,1,x00,01/22/2018 00:00:00,,N,ANITA BACA,EXECUTIVE DIRECTOR,01/22/2018 00:00:00,593382992,N,,N,N,,,,,Local government,UG,,,,,,07/01/2016 00:00:00,,,,
1234596,1408492017,2017,140849,06/30/2017 00:00:00,S,A,,N,366001624,,N,092577691,HOUSING AUTHORITY FOR LASALLE COUNTY,526 E NORRIS DRIVE,,OTTAWA,IL,61350,RICK JURKAS,EXECUTIVE DIRECTOR,8154340380,,RJURKAS@HALC.ORG,12/04/2017 16:37:02,RICK JURKAS-CEO,"PAMELA J SIMPSON, CPA",920 WEST PERSHING ROAD,,DECATUR,IL,62526,PAMELA SIMPSON,PROPRIETOR,2178721908,,CPAOFFC@AOL.COM,12/01/2017 09:04:49,,O,,U,N,N,N,N,U,750000,Y,,7609205,,N,N,N,N,N,N,,14,12/04/2017 00:00:00,12/05/2017 13:26:35,,N,403,1,x00,12/04/2017 00:00:00,,N,RICK JURKAS,CEO,12/04/2017 00:00:00,371267246,N,,N,N,,,,,Local government,UG,,,,,,07/01/2016 00:00:00,,,,
1233980,2047722017,2017,204772,06/30/2017 00:00:00,S,A,,N,237050082,,N,084343334,VALLEY COMMUNITY HEALTHCARE,6801 COLDWATER CANYON AVE,,NORTH HOLLYWOOD,CA,916055162,PAULA WILSON,PRESIDENT,8187637231,,PWILSON@VCHCARE.ORG,11/29/2017 14:31:56,LEE HUEY-CFO,SINGERLEWAK LLP,"10960 WILSHIRE BLVD., SUITE 700",,LOS ANGELES,CA,900243719,MANDA DINKEL,DIRECTOR,3032265485,,MDINKEL@SINGERLEWAK.COM,12/04/2017 14:37:34,,O,,U,N,N,N,N,U,750000,Y,,4983007,,N,N,N,N,N,N,,93,12/04/2017 00:00:00,12/05/2017 12:29:33,,N,908,1,x00,12/04/2017 00:00:00,,N,LEE HUEY,CFO,12/04/2017 00:00:00,232302617,N,,N,N,,,,,Non-profit,UG,,,,,,07/01/2016 00:00:00,,,,
1252518,1314272017,2017,131427,06/30/2017 00:00:00,S,A,,N,710349983,,N,040623886,HOUSING AUTHORITY OF THE CITY OF RUSSELLVILLE,PO BOX 825,,RUSSELLVILLE,AR,72811,VICKI STEELE,EXECUTIVE DIRECTOR,4799685440,,VICKI.STEELE@HOTMAIL.COM,03/27/2018 14:07:11,VICKI STEELE-EXECUTIVE DIRECTOR,"CYNTHIA L WARREN CPA, P.C.",PO BOX 189,,EUFAULA,OK,744320189,CYNTHIA WARREN,CPA,9184522116,,CINDYW@CROSSTEL.NET,03/26/2018 23:45:16,,O,,U,N,N,N,N,U,750000,Y,,1229615,,N,N,N,N,N,N,,14,03/27/2018 00:00:00,03/29/2018 01:30:20,,N,403,1,x00,03/27/2018 00:00:00,,N,VICKI STEELE,EXECUTIVE DIRECTOR,03/27/2018 00:00:00,364523833,N,,N,N,,,,,Non-profit,UG,,,,,,07/01/2016 00:00:00,,,,
1256921,2125352017,2017,212535,12/31/2017 00:00:00,S,A,,N,311784161,,N,084168566,"LEGAL AID OF NORTH CAROLINA, INC.",224 SOUTH DAWSON STREET,,RALEIGH,NC,27611,GEORGE R HAUSEN JR,EXECUTIVE DIRECTOR,9198562130,,GEORGEH@LEGALAIDNC.ORG,05/09/2018 13:34:34,GEORGE HAUSEN-EXECUTIVE DIRECTOR,"ROMEO, WIGGINS & COMPANY, LLP","8210 CREEDMOOR ROAD, SUITE 202",,RALEIGH,NC,27613,JOSEPH L HILL JR,PARNTER,9198705151,,JHILL@ROMEOWIGGINS.COM,05/09/2018 12:31:36,,O,,U,N,N,N,N,U,750000,N,,17712397,,N,N,N,N,N,N,,09,05/09/2018 00:00:00,05/11/2018 01:30:21,,N,908,1,x00,05/09/2018 00:00:00,,N,GEORGE HAUSEN,EXECUTIVE DIRECTOR,05/09/2018 00:00:00,561627242,N,,N,N,,,,,Non-profit,UG,,,,,,01/01/2017 00:00:00,,,,
1253912,36052017,2017,3605,06/30/2017 00:00:00,S,A,,N,042596270,,N,,"MASSAHUSETTS ALLIANCE OF PORTUGUESE SPEAKERS, INC. ",1046 CAMBRIDGE STREET,,CAMBRIDGE,MA,02139,PAULO PINTO,EXECUTIVE DIRECTOR,6178647600,,PPINTO@MAPS-INC.ORG,05/22/2018 16:51:00,PETER FERNANDES-FINANCE CONSULTANT,"DAVISKELLY, LLC","4238 WASHINGTON STREET, SUITE 309",,BOSTON,MA,02131,NANCY KELLY,PARTNER,8573839363,,NANCY@DAVISKELLYCPAS.COM,03/30/2018 15:55:36,,O,,U,N,N,N,N,U,750000,Y,,1323090,,N,N,N,N,N,Y,,93,05/31/2018 00:00:00,06/02/2018 01:30:20,,N,908,1,x00,05/31/2018 00:00:00,,N,PETER FERNANDES,FINANCE CONSULTANT,05/31/2018 00:00:00,743049340,N,,N,N,,,,,Non-profit,UG,,,,,,07/01/2016 00:00:00,,,,
1253140,1605162017,2017,160516,06/30/2017 00:00:00,S,A,,N,116000137,,N,176974332,WEST HEMPSTEAD UNION FREE SCHOOL DISTRICT,252 CHESTNUT STREET,,WEST HEMPSTEAD,NY,11552,EMMANUEL GLASU,ASSISTANT SUPT. FOR BUSINESS & OPS,5163903103,,EGLASU@WHUFSD.COM,03/28/2018 17:41:09,EMMANUEL GLASU-ASSISTANT SUPERINTENDENT FOR BUSINESS AND OPERATIO,"CULLEN & DANOWSKI, LLP",1650 ROUTE 112,,PORT JEFFERSON STATION,NY,117763060,"ALAN YU, CPA",PARTNER,6314733400,,AYU@CDLLP.NET,03/28/2018 17:50:39,,O,,U,Y,Y,N,N,U,750000,N,,1521294,,N,N,N,N,N,N,,84,03/28/2018 00:00:00,03/31/2018 01:30:21,,N,505,1,x00,03/28/2018 00:00:00,,N,EMMANUEL GLASU,ASSISTANT SUPERINTENDENT FOR BUSINESS AND OPERATIO,03/28/2018 00:00:00,112459188,Y,,Y,N,,,,,Local government,UG,,04/19/2018 16:54:53,04/26/2018 09:53:52,N,G,07/01/2016 00:00:00,,,,
1228666,1415732017,2017,141573,06/30/2017 00:00:00,S,A,,N,366007988,,N,021440672,GENEVA CUSD 304,227 NORTH FOURTH STREET,,GENEVA,IL,60134,TODD LATHAM,BUSINESS SERVICES COORDINATOR,6304633030,,TLATHAM@GENEVA304.ORG,11/15/2017 13:39:25,TODD LATHAM-COORDINATOR OF BUSINESS SERVICES ,"KLEIN HALL CPAS, LLC",3957 75TH STREET,,AURORA,IL,60504,SCOTT DUENSER,PARTNER,6308985578,,SDUENSER@KLEINHALLCPA.COM,11/10/2017 15:18:16,,O,,U,N,N,N,N,U,750000,Y,,1568476,,N,N,N,N,N,N,,84,11/15/2017 00:00:00,11/16/2017 10:58:12,,N,505,1,x00,11/15/2017 00:00:00,,N,TODD LATHAM,COORDINATOR OF BUSINESS SERVICES ,11/15/2017 00:00:00,371437362,N,,N,N,,,,,Local government,UG,,11/17/2017 10:01:07,11/30/2017 07:11:25,N,G,07/01/2016 00:00:00,,,,
1257118,1391322017,2017,139132,12/31/2017 00:00:00,S,A,,N,376001160,,N,075614834,"CITY OF GALESBURG, ILLINOIS",55 WEST TOMPKINS STREET,,GALESBURG,IL,61401,GLORIA OSBORN,DIRECTOR OF FINANCE AND INFORMATION SYST,3093453677,,GOSBORN@CI.GALESBURG.IL.US,06/26/2018 11:25:58,GLORIA OSBORN-DIRECTOR OF FINANCE & INFORMATION SYSTEMS,BAKER TILLY VIRCHOW KRAUSE LLP,"1301 W. 22ND STREET, STE 400",,OAK BROOK,IL,60523,JASON COYLE,PARTNER,6306456205,,JASON.COYLE@BAKERTILLY.COM,07/30/2018 10:50:38,,O,,U,Y,N,N,N,U,750000,N,,2283107,,N,N,N,N,N,N,,16,07/30/2018 00:00:00,08/01/2018 01:30:20,,N,200,1,x00,07/30/2018 00:00:00,,N,GLORIA OSBORN,DIRECTOR OF FINANCE & INFORMATION SYSTEMS,07/30/2018 00:00:00,390859910,N,,Y,N,,,,,Local government,UG,,,,,,01/01/2017 00:00:00,,,,
1240991,1313562017,2017,131356,03/31/2017 00:00:00,S,A,,N,710338439,,N,963576954,HOUSING AUTHORITY OF THE CITY OF WYNNE,PO BOX 552,,WYNNE,AR,723960552,SHARRON WEAVER,EXECUTIVE DIRECTOR,8702383842,,SWEAVER@IPA.NET,12/28/2017 11:43:56,SHARRON WEAVER-EXECUTIVE DIRECTOR,"CYNTHIA L WARREN CPA, P.C.",PO BOX 189,,EUFAULA,OK,744320189,CYNTHIA WARREN,CPA,9184522116,,CINDYW@CROSSTEL.NET,12/27/2017 18:02:14,,O,,U,Y,N,N,N,U,750000,N,,1119298,,Y,N,N,Y,Y,N,,14,12/28/2017 00:00:00,12/29/2017 10:04:17,,N,403,1,x14,12/28/2017 00:00:00,,N,SHARRON WEAVER,EXECUTIVE DIRECTOR,12/28/2017 00:00:00,364523833,N,,Y,Y,,,,,Non-profit,UG,,,,,,04/01/2016 00:00:00,,,,
1262555,1528022017,2017,152802,12/31/2017 00:00:00,S,B,,N,446000547,,N,,COUNTY OF LAWRENCE,"1 COURTHOUSE SQUARE, SUITE 101",,MT. VERNON,MO,65712,GARY EMERSON,COUNTY CLERK,4174662638,,LAWRENCE.COUNTY@SOS.MO.GOV,09/25/2018 15:04:12,GARY EMERSON-COUNTY CLERK,"KPM CPAS, P.C.",1445 E REPUBLIC ROAD,,SPRINGFIELD,MO,65804,JON CUMMINGS,SHAREHOLDER,4178824300,,JCUMMINGS@KPMCPA.COM,09/25/2018 12:05:28,,O,,S,Y,N,N,N,U,750000,N,,2184272,,N,N,N,N,N,N,,16,09/25/2018 00:00:00,09/27/2018 01:30:21,,N,100,1,x00,09/25/2018 00:00:00,,N,GARY EMERSON,COUNTY CLERK,09/25/2018 00:00:00,431109768,N,,Y,N,REGULATORY,N,U,,Local government,UG,,,,,,01/01/2016 00:00:00,,,,
1240433,1840392017,2017,184039,06/30/2017 00:00:00,S,A,,N,936002313,,N,161179429,"UNION COUNTY, OREGON",1106 K AVENUE,,LA GRANDE,OR,97850,SHELLEY BURGESS,ADMINISTRATIVE OFFICER,5419631079,,SBURGESS@UNION-COUNTY.ORG,12/28/2017 18:50:17,SHELLEY BURGESS-ADMINISTRATIVE OFFICER,"LEWIS, POE, MOELLER, GUNDERSON & ROBERTS, LLC",1121 ADAMS AVENUE,,LA GRANDE,OR,97850,"CHELSEA HERRON, CPA",OWNER/MEMBER,5419634191,,CHERRON@LAGRANDECPA.COM,12/28/2017 17:52:42,,O,,U,N,N,N,N,U,750000,Y,,2775400,,N,N,N,N,N,N,,15,12/28/2017 00:00:00,12/29/2017 11:30:34,,N,100,1,x00,12/28/2017 00:00:00,,N,SHELLEY BURGESS,ADMINISTRATIVE OFFICER,12/28/2017 00:00:00,931245066,N,,N,N,,,,,Local government,UG,,,,,,07/01/2016 00:00:00,,,,
1237603,2400852017,2017,240085,06/30/2017 00:00:00,S,A,,N,352210009,,N,,OGDEN PREPARATORY ACADEMY,1435 LINCOLN AVE,,OGDEN,UT,84404,AMIE CAMPBELL,PRINCIPAL,8016273066,,ACAMPBELL@OGDENPREP.ORG,01/09/2018 11:05:27,AMIE CAMPBELL-PRINCIPAL OGDEN PREPARATORY ACADEMY,"SQUIRE & COMPANY, PC",1329 SOUTH 800 EAST,,OREM,UT,84097,M. PAUL WINWARD,PARTNER,8012256900,,PAULW@SQUIRE.COM,12/12/2017 13:51:58,,O,,U,N,N,N,N,U,750000,N,,865481,,N,N,N,N,N,N,,10,01/09/2018 00:00:00,01/10/2018 10:06:32,,N,888,1,x00,01/09/2018 00:00:00,,N,AMIE CAMPBELL,PRINCIPAL OGDEN PREPARATORY ACADEMY,01/09/2018 00:00:00,870343246,N,,N,N,,,,,Local government,UG,,01/19/2018 12:56:01,01/25/2018 07:42:06,N,G,07/01/2016 00:00:00,,,,
1326182,2279572017,2017,227957,12/31/2017 00:00:00,S,A,,N,203723007,,N,,"COMMON GROUND HEALTH CLINIC, INC. ",1400 TECHE ST.,,NEW ORLEANS,LA,70114,BRYANT WILLIAMS,CHIEF FINANCIAL OFFICER,5042650207,,BWILLIAMS@COMMONGROUNDCLINIC.ORG,01/17/2020 08:59:20,BRYANT WILLIAMS-CHIEF FINANCIAL OFFICER,LUTHER SPEIGHT & COMPANY CERTIFIED PUBLIC ACCOUNTANTS AND CONSUL,"1700 POYDRAS ST., SUITE 1225",,NEW ORLEANS,LA,70131,"LUTHER C. SPEIGHT, CPA","LUTHER C. SPEIGHT, CPA",5045618600,,LUTHER@SPEIGHTCPA.COM,01/17/2020 16:17:56,,O,,A,N,Y,Y,N,A,750000,N,,1224055,,Y,Y,Y,Y,Y,Y,,93,01/17/2020 00:00:00,01/23/2020 01:30:12,,N,908,1,x93,01/17/2020 00:00:00,,N,BRYANT WILLIAMS,CHIEF FINANCIAL OFFICER,01/17/2020 00:00:00,300156143,Y,,N,Y,,,,,Non-profit,UG,,,,,,01/01/2017 00:00:00,,,,US
1268925,2453082017,2017,245308,12/31/2017 00:00:00,S,A,,N,452210161,,N,969239297,THE BIOMEDICAL RESEARCH INSTITUTE OF SOUTHERN CALIFORNIA,"4225-H OCEANSIDE BLVD, #273",,OCEANSIDE,CA,92056,"SALLY SARAWAR, PH.D.",PRESIDENT,7608032767,,SSARAWAR@BRI-SC.ORG,09/26/2018 17:27:03,"SALLY R. SARAWAR, PH.D.-PRESIDENT AND CEO","MANN  & ASSOCIATES, APC","2535 TRUXTUN ROAD, #205",,SAN DIEGO,CA,92106,JEANNE MANN,PRESDIENT,6192225900,,JEANNEM@MANNCPAS.COM,09/26/2018 17:24:34,,O,,U,N,N,N,N,U,750000,Y,,775368,,N,N,N,N,Y,Y,,93,09/26/2018 00:00:00,09/28/2018 01:30:20,,N,888,1,x00x93,09/26/2018 00:00:00,,N,"SALLY R. SARAWAR, PH.D.",PRESIDENT AND CEO,09/26/2018 00:00:00,464553740,N,,N,N,,,,,Non-profit,UG,,,,,,01/01/2017 00:00:00,,,,
1238569,2424422017,2017,242442,06/30/2017 00:00:00,S,A,,N,455446616,,N,,THE PHILADELPHIA CHARTER SCHOOL FOR ARTS & SCIENCES AT HR EDMUNDS,1197 HAWORTH STREET,,PHILADELPHIA,PA,19124,GERALD SANTILLI,BUSINESS MANAGER,8565051300,,GSANTILLI@S-TMAIL.COM,12/19/2017 11:06:57,GERALD SANTILLI-CONTROLLER,ZELENKOFSKE AXELROD LLC,"2370 YORK ROAD, SUITE A5",,JAMISON,PA,18929,JEFFREY WEISS,PARTNER,2159182277,,JWEISS@ZALLC.ORG,12/19/2017 08:50:02,,O,,U,N,N,N,N,U,750000,Y,,1705802,,N,N,N,N,N,N,,84,12/19/2017 00:00:00,12/21/2017 08:53:56,,N,888,1,x00,12/19/2017 00:00:00,,N,GERALD SANTILLI,CONTROLLER,12/19/2017 00:00:00,233022325,N,,N,N,,,,,Non-Profit,UG,,12/26/2017 11:35:01,01/11/2018 13:16:22,N,G,07/01/2016 00:00:00,,,,
1242970,1865592017,2017,186559,09/30/2017 00:00:00,S,A,,N,251755545,,N,018702493,"BROOKSIDE APARTMENTS, INC.",7 EAST 7TH ST,,ERIE,PA,16501,PAUL BEHNKEN,DIRECTOR OF FINANCE AND ACCOUNTING,8144533333,,PBEHNKEN@HANDS-ERIE.ORG,01/10/2018 12:16:12,PAUL BEHNKEN-DIRECTOR OF FINANCE AND ACCOUNTING,"MCGILL, POWER, BELL & ASSOCIATES, LLP",1920 WEST 8TH ST,,ERIE,PA,16505,SHAWN EMERSON,PARTNER,8144536594,,SEMERSON@MPBCPA.COM,01/10/2018 16:06:37,,O,,U,N,N,N,N,U,750000,Y,,1436245,,N,N,N,N,N,N,,14,01/10/2018 00:00:00,01/11/2018 10:57:04,,N,903,1,x00,01/10/2018 00:00:00,,N,PAUL BEHNKEN,DIRECTOR OF FINANCE AND ACCOUNTING,01/10/2018 00:00:00,251031405,N,,N,N,,,,,Non-profit,UG,,,,,,10/01/2016 00:00:00,,,,
1222221,35552017,2017,3555,02/28/2017 00:00:00,S,A,,N,042578986,,N,166418731,"BERKSHIRE COUNTY HEAD START CHILD DEVELOPMENT PROGRAM, INC.",ONE MEADOW LANE,,PITTSFIELD,MA,01201,DOUGLAS ANZALONE,CFO,4134990028,,DANZALONE@BERKHS.ORG,09/12/2017 14:46:03,STACY PARSONS-EXECUTIVE DIRECTOR,"WHITTLESEY & HADLEY, P.C.",14 BOBALA ROAD,,HOLYOKE,MA,01040,STEVE ERICKSON,CPA,4135363970,,AUDIT@WHCPA.COM,09/13/2017 09:22:09,,O,,U,N,N,N,N,U,750000,Y,,3821272,,N,N,N,N,N,N,,93,09/13/2017 00:00:00,09/14/2017 08:36:36,,N,908,1,x00,09/13/2017 00:00:00,,N,STACY PARSONS,EXECUTIVE DIRECTOR,09/13/2017 00:00:00,060903326,N,,N,N,,,,,Non-profit,UG,,,,,,03/01/2016 00:00:00,,,,
1238606,1446672017,2017,144667,06/30/2017 00:00:00,S,A,,N,426017814,,N,,SAYDEL COMMUNITY SCHOOL DISTRICT,5740 NE 14TH ST,,DES MOINES,IA,50313,RYAN EIDAHL,BUSINESS MANAGER,5152640866,,EIDAHLRYAN@SAYDEL.NET,01/03/2018 12:49:54,RYAN EIDAHL-RYAN EIDAHL,"NOLTE, CORNMAN & JOHNSON P.C.",117 WEST 3RD STREET NORTH,,NEWTON,IA,50208,NANCY JANSSEN,PRESIDENT,6417921910,,,01/03/2018 08:42:40,,O,,U,N,Y,N,N,U,750000,N,,1771935,,N,Y,N,Y,N,N,,84,01/03/2018 00:00:00,01/04/2018 10:23:32,,N,505,1,x00,01/03/2018 00:00:00,,N,RYAN EIDAHL,RYAN EIDAHL,01/03/2018 00:00:00,421255013,Y,,N,N,,,,,Local government,UG,,01/05/2018 15:14:25,01/11/2018 13:16:22,N,G,07/01/2016 00:00:00,,,,
1250537,144082017,2017,14408,06/30/2017 00:00:00,S,A,,N,133629466,,N,806353587,"LATINO COMMISSION ON AIDS, INC.","24 WEST 25TH STREET, 9TH FLOOR",,NEW YORK,NY,10010,MARTHA ACERO,DIRECTOR OF FINANCE,2126753288,,MACERO@LATINOAIDS.ORG,03/14/2018 16:01:49,MARTHA ACERO-DIRECTOR OF FINANCE AND ADMINISTRATION ,"VARGAS & RIVERA, LLP",586 ROUTE 304,,NEW CITY,NY,10956,LUIS RIVERA,PARTNER,8456383113,,LUIS@CPATRUST.COM,03/16/2018 16:19:12,,O,,U,N,N,N,N,U,750000,Y,,1911082,,N,N,N,N,N,N,,93,03/16/2018 00:00:00,03/20/2018 01:30:21,,N,908,1,x00,03/16/2018 00:00:00,,N,MARTHA ACERO,DIRECTOR OF FINANCE AND ADMINISTRATION ,03/16/2018 00:00:00,133747593,N,,N,N,,,,,Non-profit,UG,,,,,,07/01/2016 00:00:00,,,,
1244133,2222352017,2017,222235,09/30/2017 00:00:00,S,A,,N,470716239,,N,,PILGRIM/OEDC DEVELOPMENT CORPORATION 103-EE023-NP-WAH,2221 N 24TH ST,,OMAHA,NE,68110,MIKE SCHULZ,TREASURER,4023462300,,MSCHULZ@OEDC.INFO,01/18/2018 12:06:17,MICHAEL SCHULZ-TREASURER,HAYES & ASSOCIATES LLC,"1015 N 98TH ST, SUITE 200",,OMAHA,NE,68114,BRAD YODER,DIRECTOR,4023902480,,BYODER@HAYES-CPA.COM,01/19/2018 13:04:24,,O,,U,N,N,N,N,U,750000,Y,,1565073,,N,N,N,N,N,N,,14,01/19/2018 00:00:00,01/24/2018 15:01:34,,N,903,1,x00,01/19/2018 00:00:00,,N,MICHAEL SCHULZ,TREASURER,01/19/2018 00:00:00,470716239,N,,N,N,,,,,Non-profit,UG,,,,,,10/01/2016 00:00:00,,,,
1227126,2314102017,2017,231410,06/30/2017 00:00:00,S,A,,N,020550253,,N,188064955,D.C. PREPARATORY ACADEMY,"707 EDGEWOOD STREET, NE",,WASHINGTON,DC,20017,WENDY SCOTT,CHIEF FINANCIAL OFFICER,2026354590,,WSCOTT@DCPREP.ORG,11/01/2017 12:07:59,WENDY SCOTT-CHIEF FINANCIAL OFFICER,"RAFFA, P.C.","1899 L STREET, NW, SUITE 850",,WASHINGTON,DC,20036,KATHY RAFFA,PARTNER,2028225000,,KRAFFA@RAFFA.COM,11/01/2017 15:13:37,,O,,U,N,N,N,N,U,750000,Y,,2777481,,N,N,N,N,N,N,,93,11/01/2017 00:00:00,11/02/2017 12:09:36,,N,905,1,x00,11/01/2017 00:00:00,,N,WENDY SCOTT,CHIEF FINANCIAL OFFICER,11/01/2017 00:00:00,521511275,N,,N,N,,,,,Non-profit,UG,,11/03/2017 09:13:35,11/09/2017 08:25:04,N,G,07/01/2016 00:00:00,,,,
1234290,2182632017,2017,218263,09/30/2017 00:00:00,S,A,,N,800030872,,N,611651287,ALBEMARLE OLDER ADULT HOUSING INC 053-EE128  DBA MATTHEWS PLACE APTS,411 SOUTH FOURTH STREET,,ALBEMARLE,NC,28001,JEANNETTE BRECKENRIDGE,DIRECTOR OF HOUSING SERVICES,2524440718,,JBRECKENRIDGE@UCHAS.ORG,12/18/2017 17:32:11,JEANNETTE BRECKENRIDGE-DIRECTOR OF HOUSING SERVICES,"BERNARD ROBINSON & COMPANY, L.L.P.","1501 HIGHWOODS BLVD., SUITE 300",,GREENSBORO,NC,27410,VICTOR BLACKBURN,PARTNER,3362944494,,VBLACKBURN@BRCCPA.COM,12/19/2017 08:09:43,,O,,U,N,N,N,N,U,750000,Y,,2745394,,N,N,N,N,N,N,,14,12/19/2017 00:00:00,12/20/2017 12:43:32,,N,903,1,x00,12/19/2017 00:00:00,,N,JEANNETTE BRECKENRIDGE,DIRECTOR OF HOUSING SERVICES,12/19/2017 00:00:00,560571159,N,,N,N,,,,,Non-profit,UG,,,,,,10/01/2016 00:00:00,,,,
1249489,2469332017,2017,246933,06/30/2017 00:00:00,S,A,,N,941160952,,N,093088706,BOOKER T. WASHINGTON COMMUNITY SERVICE CENTER,800 PRESIDIO AVENUE,,SAN  FRANCISCO,CA,94115,PATRICIA SCOTT,EXECUTIVE DIRECTOR,4159286596,,PSCOTT@BTWCSC.ORG,03/21/2018 14:05:14,PATRICIA SCOTT-EXECUTIVE DIRECTOR,"TANG & LEE, LLP","1499 BAYSHORE HWY, #223",,BURLINGAME,CA,94010,ALAN S LEE,PARTNER IN CHARGE,6506926865,,ALEE@TANGLEE.COM,03/06/2018 18:34:57,,O,,U,Y,N,N,N,U,750000,N,,2090490,,Y,N,N,Y,N,Y,,14,03/21/2018 00:00:00,03/24/2018 01:30:21,,N,888,1,x00,03/21/2018 00:00:00,,N,PATRICIA SCOTT,EXECUTIVE DIRECTOR,03/21/2018 00:00:00,943406617,N,,Y,Y,,,,,Non-profit,UG,,,,,,07/01/2016 00:00:00,,,,
1240537,1817302017,2017,181730,06/30/2017 00:00:00,S,A,,N,421114635,,N,,FORT DODGE HOUSING AGENCY,700 S 17TH STREET,,FORT DODGE,IA,50501,WENDY HAUGE,CFO,5155737751,,WENDYH@FD-HOUSING.ORG,12/22/2017 13:19:47,WENDY HAUGE-FINANCE DIRECTOR,"WILLIAMS & COMPANY, P.C.",203 N GRAND AVE,,SPENCER,IA,513010908,DANIEL DEKKER,MANAGER,7122621500,,DDEKKER@WILLIAMSCPAS.COM,12/22/2017 16:13:02,,O,,U,Y,N,N,N,U,750000,N,,4405127,,N,N,N,N,N,N,,14,12/22/2017 00:00:00,12/27/2017 09:59:41,,N,203,1,x00,12/22/2017 00:00:00,,N,WENDY HAUGE,FINANCE DIRECTOR,12/22/2017 00:00:00,421377056,N,,Y,N,,,,,Local government,UG,,,,,,07/01/2016 00:00:00,,,,
1257751,1816252017,2017,181625,08/31/2017 00:00:00,S,A,,N,043158741,,N,940302516,NOTRE DAME MISSION VOLUNTEER CORPORATION,5405 LOCH RAVEN BLVD.,,BALTIMORE,MD,21239,ADRIENNE ANDREWS,EXECUTIVE DIRECTOR,4105326864,,AANDREWS@NDMVA.ORG,05/21/2018 13:49:39,ADRIENNE ANDREWS-ADRIENNE ANDREWS,GROSS MENDELSOHN,36 SOUTH CHARLES ST. 18TH FLOOR,,BALTIMORE,MD,21201,"TRICIA THOMAS, CPA",AUDITOR,4106855512,,TTHOMAS@GMA-CPA.COM,05/21/2018 17:24:42,,O,,U,N,N,N,N,U,750000,Y,,4274004,,N,N,N,N,N,N,,94,05/22/2018 00:00:00,05/24/2018 01:30:20,,N,908,1,x00,05/22/2018 00:00:00,,N,ADRIENNE ANDREWS,ADRIENNE ANDREWS,05/22/2018 00:00:00,520982413,N,,N,N,,,,,Non-profit,UG,,,,,,09/01/2016 00:00:00,,,,
1230665,2008662017,2017,200866,06/30/2017 00:00:00,S,A,,N,411696672,,N,800909843,GOODHUE COUNTY EDUCATION DISTRICT #6051-61,395 GUERNSEY LANE,,RED WING,MN,55066,CHERYL JOHNSON,ADMINISTRATIVE DIRECTOR,6513884441,,CJOHNSON@GCED.K12.MN.US,11/08/2017 15:54:24,CHERYL JOHNSON-EXECUTIVE DIRECTOR,"SMITH, SCHAFER & ASSOCIATES, LTD.",519 BUSH STREET,,RED WING,MN,55066,STEVE SALVESON,PRINCIPAL,6513882858,,S.SALVESON@SMITHSCHAFER.COM,11/02/2017 11:38:16,,O,,U,N,N,N,N,U,750000,Y,,1706592,,N,N,N,N,N,N,,84,11/09/2017 00:00:00,11/13/2017 08:33:45,,N,505,1,x00,11/09/2017 00:00:00,,N,CHERYL JOHNSON,EXECUTIVE DIRECTOR,11/09/2017 00:00:00,411489071,N,,N,N,,,,,Local government,UG,,11/13/2017 14:08:52,11/16/2017 07:34:45,N,G,07/01/2016 00:00:00,,,,
1268418,2094882017,2017,209488,12/31/2017 00:00:00,S,A,,N,231632331,,N,,TRI-COUNTY REGIONAL PLANNING COMMISSION,"112 MARKET STREET, 2ND FLOOR",,HARRISBURG,PA,171012015,STEVE DECK,EXECUTIVE DIRECTOR,7172342639,,SDECK@TCRPC-PA.ORG,09/25/2018 10:03:10,STEVE DECK-EXECUTIVE DIRECTOR,ZELENKOFSKE AXELROD LLC,"830 SIR THOMAS COURT, SUITE 100",,HARRISBURG,PA,17109,JEFFREY WEISS,PARTNER,7175619200,,JWEISS@ZALLC.ORG,09/25/2018 09:41:03,,O,,U,N,N,N,N,Q,750000,N,,2341037,,N,Y,N,Y,N,N,,20,09/25/2018 00:00:00,09/27/2018 01:30:21,,N,409,1,x00,09/25/2018 00:00:00,,N,STEVE DECK,EXECUTIVE DIRECTOR,09/25/2018 00:00:00,233022325,N,,N,N,,,,,Local government,UG,,,,,,01/01/2017 00:00:00,,,,
1282410,2477462017,2017,247746,12/31/2017 00:00:00,S,A,,N,272049290,,N,969302475,"LAU HEALTH FOUNDATION, INC.",211 EAST 46TH STREET,,NEW YORK,NY,100171935,CHARLES ABOU RJEILY,TREASURER,2122034333,,CHARLES.ABOURJEILY@LAU.EDU.LB,01/02/2019 12:04:57,CHARLES ABOU RJEILY-TREASURER,ERNST & YOUNG P.C.C.,"STARCO BUILDING, MINA EL HOSN, OMAR DAOUK ST",,"BEIRUT, LEBANON",NY,000000000,NADIM DIMASHKIEH,PARTNER,9611760800,,NADIM.DIMASHKIEH@LB.EY.COM,01/09/2019 07:01:35,,O,,U,N,N,N,N,U,750000,N,,1415000,,N,N,N,N,N,N,,98,01/11/2019 00:00:00,01/15/2019 01:30:20,,N,888,1,x00,12/05/2018 00:00:00,,N,CHARLES ABOU RJEILY,TREASURER,12/05/2018 00:00:00,000000000,N,,N,N,,,,,Non-profit,UG,,,,,,01/01/2017 00:00:00,,,,
1275077,1976812017,2017,197681,06/30/2017 00:00:00,S,B,,N,351098260,,N,050693373,NORTHEAST SCHOOL CORPORATION,406 NORTH VINE STREET,,HYMERA,IN,47855,VIKKI HUNTWORTH,TREASURER,8123835761,,HUNTWORTHV@NESC.K12.IN.US,02/06/2019 09:35:11,MARK BAKER-NESC SUPT,INDIANA STATE BOARD OF ACCOUNTS,"302 WEST WASHINGTON STREET, RM E418",,INDIANAPOLIS,IN,462042765,"PAUL D. JOYCE, CPA",STATE EXAMINER,3172322513,,FEDDATA@SBOA.IN.GOV,02/06/2019 08:50:27,,O,,S,N,N,N,N,U,750000,N,,1847300,,N,Y,N,Y,N,N,,84,02/08/2019 00:00:00,02/12/2019 01:30:39,,N,409,1,x00,02/08/2019 00:00:00,,N,MARK BAKER,NESC SUPT,02/08/2019 00:00:00,356000158,N,,N,N,REGULATORY,N,U,,Local government,UG,,03/15/2019 12:07:25,03/21/2019 09:07:44,,N,07/01/2015 00:00:00,,,,
1269279,1209902017,2017,120990,12/31/2017 00:00:00,S,A,,N,942881684,,N,801852732,ACADEMY OF CHINESE CULTURE AND HEALTH SCIENCES,1600 BROADWAY,,OAKLAND,CA,94612,ANDRES BELLA,ACTING PRESIDENT,5107637787,,ABELLA@ACCHS.EDU,09/27/2018 16:28:24,ANDRES BELLA-ACTING PRESIDENT,WAI S. CHUI,"2950 BUSKIRK AVENUE, STE 120",,WALNUT CREEK,CA,94597,COLIN CHUI,CPA,9252835631,,TAXCOACH@ONEBOX.COM,09/28/2018 12:46:09,,O,,U,Y,N,N,N,U,750000,N,,1743614,,N,N,N,N,Y,Y,,84,09/28/2018 00:00:00,10/03/2018 01:30:21,,N,904,1,x84x00,09/28/2018 00:00:00,,N,ANDRES BELLA,ACTING PRESIDENT,09/28/2018 00:00:00,800037699,N,,Y,N,,,,,Institution of higher education (IHE),UG,03288300,10/09/2018 08:44:57,10/11/2018 10:37:17,N,S,01/01/2017 00:00:00,,,,
1250680,2008852017,2017,200885,06/30/2017 00:00:00,S,A,,N,730775127,,N,028655082,CALERA S.D. NO. I-48,308 W. SMISER,,CALERA,OK,74730,GERALD PARKS,SUPERINTENDENT,5804345700,,GPARKS@CALERAISD.K12.OK.US,03/26/2018 10:34:58,GERALD PARKS-GERALD PARKS,"KERRY JOHN PATTEN, CPA",2101 N. WILLOW AVE.,,BROKEN ARROW,OK,74012,KERRY PATTEN,OWNER,9182508838,,KERRY.PATTEN@PATTENCPA.NET,03/15/2018 15:22:00,,O,,S,N,N,N,N,U,750000,N,,753651,,N,N,N,N,N,Y,,84,03/26/2018 00:00:00,03/28/2018 01:30:21,,N,505,1,x00,03/26/2018 00:00:00,,N,GERALD PARKS,GERALD PARKS,03/26/2018 00:00:00,731408273,N,,N,N,REGULATORY,N,Q,,Local government,UG,,04/18/2018 09:56:30,04/19/2018 10:29:50,N,G,07/01/2016 00:00:00,,,,
1227247,2401162017,2017,240116,06/30/2017 00:00:00,S,A,,N,274254947,,N,,SYLVAN PLACE  171-HD024,2207 E FRANCES,,SPOKANE,WA,99208,JEFF THOMAS,PRESIDENT,5038384651,,JTHOMAS@FBHWA.ORG,09/29/2017 17:27:59,JEFF THOMAS-PRESIDENT,BJORLKUND & MONTPLAISIR,9020 SW WASHINGTON SQUARE RD SUITE 460,,PORTLAND,OR,97223,RONALD MONTPLAISIR,PARTNER,5036436400,,MISTY@BANDMCPA.COM,09/29/2017 17:47:46,,O,,U,N,N,N,N,U,750000,Y,,2138538,,N,N,N,N,N,N,,14,09/29/2017 00:00:00,10/03/2017 09:09:46,,N,888,1,x00,09/29/2017 00:00:00,,N,JEFF THOMAS,PRESIDENT,09/29/2017 00:00:00,931015766,N,,N,N,,,,,Non-profit,UG,,,,,,07/01/2016 00:00:00,,,,
1253397,165862017,2017,16586,06/30/2017 00:00:00,S,A,,N,136213532,,N,,"EAST HARLEM COUNCIL FOR HUMAN SERVICES, INC.",2265 3RD AVENUE,,NEW YORK,NY,10035,ARTURO PEREZ,CFO,2122896650,,APEREZ@BORIKEN.ORG,03/29/2018 15:58:19,ART PEREZ-CFO,PADILLA AND COMPANY LLP,"175-61 HILLSIDE AVENUE, SUITE 200",,JAMAICA,NY,11432,CZAR VALLEJERA,PARTNER,7185585858,,CVALLEJERA@PADILLACPA.COM,03/29/2018 15:53:55,,O,,U,N,N,N,N,U,750000,Y,,7274922,,N,N,N,N,N,N,,93,03/29/2018 00:00:00,04/03/2018 01:30:21,,N,908,1,x00,03/29/2018 00:00:00,,N,ART PEREZ,CFO,03/29/2018 00:00:00,113287732,N,,N,N,,,,,Non-profit,UG,,,,,,07/01/2016 00:00:00,,,,
1262813,1850952017,2017,185095,12/31/2017 00:00:00,S,A,,N,582002765,,N,175957039,"MATURE LIVING OF LEACHVILLE, INC. - 082-EE013-NP-L8",8101 INTERSTATE 30,,LITTLE ROCK,AR,72209,ZACH SCHULTZ,MANAGEMENT COMPANY BOOKKEPER,5012800037,,ZSCHULTZ@INTREPIDINC.NET,08/23/2018 12:32:35,ZAC SCHULTZ-ACCOUNT REPRESENTATVIE,FLEET FIRM,759 TEALWOOD LANE,,CORDOVA,TN,38018,NELSON FLEET,CPA,9013364602,,NFLEET@FLEETFIRM.COM,10/26/2018 14:12:08,,O,,U,N,N,N,N,U,750000,N,,803688,,N,N,N,N,N,N,,14,12/07/2018 00:00:00,12/11/2018 01:30:20,,N,909,1,x00,12/07/2018 00:00:00,,N,ZAC SCHULTZ,ACCOUNT REPRESENTATVIE,12/07/2018 00:00:00,681868414,N,,N,N,,,,,Non-profit,UG,,,,,,01/01/2017 00:00:00,,,,
1231170,2231042017,2017,223104,06/30/2017 00:00:00,S,A,,N,030482006,,N,147350479,"AVE MARIA UNIVERSITY, INC.AND SUBSIDIARY",5050 AVE MARIA BLVD,,AVE MARIA,FL,341429505,ROBERT FARNHAM,"VICE PRESIDENT, FINANCE & ADMINISTRATION",2393047190,,ROBERT.FARNHAM@AVEMARIA.EDU,11/07/2017 15:21:59,ROBERT FARNHAM-VICE PRESIDENT - FINANCE,"HILL, BARTH & KING LLC","3838 TAMIAMI TRAIL NORTH, SUITE 200",,NAPLES,FL,34103,CHRISTOPHER MARRIE,PRINCIPAL,2392632111,,CMARRIE@HBKCPA.COM,10/31/2017 12:49:57,,O,,U,N,N,N,N,U,750000,Y,,6182467,,N,N,N,N,N,N,,84,11/07/2017 00:00:00,11/08/2017 13:13:22,,N,904,1,x00,11/07/2017 00:00:00,,N,ROBERT FARNHAM,VICE PRESIDENT - FINANCE,11/07/2017 00:00:00,341897225,N,,N,N,,,,,Institution of higher education (IHE),UG,,11/08/2017 14:50:11,11/09/2017 08:25:04,N,S,07/01/2016 00:00:00,,,,
1238548,1644362017,2017,164436,06/30/2017 00:00:00,S,A,,N,346401388,,N,049574855,SYLVANIA CITY SCHOOL DISTRICT,4747 NORTH HOLLAND-SYLVANIA ROAD,,SYLVANIA,OH,43560,LISA SHANKS,TREASURER,4198248520,,LSHANKS@SYLVANIASCHOOLS.ORG,01/11/2018 14:56:54,LISA SHANKS-TREASURER,"DAVE YOST, AUDITOR OF STATE",88 EAST BROAD STREET,,COLUMBUS,OH,432153506,"STEPHEN D. FLICKINGER, CPA",CHIEF AUDITOR,4192452811,,DCF-NORTHWEST@OHIOAUDITOR.GOV,01/02/2018 14:50:37,,O,,U,N,N,N,N,U,750000,Y,,4363011,,N,N,N,N,N,N,,84,01/11/2018 00:00:00,01/17/2018 09:48:39,,N,505,1,x00,01/11/2018 00:00:00,,N,LISA SHANKS,TREASURER,01/11/2018 00:00:00,311334820,N,,N,N,,,,,Local government,UG,,01/29/2018 14:34:18,02/01/2018 07:50:21,N,G,07/01/2016 00:00:00,,,,
1250797,2458222017,2017,245822,12/31/2017 00:00:00,S,A,,N,201885811,,N,792890845,"FOREST RIDGE MANOR, INC. 087-EE053",1252 BLOOMINGDALE PIKE,,KINGSPORT,TN,37660,ELIZABETH KING,HOUSING ACCOUNTING SUPPORT SUPERVISOR,6144512151,,NCRAUDITTEAM@NATIONALCHURCHRESIDENCES.ORG,03/27/2018 10:43:39,"JULIE FRATIANNE-VICE PRESIDENT, HOUSING ACCOUNTING","TIDWELL GROUP, LLC","4249 EASTON WAY, SUITE 210",,COLUMBUS,OH,43219,"ANDREW GANTZER, CPA",PRINCIPAL,6145994022,,ANDY.GANTZER@TIDWELLGROUP.COM,03/26/2018 08:51:40,,O,,U,N,N,N,N,U,750000,Y,,3380244,,N,N,N,N,N,N,,14,03/27/2018 00:00:00,03/29/2018 01:30:20,,N,888,1,x00,03/27/2018 00:00:00,,N,JULIE FRATIANNE,"VICE PRESIDENT, HOUSING ACCOUNTING",03/27/2018 00:00:00,271490692,N,,N,N,,,,,Non-profit,UG,,,,,,01/01/2017 00:00:00,,,,
1244914,1336262017,2017,133626,06/30/2017 00:00:00,S,A,,N,942317114,,N,,EL DORADO UNION HIGH SCHOOL DISTRICT,4675 MISSOURI FLAT ROAD,,PLACERVILLE,CA,95667,BALDEV JOHAL,ASSOCIATE SUPERINTENDENT BUSINESS SERVIC,5306225081,,BJOHAL@EDUHSD.K12.CA.US,01/29/2018 12:20:47,BALDEV JOHAL-ASSOCIATE SUPERINTENDENT OF BUSINESS SERVICES,CROWE HORWATH LLP,"400 CAPITOL MALL, SUITE 1400",,SACRAMENTO,CA,95814,MATT NETHAWAY,PARTNER,9164411000,,MATT.NETHAWAY@CROWEHORWATH.COM,01/29/2018 14:44:45,,O,,U,N,N,N,N,U,750000,Y,,2504342,,N,N,N,N,N,N,,84,01/29/2018 00:00:00,01/30/2018 10:49:12,,N,505,1,x00,01/29/2018 00:00:00,,N,BALDEV JOHAL,ASSOCIATE SUPERINTENDENT OF BUSINESS SERVICES,01/29/2018 00:00:00,350921680,N,,N,N,,,,,State,UG,,02/14/2018 08:40:34,02/15/2018 08:27:20,N,G,07/01/2016 00:00:00,,,,
1264298,1016472017,2017,101647,12/31/2017 00:00:00,S,A,,N,741547195,,N,097052021,"HILL COUNTRY COMMUNITY ACTION ASSOCIATION, INC. SUB & RELATED ENTITY",2905 W WALLACE ST,,SAN SABA,TX,76877,TAMA SHAW,CEO,3253725467,,TSHAW@HCCAA.COM,08/17/2018 12:02:46,FRANCES LITTLE-CFO,"SAUNDERS & ASSOCIATES, PLLC",PO BOX 1406,,ADA,OK,748211406,G. B. SAUNDERS,MANAGING MEMBER,5803328548,,GSAUNDERS@SAUNDERSCPAS.COM,08/09/2018 15:50:18,,O,,U,N,N,N,N,U,750000,N,,10119044,,N,N,N,N,N,N,,93,08/17/2018 00:00:00,08/21/2018 01:30:20,,N,908,1,x00,08/17/2018 00:00:00,,N,FRANCES LITTLE,CFO,08/17/2018 00:00:00,208209116,N,,N,N,,,,,Non-profit,UG,,,,,,01/01/2017 00:00:00,,,,
1244196,2467662017,2017,246766,06/30/2017 00:00:00,S,A,,N,264150878,,N,,"LCIP III, INC. 034-HD100","112 N. 8TH STREET, SUITE 600",,PHILADELPHIA,PA,19107,GLENN SEAGRAVES,CFO,2156342000,,GLENNSEAGRAVES@LIBERTYRESOURCES.ORG,01/23/2018 16:52:00,GLENN SEAGRAVES-CHIEF FINANCIAL OFFICER,"HAEFELE, FLANAGAN & CO., P.C.","1000 S. LENOLA ROAD, BLDG 2, SUITE 200",,MAPLE SHADE,NJ,08052,MARY LYNCH,"CPA, CFE",8567225300,,MARY.LYNCH@HFCO.COM,01/24/2018 15:18:46,,O,,U,Y,N,N,N,U,750000,N,,2919525,,N,N,N,Y,Y,N,,14,01/24/2018 00:00:00,01/25/2018 17:14:20,,N,888,1,x14,01/24/2018 00:00:00,,N,GLENN SEAGRAVES,CHIEF FINANCIAL OFFICER,01/24/2018 00:00:00,223008776,N,,Y,N,,,,,Non-profit,UG,,,,,,07/01/2016 00:00:00,,,,
1234191,1690112017,2017,169011,03/31/2017 00:00:00,S,A,,N,256001764,,N,092265453,HOUSING AUTHORITY OF THE CITY OF ERIE ,606 HOLLAND STREET ,,ERIE ,PA,16501,CHUCK LEPO,CONTROLLER,8144524970,,CLEPO@HACE.ORG,12/22/2017 15:24:14,CHARLES J. LEPO-CONTROLLER,CLIFTONLARSONALLEN LLP,"1966 GREENSPRING DRIVE, SUITE 300",,TIMONIUM ,MD,21093,MANDY MERCHANT ,PRINCIPAL ,4104530900,,MANDY.MERCHANT@CLACONNECT.COM,12/22/2017 14:58:05,,O,,U,N,N,N,N,U,750000,N,,14456439,,N,Y,N,Y,Y,N,,14,12/22/2017 00:00:00,12/27/2017 08:49:33,,N,403,1,x14,12/22/2017 00:00:00,,N,CHARLES J. LEPO,CONTROLLER,12/22/2017 00:00:00,252144468,N,,N,N,,,,,Local government,UG,,,,,,04/01/2016 00:00:00,,,,
1254038,90532017,2017,9053,06/30/2017 00:00:00,S,A,,N,112305641,,N,930568161,"FRIENDS OF CROWN HEIGHTS EDUCATIONAL CENTERS, INC.",671 PROSPECT PLACE,,BROOKLYN,NY,112163508,LIGAYA DECASTRO,CFP,7186388686,,LDECASTRO@FOCH.BIZ,04/02/2018 12:20:28,LIGAYA DECASTRO-FISCAL OFFICER,"BARRY POPICK, CPA",2048 WILLIAMSBRIDGE ROAD,,BRONX,NY,10461,BARRY POPICK,CPA,7325478437,,BPOPICKCPA@GMAIL.COM,03/31/2018 10:26:10,,O,,U,N,N,N,N,U,750000,Y,,8348911,,N,N,N,N,N,Y,,10,04/02/2018 00:00:00,04/07/2018 01:30:21,,N,908,1,x00,04/02/2018 00:00:00,,N,LIGAYA DECASTRO,FISCAL OFFICER,04/02/2018 00:00:00,300450677,N,,N,N,,,,,Non-profit,UG,,,,,,06/01/2016 00:00:00,,,,
1261253,1995942017,2017,199594,09/30/2017 00:00:00,S,A,,N,646000394,,N,067723437,"CITY OF GREENVILLE, MISSISSIPPI",P. O. BOX 897,,GREENVILLE,MS,387020897,AMELIA D. WICKS,CITY CLERK,6623781551,,AWICKS@GREENVILLEMS.ORG,06/28/2018 10:21:51,AMELIA D. WICKS-CITY CLERK,"BRIDGERS, GOODMAN & ALDRIDGE, PLLC",3528 MANOR DRIVE,,VICKSBURG,MS,39180,KARL GOODMAN,PARTNER,6016361416,,GOODMAN_KARL@YAHOO.COM,06/27/2018 16:52:02,,O,,U,N,N,N,N,U,750000,N,,2595163,,N,N,N,N,N,N,,20,06/28/2018 00:00:00,06/30/2018 01:30:21,,N,200,1,x00,06/28/2018 00:00:00,,N,AMELIA D. WICKS,CITY CLERK,06/28/2018 00:00:00,461624424,N,,N,N,,,,,Local government,UG,,,,,,10/01/2016 00:00:00,,,,
1236437,2026792017,2017,202679,03/31/2017 00:00:00,S,A,,N,756001822,,N,050911049,HOUSING AUTHORITY OF THE CITY OF WICHITA FALLS,P.O. BOX 544,,WICHITA FALLS,TX,76307,DONNA PIPER,EXECUTIVE DIRECTOR,9407238389,,DONNAP@WFHA.COM,12/05/2017 14:27:57,DONNA PIPER-EXECUTIVE DIRECTOR,HENDERSON & DEJOHN LLC,"200 CHASE PARK SOUTH, SUITE 220",,BIRMINGHAM,AL,35244,ROY W HENDERSON JR,MEMBER,2059820992,,RHENDERSON@HENDERSONCPA.COM,12/05/2017 14:08:36,,O,,U,N,N,N,N,U,750000,Y,,3856109,,N,N,N,N,N,N,,14,12/05/2017 00:00:00,12/06/2017 11:45:56,,N,403,1,x00,12/05/2017 00:00:00,,N,DONNA PIPER,EXECUTIVE DIRECTOR,12/05/2017 00:00:00,263957106,N,,N,N,,,,,Local government,UG,,,,,,04/01/2016 00:00:00,,,,
1250247,1294872017,2017,129487,06/30/2017 00:00:00,S,A,,N,636001906,,N,168003390,RUSSELLVILLE HOUSING AUTHORITY INCORPORATED,P.O. BOX 966,,RUSSELLVILLE,AL,35653,DEBORAH FREEMAN,EXECUTIVE DIRECTOR,2563321561,,RHA@HIWAAY.NET,03/12/2018 17:01:10,DEBORAH FREEMAN-EXECUTIVE DIRECTOR,HENDERSON & DEJOHN LLC,"200 CHASE PARK SOUTH, SUITE 220",,BIRMINGHAM,AL,35244,ROY W HENDERSON JR,MEMBER,2059820992,,RHENDERSON@HENDERSONCPA.COM,03/12/2018 16:01:37,,O,,U,N,N,N,N,U,750000,Y,,1008796,,N,N,N,N,N,N,,14,03/12/2018 00:00:00,03/13/2018 10:57:23,,N,403,1,x00,03/12/2018 00:00:00,,N,DEBORAH FREEMAN,EXECUTIVE DIRECTOR,03/12/2018 00:00:00,263957106,N,,N,N,,,,,Local government,UG,,,,,,07/01/2016 00:00:00,,,,
1254353,2394782017,2017,239478,12/31/2017 00:00:00,S,A,,N,141936504,,N,,"FRIENDLY TEMPLE APARTMENTS II, INC #085-EE084-NP-WAH-PRAC",6633 DELMAR BLVD,,ST LOUIS,MO,63130,DAVID KUJUNDZIC,FINANCIAL ANALYST,3147260111,,DKUJUNDZIC@STANDREWS1.COM,04/04/2018 08:14:56,DAVID KUJUNDZIC-FINANCIAL ANALYST,"PETTIT & COMPANY, LLC","435 EAST MAIN STREET, SUITE 195",,GREENWOOD,IN,46143,JOH PETTIT,DIRECTOR,3177438120,,JPETTIT@PETTITANDCOMPANY.COM,04/03/2018 10:29:21,,O,,U,N,N,N,N,U,750000,Y,,5715592,,N,N,N,N,N,N,,14,04/04/2018 00:00:00,04/11/2018 01:30:21,,N,888,1,x00,04/04/2018 00:00:00,,N,DAVID KUJUNDZIC,FINANCIAL ANALYST,04/04/2018 00:00:00,465446838,N,,N,N,,,,,Non-profit,UG,,,,,,01/01/2017 00:00:00,,,,
1227489,2160292017,2017,216029,06/30/2017 00:00:00,S,A,,N,133985586,,N,,"NYSD FORSYTH HOUSING DEVELOPMENT FUND COMPANY, INC. 012-HD042",184 FORSYTH STREET,,NEW YORK,NY,10002,MICHAEL KIRSHNER,CONTROLLER,2123668476,,MKIRSHNER@FEGS.ORG,10/02/2017 11:05:59,"MICHAEL KIRSHNER-CONTROLLER/VP FINANCE, SPONSOR CORP.",CARTER & COMPANY CPA LLC,543 HARBOR BLVD SUITE 201,,DESTIN,FL,32541,DAVID BELL,AUDIT PARTNER,8506500125,,DAVID@CARTERCPA.NET,10/02/2017 13:51:14,,O,,U,N,N,N,N,U,750000,Y,,2453556,,N,N,N,N,N,N,,14,10/02/2017 00:00:00,10/03/2017 13:23:05,,N,903,1,x00,10/02/2017 00:00:00,,N,MICHAEL KIRSHNER,"CONTROLLER/VP FINANCE, SPONSOR CORP.",10/02/2017 00:00:00,582646754,N,,N,N,,,,,Non-profit,UG,,,,,,07/01/2016 00:00:00,,,,
1252083,813552017,2017,81355,06/30/2017 00:00:00,S,A,,N,560530235,,N,075584102,"THE SHAW UNIVERSITY, INC.",118 E. SOUTH STREET,,RALEIGH,NC,27601,GWENDOLYN M. KEA,VP FOR FINANCE & ADMINISTRATION/CFO,9195468223,,GKEA@SHAWU.EDU,03/27/2018 16:33:09,GWENDOLYN M KEA-CFO,"BDO USA, LLP","421 FAYETTEVILLE STREET, SUITE 300",,RALEIGH,NC,27601,BILLY HAMPTON,ASSURANCE PARTNER,9192781919,,BHAMPTON@BDO.COM,03/27/2018 09:49:18,,O,,U,Y,N,N,N,U,750000,N,,31997337,,Y,N,Y,Y,Y,N,,84,03/27/2018 00:00:00,03/29/2018 01:30:20,,N,904,1,x84,03/27/2018 00:00:00,,N,GWENDOLYN M KEA,CFO,03/27/2018 00:00:00,135381590,N,,Y,Y,,,,,Institution of higher education (IHE),UG,00296200,04/20/2018 15:21:39,04/26/2018 09:53:52,B,B,07/01/2016 00:00:00,,,,
1230557,1417582017,2017,141758,06/30/2017 00:00:00,S,A,,N,370900329,,N,092586502,OLYMPIA COMMUNITY UNIT SCHOOL DISTRICT NO. 16,903 E. 800 NORTH ROAD,,STANFORD,IL,61774,DR. ANDREW WISE,SUPERINTENDENT,3093796011,,ANDREW.WISE@OLYMPIA.ORG,11/06/2017 13:59:38,ANDREW WISE-SUPERINTENDENT,"GORENZ AND ASSOCIATES, LTD.","4200 N, KNOXVILLE AVE.",,PEORIA,IL,61614,"THOMAS R. PEFFER, CPA",PARTNER,3096857621,,TPEFFER@GORENZCPA.COM,10/27/2017 08:44:24,,O,,S,N,N,N,N,U,750000,N,,1221968,,N,N,Y,Y,N,N,,84,11/06/2017 00:00:00,11/07/2017 12:13:49,,N,505,1,x00,11/06/2017 00:00:00,,N,ANDREW WISE,SUPERINTENDENT,11/06/2017 00:00:00,371017405,N,,N,N,REGULATORY,N,U,,Local government,UG,,11/07/2017 12:25:12,11/09/2017 08:25:04,,N,07/01/2016 00:00:00,,,,
1268914,1930632017,2017,193063,12/31/2017 00:00:00,S,A,,N,480912446,,N,608933693,"SOS, INC.",PO BOX 1191,,EMPORIA,KS,66801,THERESA HAYES,CPA,6202424568,,THERESA.HAYESCPA@GMAIL.COM,09/26/2018 16:28:39,THERESA HAYES-FISCAL MANAGER,"VARNEY & ASSOCIATES, CPAS, LLC",120 N JULIETTE,,MANHATTAN,KS,66502,APRIL G SWARTZ,CPA,7855372202,,ASWARTZ@VARNEY.COM,09/26/2018 16:26:02,,O,,U,N,N,N,N,U,750000,Y,,831268,,N,N,N,N,N,N,,16,09/26/2018 00:00:00,09/28/2018 01:30:20,,N,908,1,x00,09/26/2018 00:00:00,,N,THERESA HAYES,FISCAL MANAGER,09/26/2018 00:00:00,300038643,N,,N,N,,,,,Non-profit,UG,,,,,,01/01/2017 00:00:00,,,,
1255894,1840202017,2017,184020,12/31/2017 00:00:00,S,A,,N,731268215,,N,798753850,"205 CORPORATION, INC. DBA ANGEL'S ACRES  117-EH046",205 NORTH PARK AVENUE,,SHAWNEE,OK,74801,"WESTCHESTER REALTY & MANAGEMENT, LLC",MANAGEMENT AGENT,4052753855,,RICKEYGOWIN@SBCGLOBAL.NET,05/10/2018 14:57:38,RICK GOWIN-MANAGING AGENT,"JOHN FLUSCHE, CPA",6851 S CANTON,,TULSA,OK,74136,JOHN FLUSCHE,CPA,9184888753,,CPA@OKLAHOMA.NET,05/17/2018 13:48:16,,O,,U,N,N,N,N,U,750000,N,,1203608,,N,N,N,N,Y,N,,14,05/17/2018 00:00:00,05/19/2018 01:30:21,,N,903,1,x14x00,05/17/2018 00:00:00,,N,RICK GOWIN,MANAGING AGENT,05/17/2018 00:00:00,731513650,N,,N,N,,,,,Non-profit,UG,,,,,,01/01/2017 00:00:00,,,,
1250243,1295652017,2017,129565,06/30/2017 00:00:00,S,A,,N,636004718,,N,026505052,GUNTERSVILLE HOUSING AUTHORITY,P.O. BOX 4,,GUNTERSVILLE,AL,35976,WAYNE BRYANT,EXECUTIVE DIRECTOR,2565824331,,WAYNEBRYANT@CHARTER.NET,03/13/2018 10:37:16,WAYNE BRYANT-EXECUTIVE DIRECTOR,HENDERSON & DEJOHN LLC,"200 CHASE PARK SOUTH, SUITE 220",,BIRMINGHAM,AL,35244,ROY W HENDERSON JR,MEMBER,2059820992,,RHENDERSON@HENDERSONCPA.COM,03/13/2018 09:33:28,,O,,U,N,N,N,N,U,750000,Y,,1812056,,N,N,N,N,N,N,,14,03/13/2018 00:00:00,03/14/2018 08:53:15,,N,403,1,x00,03/13/2018 00:00:00,,N,WAYNE BRYANT,EXECUTIVE DIRECTOR,03/13/2018 00:00:00,263957106,N,,N,N,,,,,Local government,UG,,,,,,07/01/2016 00:00:00,,,,
1244467,1305562017,2017,130556,06/30/2017 00:00:00,S,A,,N,860825233,,N,020690392,YUMA UNION HIGH SCHOOL DISTRICT NO. 70,3150 SOUTH AVE A,,YUMA,AZ,85364,DIANNE CORDERY,CHIEF FINANCIAL OFFICER,9285024611,,DCORDERY@YUMAUNION.ORG,03/12/2018 11:45:23,DIANNE CORDERY-DIANNE CORDERY,"HEINFELD, MEECH & CO., P.C.",3033 N. CENTRAL AVE. SUITE 300,,PHOENIX,AZ,85012,"JENNIFER L. SHIELDS, CPA, CGFM",PARTNER,6022779449,,JENNIFER.SHIELDS@HEINFELDMEECH.COM,03/12/2018 12:29:59,,O,,U,Y,Y,N,N,U,750000,N,,13452467,,Y,N,N,Y,N,N,,84,03/12/2018 00:00:00,03/13/2018 09:27:49,,N,505,1,x00,03/12/2018 00:00:00,,N,DIANNE CORDERY,DIANNE CORDERY,03/12/2018 00:00:00,860558065,Y,,Y,Y,,,,,Local government,UG,,03/30/2018 14:22:30,04/05/2018 07:30:01,G,G,07/01/2016 00:00:00,,,,
1229089,1982162017,2017,198216,06/30/2017 00:00:00,S,A,,N,943162074,,N,929814010,RVM MYRTLE CREEK HOUSING CORPORATION VALLEY VIEW RETIREMENT 126-EE002,100 CORDELIA DRIVE,,MYRTLE CREEK,OR,97457,SHERI LOYA,VP OF ACCOUNTING,5418577644,,SLOYA@RETIREMENT.ORG,10/20/2017 12:38:04,SHERI LOYA-VP OF ACCOUNTING,HANSEN HUNTER & CO. P.C.,8930 SW GEMINI DRIVE,,BEAVERTON,OR,97008,LOUIS MCCOLLUM,SHAREHOLDER,5032442134,,LMCCOLLUM@HHC-CPA.COM,10/24/2017 20:51:05,,O,,U,N,N,N,N,U,750000,Y,,1914331,,N,N,N,N,N,N,,14,10/24/2017 00:00:00,10/25/2017 11:28:21,,N,903,1,x00,10/24/2017 00:00:00,,N,SHERI LOYA,VP OF ACCOUNTING,10/24/2017 00:00:00,930891763,N,,N,N,,,,,Non-profit,UG,,,,,,07/01/2016 00:00:00,,,,
1236530,2184572017,2017,218457,09/30/2017 00:00:00,S,A,,N,912158413,,N,195013581,"SAN LEANDRO SENIOR HOUSING, INC. DBA BROADMOOR PLAZA 121-EE131","6120 STONERIDGE MALL ROAD, 1ST FLOOR",,PLEASANTON,CA,94588,RONALD CHAN,LEAD SENIOR ACCOUNTANT,9259247192,,RONALD.CHAN@HUMANGOOD.ORG,01/16/2018 16:05:31,ANDREW J. MCDONALD-VICE PRESIDENT OF FINANCE,"DAUBY O'CONNOR & ZALESKI, LLC","501 CONGRESSIONAL BLVD., SUITE 300",,CARMEL,IN,46032,KENNETH DENNISON,MEMBER,3178485700,,KDENNISON@DOZ.NET,01/16/2018 16:11:50,,O,,U,N,N,N,N,U,750000,Y,,7466686,,N,N,N,N,N,N,,14,01/16/2018 00:00:00,01/19/2018 09:47:48,,N,908,1,x00,01/16/2018 00:00:00,,N,ANDREW J. MCDONALD,VICE PRESIDENT OF FINANCE,01/16/2018 00:00:00,351750664,N,,N,N,,,,,Non-profit,UG,,,,,,10/01/2016 00:00:00,,,,
1268219,2125812017,2017,212581,12/31/2017 00:00:00,S,A,,N,251258786,,N,019362425,JOHNSONBURG MUNICIPAL AUTHORITY,601 MARKET STREET,,JOHNSONBURG,PA,15845,LISA SORG,MANAGER,8149654218,,JMAMANAGER@WINDSTREAM.NET,09/27/2018 16:41:04,LISA SORG-MANAGER/ENGINEER,MCKEEVER VARGA & SENKO,"1910 COCHRAN ROAD, MANOR OAK TWO, SUITE 500",,PITTSBURGH,PA,15220,JOHN SOMMERS,"PARTNER, CPA",4125312990,,JSOMMERS@MVS-CPA.COM,09/27/2018 15:50:06,,O,,U,Y,Y,N,N,U,750000,N,,824906,,Y,Y,N,Y,N,N,,10,09/28/2018 00:00:00,10/02/2018 01:30:20,,N,409,1,x00x10,09/28/2018 00:00:00,,N,LISA SORG,MANAGER/ENGINEER,09/28/2018 00:00:00,251347163,Y,,Y,Y,,,,,Local government,UG,,,,,,01/01/2017 00:00:00,,,,
1260569,2224492017,2017,222449,12/31/2017 00:00:00,S,A,,N,133844619,,N,849505409,BETHEL SPRINGVALE NURSING HOME .012-43154   BETHEL NURSING & REHAB.,67 SPRINGVALE RD,,CROTON ON HUDSON,NY,105201343,ANASTASIOS.MARKOPOULOS@BETHELWELL.ORG,CHIEF FINANCIAL OFFICER,9147398511,,ANASTASIOS.MARKOPOULOS@BETHELWELL.ORG,06/25/2018 14:01:48,ANASTASIOS MARKOPOULOS-CFO,"HMM, CPAS LLP",527 TOWNLINE RD,,HAUPPAUGE,NY,117882833,JOSEPH MARTELLO,PARTNER,6312656289,,JMARTELLO@HORANMM.COM,06/25/2018 09:16:18,,O,,U,N,N,Y,Y,U,750000,N,,12012632,,N,Y,N,Y,Y,Y,,14,06/25/2018 00:00:00,06/27/2018 01:30:21,,N,908,1,x14,06/25/2018 00:00:00,,N,ANASTASIOS MARKOPOULOS,CFO,06/25/2018 00:00:00,465416249,N,,N,N,,,,,Non-profit,UG,,,,,,01/01/2017 00:00:00,,,,
1239645,1339732017,2017,133973,06/30/2017 00:00:00,S,A,,N,770572128,,N,,WEAVER UNION SCHOOL DISTRICT,3076 E CHILDS AVENUE,,MERCED,CA,95341,LINDA BARBOUR,CHIEF BUSINESS OFFICIAL,2097257133,,LBARBOUR@WEAVERUSD.ORG,12/20/2017 12:47:36,LINDA BARBOUR-CBO,"VAVRINEK, TRINE, DAY & CO., LLP","6051 N FRESNO STREET, SUITE 101",,FRESNO,CA,93727,BILL WILLIAMS,PARTNER,5592430871,,BWILLIAMS@VTDCPA.COM,12/20/2017 11:26:04,,O,,U,N,N,N,N,U,750000,Y,,3960252,,N,N,N,N,N,N,,84,12/20/2017 00:00:00,12/21/2017 17:06:32,,N,505,1,x00,12/20/2017 00:00:00,,N,LINDA BARBOUR,CBO,12/20/2017 00:00:00,952648289,N,,N,N,,,,,State,UG,,12/27/2017 14:00:27,01/11/2018 13:16:22,N,G,07/01/2016 00:00:00,,,,
1260759,1866292017,2017,186629,12/31/2017 00:00:00,S,A,,N,846000587,,N,078362597,"CITY OF FORT COLLINS, COLORADO",215 NORTH MASON STREET,,FORT COLLINS,CO,80522,TRAVIS STORIN,ACCOUNTING DIRECTOR,9702216872,,TSTORIN@FCGOV.COM,06/27/2018 13:18:28,TRAVIS STORIN-ACCOUNTING DIRECTOR,RSM US LLP,"4801 MAIN STREET, SUITE 3000",,KANSAS CITY,MO,64112,KEVIN SMITH,PARTNER,8167514027,,KEVIN.SMITH@RSMUS.COM,06/27/2018 14:35:08,,O,,U,N,N,N,N,U,750000,Y,,10786230,,N,N,N,N,N,N,,20,06/27/2018 00:00:00,06/29/2018 01:30:20,,N,200,1,x00,06/27/2018 00:00:00,,N,TRAVIS STORIN,ACCOUNTING DIRECTOR,06/27/2018 00:00:00,420714325,N,,N,N,,,,,Local Government,UG,,,,,,01/01/2017 00:00:00,,,,
1256760,2032052017,2017,203205,12/31/2017 00:00:00,S,A,,N,391286261,,N,016904682,"AGING AND DISABILITY RESOURCE CENTER OF BROWN COUNTY, INC.",300 S ADAMS ST,,GREEN BAY,WI,54301,DEBRA BOWERS,ACCOUNTANT,9204484313,,BOWERS_DL@CO.BROWN.WI.US,01/18/2019 15:50:45,DEBRA BOWERS-FINANCE COORDINATOR,SCHENCK SC,2200 RIVERSIDE DR,,GREEN BAY,WI,543053819,"DAVID MACCOUX, CPA",SHAREHOLDER,9204554114,,DAVID.MACCOUX@SCHENCKSC.COM,01/18/2019 16:05:46,,O,,U,N,N,N,N,U,750000,Y,,2258939,,N,N,N,N,N,N,,93,01/18/2019 00:00:00,01/23/2019 01:30:20,,N,908,1,x00,01/18/2019 00:00:00,,N,DEBRA BOWERS,FINANCE COORDINATOR,01/18/2019 00:00:00,391173131,N,,N,N,,,,,Non-profit,UG,,,,,,01/01/2017 00:00:00,,,,
1244517,1518142017,2017,151814,06/30/2017 00:00:00,S,A,,N,416001408,,N,076492578,INDEPENDENT SCHOOL DISTRICT NO. 281,4148 WINNETKA AVENUE NORTH,,NEW HOPE,MN,55427,KRISTEN KRATZ,FISCAL OPERATIONS DIRECTOR,7635048042,,KRISTEN_KRATZ@RDALE.ORG,01/29/2018 16:25:33,KRISTEN KRATZ-FISCAL OPERATIONS DIRECTOR,"MALLOY, MONTAGUE, KARNOWSKI, RADOSEVICH & CO., P.A.",5353 WAYZATA BLVD SUITE 410,,MINNEAPOLIS,MN,55416,WILLIAM LAUER,PRINCIPAL,9525450424,,BLAUER@MMKR.COM,01/29/2018 14:32:17,,O,,U,N,N,N,N,U,750000,N,,11063860,,Y,N,N,Y,N,N,,84,01/29/2018 00:00:00,01/30/2018 12:33:37,,N,505,1,x00,01/29/2018 00:00:00,,N,KRISTEN KRATZ,FISCAL OPERATIONS DIRECTOR,01/29/2018 00:00:00,411690382,N,,N,Y,,,,,Local government,UG,,02/20/2018 15:43:44,02/22/2018 12:20:13,N,G,07/01/2016 00:00:00,,,,
1231352,537222017,2017,53722,06/30/2017 00:00:00,S,A,,N,371022829,,N,,"CALL FOR HELP, INC",9400 LEBANON ROAD,,EAST ST. LOUIS,IL,62203,JOHN HILL,DIRECTOR OF FINANCE,6183970968,,JHILL@CALLFORHELPINC.ORG,11/17/2017 10:36:32,JOHN HILL-DIRECTOR OF FINANCE,"C.J. SCHLOSSER & COMPANY, L.L.C.",233 EAST CENTER DRIVE,,ALTON,IL,62002,KEVIN TEPEN,PARTNER,6184657717,,KTEPEN@CJSCO.COM,11/13/2017 15:19:17,,O,,U,N,N,N,N,U,750000,Y,,1298957,,N,N,N,N,N,N,,14,11/17/2017 00:00:00,11/20/2017 12:35:34,,N,908,1,x00,11/17/2017 00:00:00,,N,JOHN HILL,DIRECTOR OF FINANCE,11/17/2017 00:00:00,371031116,N,,N,N,,,,,Local government,UG,,,,,,07/01/2016 00:00:00,,,,
1241019,1926062017,2017,192606,06/30/2017 00:00:00,S,A,,N,956001078,,N,,EL SEGUNDO UNIFIED SCHOOL DISTRICT,641 SHELDON ST ,,EL SEGUNDO,CA,90245,SUSAN ACEVES,CHIEF BUSINESS OFFICER,3106152650,,SACEVES@ESUSD.K12.CA.US,02/16/2018 19:55:55,SUSAN ACEVES-CHIEF BUSINESS OFFICIAL,CHRISTY WHITE ASSOCIATES,348 OLIVE STREET,,SAN DIEGO,CA,92103,MICHAEL ASH,PARTNER,6192708222,,MASH@CHRISTYWHITE.COM,02/20/2018 13:44:47,,O,,U,N,N,N,N,U,750000,Y,,878485,,N,N,N,N,N,N,,84,02/20/2018 00:00:00,02/22/2018 08:44:34,,N,505,1,x00,02/20/2018 00:00:00,,N,SUSAN ACEVES,CHIEF BUSINESS OFFICIAL,02/20/2018 00:00:00,272956198,N,,N,N,,,,,Local government,UG,,03/05/2018 13:34:11,03/08/2018 07:45:34,N,G,07/01/2016 00:00:00,,,,
1261562,2475232017,2017,247523,12/31/2017 00:00:00,S,A,,N,346400254,,N,155753742,VILLAGE OF CAREY,127 NORTH VANCE STREET,,CAREY,OH,433161056,ALISHA WENTZ,FISCAL OFFICER,4193967681,,FISCALOFFICER@CAREYOHIO.ORG,09/27/2018 09:02:16,ALISHA WENTZ-FISCAL OFFICER,"DAVE YOST, AUDITOR OF STATE OF OHIO","88 EAST BROAD STREET, P.O. BOX 1140",,COLUMBUS,OH,432161140,"STEPHEN D. FLICKINGER, CPA",CHIEF AUDITOR,4192452484,,DCFNORTHWEST@OHIOAUDITOR.GOV,09/26/2018 11:41:34,,O,,S,N,N,N,N,U,750000,N,,980600,,N,N,N,N,N,N,,10,09/27/2018 00:00:00,09/29/2018 01:30:21,,N,888,1,x00,09/27/2018 00:00:00,,N,ALISHA WENTZ,FISCAL OFFICER,09/27/2018 00:00:00,311334820,N,,N,N,CASH,N,U,,Local government,UG,,,,,,01/01/2017 00:00:00,,,,
