ELECAUDITHEADERID,ID,AUDITYEAR,DBKEY,FYENDDATE,AUDITTYPE,PERIODCOVERED,NUMBERMONTHS,MULTIPLEEINS,EIN,EINSUBCODE,MULTIPLEDUNS,DUNS,AUDITEENAME,STREET1,STREET2,CITY,STATE,ZIPCODE,AUDITEECONTACT,AUDITEETITLE,AUDITEEPHONE,AUDITEEFAX,AUDITEEEMAIL,AUDITEEDATESIGNED,AUDITEENAMETITLE,CPAFIRMNAME,CPASTREET1,CPASTREET2,CPACITY,CPASTATE,CPAZIPCODE,CPACONTACT,CPATITLE,CPAPHONE,CPAFAX,CPAEMAIL,CPADATESIGNED,CPANAMETITLE,COG_OVER,COGAGENCY,TYPEREPORT_FS,REPORTABLECONDITION,MATERIALWEAKNESS,MATERIALNONCOMPLIANCE,GOINGCONCERN,TYPEREPORT_MP,DOLLARTHRESHOLD,LOWRISK,REPORTREQUIRED,TOTFEDEXPEND,COPIES,REPORTABLECONDITION_MP,MATERIALWEAKNESS_MP,QCOSTS,CYFINDINGS,PYSCHEDULE,DUP_REPORTS,COG_AGENCY,OVERSIGHTAGENCY,DATERECEIVED,DATEFIREWALL,PREVIOUSDATEFIREWALL,FINDINGREFNUM,TYPEOFENTITY,IMAGE,AGENCYCFDA,INITIALDATE,DATERECEIVEDOTHER,MULTIPLE_CPAS,AUDITEECERTIFYNAME,AUDITEECERTIFYTITLE,FACACCEPTEDDATE,AUDITOR_EIN,SD_MATERIALWEAKNESS,SD_MATERIALWEAKNESS_MP,SIGNIFICANTDEFICIENCY,SIGNIFICANTDEFICIENCY_MP,SP_FRAMEWORK,SP_FRAMEWORK_REQUIRED,TYPEREPORT_SP_FRAMEWORK,SUPPRESSION_CODE,ENTITY_TYPE,TYPEAUDIT_CODE,OPEID,DATETOED,DATEFINISHED,TYPEFINDING,TYPEFUNDING,FYSTARTDATE,CPAFOREIGN,UEI,MULTIPLEUEIS,CPACOUNTRY
1484052,2288302022,2022,228830,12/31/2022 00:00:00,S,A,,N,134278617,,N,,DELTA PARTNERS MANOR II,288 S. FIRST STREET,,DREW,MS,38737,SCOTT RUSSELL,MANAGING AGENT,6018562362,,ALPHA4ONE@COMCAST.NET,03/31/2023 16:13:05,SCOTT RUSSELL-MANAGING AGENT,"HARPER, RAINS, KNIGHT & COMPANY",1052 HIGHLAND COLONY PARKWAY SUITE 100,,RIDGELAND,MS,39157,JOEY FLETCHER,LEAD AUDITOR,6016050722,,JFLETCHER@HRKCPA.COM,03/31/2023 16:17:06,,O,,U,N,N,N,N,U,750000,Y,,2157610,,N,N,N,N,N,N,,14,03/31/2023 00:00:00,04/04/2023 01:30:04,,N,903,1,x00,03/31/2023 00:00:00,,N,SCOTT RUSSELL,MANAGING AGENT,03/31/2023 00:00:00,640809101,N,,N,N,,,,,Non-profit,UG,,,,,,01/01/2022 00:00:00,,NW6ZDZNA9VY7,N,US
1478910,1940172022,2022,194017,06/30/2022 00:00:00,S,A,,N,556000313,,N,131199796,DODDRIDGE COUNTY BOARD OF EDUCATION,268 BULLDOG DRIVE,,WEST UNION,WV,26456,KALEIGH DOTSON,TREASURER,3048732300,,KALEIGH.DOTSON@K12.WV.US,03/30/2023 10:53:16,KALEIGH DOTSON-TREASURER/CSBO,"SUTTLE & STALNAKER, PLLC","1411 VIRGINIA STREET EAST, SUITE 100",,CHARLESTON,WV,25301,"CHRIS DEWEESE, CPA, CGMA",MEMBER,3043434126,,CDEWEESE@SUTTLECPAS.COM,03/31/2023 07:17:49,,O,,U,Y,N,N,N,U,750000,Y,,3039483,,N,N,N,N,N,N,,84,03/31/2023 00:00:00,04/04/2023 01:30:04,,N,505,1,x00,03/31/2023 00:00:00,,N,KALEIGH DOTSON,TREASURER/CSBO,03/31/2023 00:00:00,550538163,N,,Y,N,,,,,Local government,UG,,04/24/2023 12:57:16,04/27/2023 09:05:25,N,G,07/01/2021 00:00:00,,FKGTR6WEAGJ9,N,US
1475410,1824082022,2022,182408,06/30/2022 00:00:00,S,A,,N,133651283,,N,100971738,"POSTGRADUATE CENTER WEST 98TH STREET RESIDENCE, INC",158 EAST 35TH STREET,,NEW YORK,NY,10016,DALER AMONOV,CFO,2128895500,,DAMONOV@PGCMH.ORG,03/22/2023 10:43:19,DALER AMONOV-CHIEF FINANCIAL OFFICER,"PKF O'CONNOR DAVIES, LLP",500 MAMARONECK AVENUE,,HARRISON,NY,10528,JENNIFER GALASSO,JGALASSO@PKFOD.COM,9143818900,,JGALASSO@PKFOD.COM,03/21/2023 21:23:16,,O,,U,N,N,N,N,U,750000,Y,,1891538,,N,N,N,N,N,N,,14,03/22/2023 00:00:00,03/25/2023 01:30:06,,N,903,1,x00,03/22/2023 00:00:00,,N,DALER AMONOV,CHIEF FINANCIAL OFFICER,03/22/2023 00:00:00,271728945,N,,N,N,,,,,Non-profit,UG,,,,,,07/01/2021 00:00:00,,PSTG1336RADA,N,US
1461720,2567972022,2022,256797,06/30/2022 00:00:00,S,A,,N,842196063,,N,,ALAMANCE COMMUNITY SCHOOL,195 KRONBERGS COURT,,HAW RIVER,NC,27258,LESLIE PAYNTER,FINANCE OFFICER,3362705062,,LPAYNTER@ALAMANCECOMMUNITYSCHOOL.NET,01/29/2023 16:40:09,LESLIE PAYNTER-MANAGING DIRECTOR,"POTTER & COMPANY, PA",434 COPPERFIELD BLVD NE,,CONCORD,NC,28025,ERIC SMITH,AUDITOR,7047868189,,ESMITH@GOTOPOTTER.COM,01/25/2023 11:03:17,,O,,U,N,N,N,N,,750000,N,,1192625,,N,N,N,N,N,N,,84,01/29/2023 00:00:00,02/02/2023 01:30:06,,N,888,1,x00,01/29/2023 00:00:00,,N,LESLIE PAYNTER,MANAGING DIRECTOR,01/29/2023 00:00:00,561220683,N,,N,N,,,,,Non-profit,UG,,02/08/2023 13:40:21,02/09/2023 10:07:22,N,G,07/01/2021 00:00:00,,G9VJKSEV7JL7,N,US
1454747,2558122022,2022,255812,06/30/2022 00:00:00,S,A,,N,376003445,,N,184029569,BETHEL GRADE SCHOOL DISTRICT 82,1201 BETHEL ROAD,,MT. VERNON,IL,62864,CHARLEY CASS,SUPERINTENDENT,6182448095,,CCASS@BETHELSCHOOL.NET,11/02/2022 16:40:52,CHARLEY CASS-SUPERINTENDENT,SUSAN J LYONS CPA PC,5859 US HIGHWAY 51,,ODIN,IL,62870,"SUSAN J. LYONS, CPA, PC",PRESIDENT,6182673213,,SLYONS1007@GMAIL.COM,11/02/2022 16:46:06,,O,,AS,N,Y,N,N,U,750000,N,,836132,,N,N,N,N,N,N,,84,11/02/2022 00:00:00,11/04/2022 01:30:07,,N,888,1,x00,11/02/2022 00:00:00,,N,CHARLEY CASS,SUPERINTENDENT,11/02/2022 00:00:00,364149296,Y,,N,N,REGULATORY,Y,QA,,Local government,UG,,11/08/2022 13:09:01,11/17/2022 07:19:49,N,G,07/01/2021 00:00:00,,E6XNZSFJ9FK6,N,US
1467954,1831262022,2022,183126,09/30/2022 00:00:00,S,A,,N,742790736,,N,948187653,PORT AUTHORITY OF SAN ANTONIO,907 BILLY MITCHELL BLVD,,SAN ANTONIO,TX,78225,PATRICK CRUZEN,CFO,2103627868,,PATRICK.CRUZEN@PORTSANANTONIO.US,01/31/2023 11:25:36,PATRICK CRUZEN-CFO,"FORVIS, LLP","8200 WEST INTERSTATE 10, SUITE 900",,SAN ANTONIO,TX,78230,MAKAYLA MATHESON,PARTNER,2103419400,,MAKAYLA.MATHESON@FORVIS.COM,01/31/2023 11:02:58,,O,,U,N,N,N,N,U,750000,Y,,5423954,,N,N,N,N,N,N,,12,01/31/2023 00:00:00,02/03/2023 01:30:06,,N,209,1,x00,01/31/2023 00:00:00,,N,PATRICK CRUZEN,CFO,01/31/2023 00:00:00,440160260,N,,N,N,,,,,Local government,UG,,,,,,10/01/2021 00:00:00,,NJBKV6T66FS8,N,US
1453174,2275752022,2022,227575,06/30/2022 00:00:00,S,A,,N,113716394,,N,809080695,"PLYMOUTH HOMES, INC.",22 S. HOWARD STREET,,BALTIMORE,MD,21201,KEVIN GREOSKI,TREASURER,4103664299,,KEVING@PEPONLINE.ORG,01/05/2023 13:49:10,KEVIN GREOSKI-VP/CFO,"PKF O'CONNOR DAVIES, LLP","2 BETHESDA METRO CENTER, SUITE 420",,BETHESDA,MD,20814,STEWART GRUBMAN,PARTNER,3016523464,,SGRUBMAN@PKFOD.COM,01/05/2023 11:41:00,,O,,U,N,N,N,N,U,750000,Y,,1234187,,N,N,N,N,N,N,,14,01/05/2023 00:00:00,01/10/2023 01:30:06,,N,903,1,x00,01/05/2023 00:00:00,,N,KEVIN GREOSKI,VP/CFO,01/05/2023 00:00:00,271728945,N,,N,N,,,,,Non-profit,UG,,,,,,07/01/2021 00:00:00,,GRFVL5UR43N5,N,US
1463910,398052022,2022,39805,09/30/2022 00:00:00,S,A,,N,311207764,,N,,FIND-A-WAY II COMMUNITY URBAN REDEVELOPMENT CORPORATION,"45 NORTH FOURTH STREET, SUITE 200",,COLUMBUS,OH,432153602,CHRISTOPHER GAHN,CONTROLLER,6144818106,,CGAHN@SHOWEMGMT.COM,01/04/2023 17:18:52,CHRISTOPHER GAHN-CONTROLLER,CLARK SCHAEFER HACKETT & CO,"14 EAST MAIN STREET, SUITE 500",,SPRINGFIELD,OH,45502,JESSE YOUNG,SHAREHOLDER,9373992000,,JYOUNG@CSHCO.COM,01/04/2023 17:28:02,,O,,U,N,N,N,N,U,750000,Y,,1841861,,N,N,N,N,N,N,,14,01/04/2023 00:00:00,01/06/2023 01:30:06,,N,903,1,x00,01/04/2023 00:00:00,,N,CHRISTOPHER GAHN,CONTROLLER,01/04/2023 00:00:00,310800053,N,,N,N,,,,,Non-profit,UG,,,,,,10/01/2021 00:00:00,,WFH4KJ21L6A6,N,US
1468286,2150862022,2022,215086,06/30/2022 00:00:00,S,A,,N,680174773,,N,,COLUMBIA ELEMENTARY SCHOOL DISTRICT,10140 OLD OREGON TRAIL,,REDDING,CA,96003,CATHLEEN SERNA,CHIEF BUSINESS OFFICIAL,5307221702,,CSERNA@COLUMBIASD.COM,02/15/2023 12:42:20,CATHLEEN SERNA-DIRECTOR OF BUSINESS SERVICES,"EIDE BAILLY, LLP","10681 FOOTHILL BLVD, SUITE 300",,RANCHO CUCAMONGA,CA,91730,ROYCE TOWNSEND,PARTNER,9097552830,,RTOWNSEND@EIDEBAILLY.COM,02/15/2023 12:30:53,,O,,U,N,N,N,N,U,750000,Y,,2035639,,N,N,N,N,N,N,,84,02/15/2023 00:00:00,02/17/2023 01:30:07,,N,505,1,x00,02/15/2023 00:00:00,,N,CATHLEEN SERNA,DIRECTOR OF BUSINESS SERVICES,02/15/2023 00:00:00,450250958,N,,N,N,,,,,Local government,UG,,02/22/2023 14:55:46,02/23/2023 10:06:56,N,G,07/01/2021 00:00:00,,MGDBEV7RGFF1,N,US
1477385,540712022,2022,54071,06/30/2022 00:00:00,S,A,,N,371290943,,N,806810222,ILLINOIS ASSISTIVE TECHNOLOGY PROGRAM,701 NORTH WALNUT STREET,,SPRINGFIELD,IL,62701,SHELLY LOWE,CHIEF FINANCIAL OFFICER,2175227985,,SLOWE@ILTECH.ORG,03/16/2023 11:07:50,SHELLY LOWE-CHIEF FINANCIAL OFFICER,CINDY A BOBELL CPA,10653 KHOURY LEAGUE ROAD,,MARION,IL,62959,CINDY A. BOBELL,CPA/OWNER,6189979711,,CABCPA@FRONTIER.COM,03/15/2023 09:42:57,,O,,U,N,N,N,N,U,750000,Y,,3539191,,N,N,N,N,N,N,,84,03/16/2023 00:00:00,03/21/2023 01:30:07,,N,909,1,x00,03/16/2023 00:00:00,,N,SHELLY LOWE,CHIEF FINANCIAL OFFICER,03/16/2023 00:00:00,371312393,N,,N,N,,,,,Non-profit,UG,,03/22/2023 13:44:25,03/23/2023 08:41:55,,N,07/01/2021 00:00:00,,DDFQSUJ4DPZ3,N,US
1457754,2324592022,2022,232459,06/30/2022 00:00:00,S,A,,N,346406985,,N,100064245,EDON NORTHWEST LOCAL SCHOOL DISTRICT,802 WEST INDIANA STREET,,EDON,OH,435189627,DEBORAH NESTER,CFO-TREASURER,4192723213,,DNESTER@EDON-NW.ORG,03/02/2023 07:04:43,DEBORAH NETER-TREASURER,"KEITH FABER, AUDITOR OF STATE",88 EAST BROAD STREET,,COLUMBUS,OH,432153506,"JONATHAN A. LAWLESS, CFE",CHIEF AUDITOR,4192452811,,DCF-NORTHWEST@OHIOAUDITOR.GOV,03/02/2023 06:49:20,,O,,S,N,N,Y,N,U,750000,N,,896856,,N,N,N,N,N,N,,84,03/02/2023 00:00:00,03/08/2023 01:30:06,,N,505,1,x00,03/02/2023 00:00:00,,N,DEBORAH NETER,TREASURER,03/02/2023 00:00:00,311334820,N,,N,N,CASH,N,U,,Local government,UG,,03/10/2023 14:38:10,03/16/2023 08:44:21,N,G,07/01/2021 00:00:00,,KUEWA74U97L9,N,US
1450107,2373192022,2022,237319,06/30/2022 00:00:00,S,A,,N,264338544,,N,065346788,"SAINT ELIZABETH TERRACE, WARWICK DBA SAINT ELIZABETH APTS FOR SENIORS",150 WARWICK NECK AVENUE,,WARWICK,RI,02889,MARK LOISELLE,CHIEF FINANCIAL OFFICER,4017737417,,MLOISELLE@STELIZABETHCOMMUNITY.ORG,10/24/2022 15:38:27,MARK LOISELLE-CFO,"CITRIN COOPERMAN & COMPANY, LLP","500 EXCHANGE STREET, SUITE 9-100",,PROVIDENCE,RI,02903,"MICHAEL E. CRISCIONE, CPA",PARTNER,4014214800,,MCRISCIONE@CITRINCOOPERMAN.COM,10/24/2022 15:49:25,,O,,U,N,N,N,N,U,750000,Y,,5346221,,N,N,N,N,N,N,,14,10/24/2022 00:00:00,10/26/2022 01:30:08,,N,903,1,x00,10/24/2022 00:00:00,,N,MARK LOISELLE,CFO,10/24/2022 00:00:00,222428965,N,,N,N,,,,,Non-profit,UG,,,,,,07/01/2021 00:00:00,,G8M6CK2WM43B,N,US
1466736,1502462022,2022,150246,06/30/2022 00:00:00,S,A,,N,386032487,,N,052223923,WESTERN SCHOOL DISTRICT,1400 SOUTH DEARING RD,,PARMA,MI,49269,AMBER MOORE,FINANCE DIRECTOR,5178418172,,AMBER.MOORE@WSDPANTHERS.ORG,01/12/2023 13:10:19,AMBER MOORE-FINANCE DIRECTOR,REHMANN ROBSON LLC,675 ROBINSON RD,,JACKSON,MI,49203,"NATHAN C. BALDERMANN, CPA, CGFM",PRINCIPAL,5177876503,,NATHAN.BALDERMANN@REHMANN.COM,01/11/2023 10:27:31,,O,,U,N,N,N,N,U,750000,Y,,3786565,,N,N,N,N,N,N,,84,01/12/2023 00:00:00,01/14/2023 01:30:07,,N,505,1,x00,01/12/2023 00:00:00,,N,AMBER MOORE,FINANCE DIRECTOR,01/12/2023 00:00:00,383635706,N,,N,N,,,,,Local government,UG,,01/24/2023 12:45:20,01/26/2023 10:15:23,N,G,07/01/2021 00:00:00,,TAXBMKBRPJM7,N,US
1476235,454862022,2022,45486,06/30/2022 00:00:00,S,A,,N,350868107,,N,072063316,UNIVERSITY OF INDIANAPOLIS,1400 EAST HANNA AVENUE,,INDIANAPOLIS,IN,46227,JODI PURTEE,ASSOCIATE VP & CONTROLLER,3177912563,,PURTEEJ@UINDY.EDU,03/14/2023 17:17:16,JODI PURTEE-AVP & CONTROLLER,CROWE LLP,"3815 RIVER CROSSING PARKWAY, SUITE 300",,INDIANAPOLIS,IN,46240,PETE UGO,PARTNER,3172082509,,PETE.UGO@CROWE.COM,03/14/2023 16:52:34,,C,84,U,N,N,N,N,U,750000,Y,,61873109,,N,N,N,N,N,N,,,03/14/2023 00:00:00,03/17/2023 01:30:05,,N,904,1,x00,03/14/2023 00:00:00,,N,JODI PURTEE,AVP & CONTROLLER,03/14/2023 00:00:00,350921680,N,,N,N,,,,,Non-Profit,UG,00180400,03/21/2023 12:09:04,03/23/2023 08:41:55,N,B,07/01/2021 00:00:00,,WRJWCFVRM7M5,N,US
1476584,1884652022,2022,188465,06/30/2022 00:00:00,S,A,,N,346401063,,N,159340751,PERRY LOCAL SCHOOL DISTRICT,2770 EAST BREESE ROAD,,LIMA,OH,45806,MANDY FRANCE,TREASURER,4192212770,,TREASURER@MYCOMMODORES.ORG,06/14/2023 14:29:11,MANDY G FRANCE-TREASURER/CFO,"KEITH FABER, OHIO AUDITOR OF STATE",88 EAST BROAD STREET,,COLUMBUS,OH,43215,"DONNA K. WALDRON, CPA",CHIEF AUDITOR,9372856672,,DCF-WEST@OHIOAUDITOR.GOV,06/14/2023 14:11:52,,O,,S,N,N,Y,N,Q,750000,N,,1380907,,N,Y,N,Y,N,N,,84,06/14/2023 00:00:00,06/17/2023 01:30:05,,N,505,1,x00,06/14/2023 00:00:00,,N,MANDY G FRANCE,TREASURER/CFO,06/14/2023 00:00:00,311334820,N,,N,N,CASH,N,U,,Local government,UG,,06/21/2023 11:00:57,06/22/2023 09:17:38,N,G,07/01/2021 00:00:00,,DZCYMXEX2H74,N,US
1470015,2313252022,2022,231325,06/30/2022 00:00:00,S,A,,N,470957328,,N,,MARTIN LUTHER KING JR. CHARTER SCHOOL OF EXCELLENCE,285 DORSET STREET,,SPRINGFIELD,MA,011082821,MEGAN GARNETT,BUSINESS MANAGER,6175862512,,MEGAN.GARNETT@CENTRALSOURCE.ORG,01/25/2023 10:23:18,MEGAN GARNETT-BUSINESS CONSULTANT,MP P.C.,"ONE MONARCH PLACE, SUITE 900",,SPRINGFIELD,MA,01144,PATRICK LEARY,PARTNER,4137391800,,PLEARY@MASS-CPA.COM,01/25/2023 14:25:11,,O,,U,N,N,N,N,U,750000,N,,1477362,,N,N,N,N,N,N,,84,01/25/2023 00:00:00,01/28/2023 01:30:06,,N,905,1,x00,01/25/2023 00:00:00,,N,MEGAN GARNETT,BUSINESS CONSULTANT,01/25/2023 00:00:00,043191789,N,,N,N,,,,,Local government,UG,,02/03/2023 13:58:22,02/09/2023 10:07:22,N,G,07/01/2021 00:00:00,,TGMQQ746E3W3,N,US
1449647,1021842022,2022,102184,06/30/2022 00:00:00,S,A,,N,741994151,,N,,"FAMILY VIOLENCE PREVENTION SERVICES, INC.",7911 BROADWAY,,SAN ANTONIO,TX,78209,ANKUR CHOPRA,EXECUTIVE VP/CFO,2109303669,,ANKUR.CHOPRA@FVPS.ORG,10/12/2022 13:39:16,ANKUR CHOPRA-CFO,"GONZALEZ & WALKER, CPAS","7800 IH 10 WEST, STE. 505",,SAN ANTONIO,TX,78230,NATALIE KUHN,AUDIT PARTNER,2103669430,,PSMITH@CPATX.COM,10/12/2022 19:28:44,,O,,U,N,N,N,N,U,750000,Y,,2419253,,N,N,N,N,N,N,,14,10/12/2022 00:00:00,10/15/2022 01:30:07,,N,908,1,x00,10/12/2022 00:00:00,,N,ANKUR CHOPRA,CFO,10/12/2022 00:00:00,742980278,N,,N,N,,,,,Non-profit,UG,,,,,,07/01/2021 00:00:00,,D7B3EQGEXQY7,N,US
1449919,2420032022,2022,242003,06/30/2022 00:00:00,S,A,,N,043275815,,N,,ROBERT MCBRIDE HOUSE INC,27 MICA LANE,,WELLESLEY,MA,02481,BRIANNE HOELSCHEN,COMPTROLLER,7819430200,,BHOELSCHEN@MALONEYPROPERTIES.COM,10/28/2022 12:55:29,BRIANNE HOELSCHEN-CONTROLLER,"LLOYD B MCMANUS, CPA, PC",PO BOX 130259,,BOSTON,MA,02113,"LLOYD B MCMANUS, JR",PRESIDENT,6173671843,,LBMCCPA@AOL.COM,11/06/2022 12:04:18,,O,,U,N,N,N,N,U,750000,Y,,1859328,,N,N,N,N,N,N,,14,11/06/2022 00:00:00,11/09/2022 01:30:08,,N,888,1,x00,11/06/2022 00:00:00,,N,BRIANNE HOELSCHEN,CONTROLLER,11/06/2022 00:00:00,042760770,N,,N,N,,,,,Non-profit,UG,,,,,,07/01/2021 00:00:00,,FJBYD5NWUMS5,N,US
1459863,2527152022,2022,252715,06/30/2022 00:00:00,S,A,,N,204248193,,N,,"NEW SPRINGS, INC.",2410 W. BUSCH BLVD,,TAMPA,FL,33612,MUSTAFA UGUZ,BUSINESS MANAGER,8139335025,,MUGUZ@NEWSPRINGSSCHOOLS.ORG,12/16/2022 09:06:46,MUSTAFA UGUZ-BUSINESS MANAGER,"KING & WALKER, CPA","2803 W. BUSCH BLVD, STE 106",,TAMPAA,FL,33618,"ROBERT WALKER, CPA",PARTNER,8138924274,,BOB@KINGANDWALKER.COM,12/16/2022 11:28:21,,O,,U,N,N,N,N,U,750000,N,,849085,,N,N,N,N,N,N,,10,12/16/2022 00:00:00,12/22/2022 01:30:06,,N,888,1,x00,12/16/2022 00:00:00,,N,MUSTAFA UGUZ,BUSINESS MANAGER,12/16/2022 00:00:00,202081868,N,,N,N,,,,,Non-profit,UG,,01/03/2023 14:53:32,01/05/2023 10:36:38,N,G,07/01/2021 00:00:00,,VCTRWMMY4H55,N,US
1487155,1481342022,2022,148134,06/30/2022 00:00:00,S,A,,N,046001085,,N,073820680,TOWN OF BELMONT,455 CONCORD AVE.,,BELMONT,MA,02478,DONNA TUCCINARDI,TOWN ACCOUNTANT,6179932622,,DTUCCINARDI@BELMONT-MA.GOV,04/30/2023 17:49:26,DONNA TUCCINARDI-TOWN ACCOUNTANT,"POWERS & SULLIVAN, LLC","100 QUANNAPOWITT PARKWAY, SUITE 101",,WAKEFIELD,MA,01880,CRAIG PEACOCK,PARTNER,7819141700,,CRAIGPEACOCK@POWERSANDSULLIVAN.COM,04/28/2023 11:25:27,,O,,U,N,N,N,N,U,750000,Y,,5348816,,N,N,N,N,N,N,,10,04/30/2023 00:00:00,05/02/2023 01:30:07,,N,300,1,x00,01/27/2023 00:00:00,,N,DONNA TUCCINARDI,TOWN ACCOUNTANT,01/27/2023 00:00:00,273857113,N,,N,N,,,,,Local government,UG,,02/07/2023 12:48:53,02/09/2023 10:07:22,N,G,07/01/2021 00:00:00,,E3XGZNXMSHV9,,
1484078,2020792022,2022,202079,06/30/2022 00:00:00,S,A,,N,946002854,,N,004948113,CITY OF ATWATER,750 BELLEVUE ,,ATWATER,CA,953012859,DELILAH YOUMARA,FINANCE DIRECTOR,2093576347,,DYOUMARA@ATWATER.ORG,04/01/2023 03:11:08,DELILAH YOUMARA-FINANCE DIRECTOR,"BADAWI & ASSOCIATES, CPAS","2855 TELEGRAPH AVE., SUITE 312",,BERKELEY,CA,94705,AHMED BADAWI,PRESIDENT,5107688244,,ABADAWI@B-ACPA.COM,04/01/2023 03:03:48,,O,,U,N,N,N,N,U,750000,N,,2183201,,N,N,N,N,N,N,,21,04/01/2023 00:00:00,04/06/2023 01:30:05,,N,200,1,x00,04/01/2023 00:00:00,,N,DELILAH YOUMARA,FINANCE DIRECTOR,03/31/2023 00:00:00,454555509,N,,N,N,,,,,Local government,UG,,,,,,07/01/2021 00:00:00,,FFMEDABPXQM7,N,US
1459437,2513022022,2022,251302,06/30/2022 00:00:00,S,A,,N,464965951,,N,079342693,ARGOSY COLLEGIATE CHARTER SCHOOL,240 DOVER STREET,,FALL RIVER,MA,02721,KRISTEN PAVAO,EXECUTIVE DIRECTOR,7749555857,,KPAVAO@ARGOSYCOLLEGIATE.ORG,12/01/2022 11:49:20,KRISTEN PAVAO-EXECUTIVE DIRECTOR,DANIEL DENNIS & COMPANY LLP,"990 WASHINGTON STREET, SUITE 203",,DEDHAM,MA,02026,COLLEEN DALFONSO,PARTNER,6172629898,,CDALFONSO@DANIELDENNIS.COM,12/01/2022 11:50:43,,O,,U,N,N,N,N,U,750000,N,,1888129,,N,N,N,N,N,N,,84,12/01/2022 00:00:00,12/07/2022 01:30:05,,N,888,1,x00,12/01/2022 00:00:00,,N,KRISTEN PAVAO,EXECUTIVE DIRECTOR,12/01/2022 00:00:00,042734675,N,,N,N,,,,,Local government,UG,,12/07/2022 11:41:41,12/08/2022 07:34:55,N,G,07/01/2021 00:00:00,,J1DNHF1EFMM3,N,US
1487695,1772502022,2022,177250,08/31/2022 00:00:00,S,A,,N,910957540,,N,184357234,OKANOGAN SCHOOL DISTRICT NO. 105,PO BOX 592,,OKANOGAN,WA,98840,KLANCY ALLEN,DIRECTOR OF FINANCE,5094223629,,KALLEN@OKSD.WEDNET.EDU,05/30/2023 18:18:39,KLANCY ALLEN-DIRECTOR OF FINANCE,WASHINGTON STATE AUDITOR'S OFFICE,PO BOX 40031,,OLYMPIA,WA,98501,JAKE SANTISTEVAN,AUDIT MANAGER,5096620440,,JAKE.SANTISTEVAN@SAO.WA.GOV,05/30/2023 17:51:33,,O,,AS,N,N,N,N,U,750000,N,,3754826,,N,Y,N,Y,N,N,,84,05/30/2023 00:00:00,06/02/2023 01:30:06,,N,505,1,x00,05/30/2023 00:00:00,,N,KLANCY ALLEN,DIRECTOR OF FINANCE,05/30/2023 00:00:00,916001098,N,,N,N,REGULATORY,Y,U,,Local government,UG,,06/07/2023 12:01:29,06/08/2023 08:47:12,G,G,09/01/2021 00:00:00,,NDG1H2UMDXH9,N,US
1480638,2118072022,2022,211807,12/31/2022 00:00:00,S,A,,N,541864802,,N,005622589,AFFORDABLE RESIDENCES IN CHESTERFIELD (ROCKWOOD VILLAGE APARTMENTS),P.O. BOX 12117,,RICHMOND,VA,232410117,JULIE HOVERMALE,CHIEF FINANCIAL OFFICER,8045210687,,J.HOVERMALE@BETTERHOUSINGCOALITION.ORG,03/27/2023 13:24:47,JULIE HOVERMALE-CFO,GARY ROMER,"WILLIAMS MULLEN CTR, 200 S 10TH ST, STE 850",,RICHMOND,VA,232193311,GARY ROMER,PARTNER,8043072660,,GROMER@BDO.COM,03/27/2023 12:54:32,,O,,U,N,N,N,N,U,750000,Y,,5105250,,N,N,N,N,N,N,,14,03/27/2023 00:00:00,03/29/2023 01:30:03,,N,903,1,x00,03/27/2023 00:00:00,,N,JULIE HOVERMALE,CFO,03/27/2023 00:00:00,135381590,N,,N,N,,,,,Non-profit,UG,,,,,,01/01/2022 00:00:00,,EVAKZA3EGDJ9,N,US
1452946,2283842022,2022,228384,06/30/2022 00:00:00,S,A,,N,320132713,,N,828918123,RANDALLSTOWN II NON- PROFIT HOUSING CORPORATION,8425 E. TWELVE MILE ROAD SUITE 100,,WARREN,MI,48093,CINDY LAMB,CFO,5867539002,,CINDY.LAMB@CSI.COOP,01/12/2023 15:30:20,CINDY LAMB-CFO,"DAUBY O'CONNOR & ZALESKI, LLC",501 CONGRESSIONAL BLVD SUITE 300,,CARMEL,IN,46032,JACOB BUEHLER,MEMBER,3178485700,,JBUEHLER@DOZLLC.COM,01/13/2023 14:53:18,,O,,U,N,N,N,N,U,750000,Y,,6818175,,N,N,N,N,N,N,,14,01/13/2023 00:00:00,01/19/2023 01:30:09,,N,903,1,x00,01/13/2023 00:00:00,,N,CINDY LAMB,CFO,01/13/2023 00:00:00,351750664,N,,N,N,,,,,Non-profit,UG,,,,,,07/01/2021 00:00:00,,MJ29MDGBCE47,N,US
1451526,2497152022,2022,249715,04/30/2022 00:00:00,S,A,,N,930505325,,N,094803760,GRANDE RONDE HOSPITAL INC,900 SUNSET DR,,LA GRANDE,OR,97850,BOB SEYMOUR,CFO,5419631463,,RPS02@GRH.ORG,10/24/2022 12:17:50,BOB SEYMOUR-SENIOR DIRECTOR FINANCE/CFO,"DINGUS, ZARECOR & ASSOCIATES PLLC",12015 EAST MAIN,,SPOKANE VALLEY,WA,99206,KAMI MATZEK,OWNER,5093219476,,KMATZEK@DZACPA.COM,10/20/2022 17:32:12,,O,,U,N,N,N,N,U,750000,N,,8061395,,N,N,N,N,N,N,,93,10/24/2022 00:00:00,10/26/2022 01:30:08,,N,888,1,x00,10/24/2022 00:00:00,,N,BOB SEYMOUR,SENIOR DIRECTOR FINANCE/CFO,10/24/2022 00:00:00,200079326,N,,N,N,,,,,Non-profit,UG,,,,,,05/01/2021 00:00:00,,LAXHJKQMM345,N,US
1489684,2061852022,2022,206185,08/31/2022 00:00:00,S,A,,N,746000843,,N,013962188,FLATONIA INDEPENDENT SCHOOL DISTRICT,"400 E, 4TH ST.",,FLATONIA,TX,78941,RODNEY STRYK,BUSINESS MANAGER,3618652941,,RSTRYK@FLATONIA.TXED.NET,05/24/2023 09:10:18,RODNEY STRYK-BUSINESS MANAGER,"ROLOFF, HNATEK & CO., L.L.P.","120 S, MAIN, SUITE 300",,VICTORIA,TX,77901,CHRISTOPHER L. CULAK,PARTNER,3615782915,,CCULAK@RHCLLP.COM,05/23/2023 16:54:47,,O,,U,N,N,N,N,U,750000,N,,931002,,N,N,N,N,N,N,,84,05/24/2023 00:00:00,05/26/2023 01:30:05,,N,505,1,x00,05/24/2023 00:00:00,,N,RODNEY STRYK,BUSINESS MANAGER,05/24/2023 00:00:00,741249829,N,,N,N,,,,,Local government,UG,,05/30/2023 13:28:37,06/01/2023 10:21:25,N,G,09/01/2021 00:00:00,,TWM7SEFN1KY7,N,US
1458841,1714472022,2022,171447,06/30/2022 00:00:00,S,A,,Y,626002115,,N,030674576,"WASHINGTON COUNTY, TENNESSEE",P.O. BOX 219,,JONESBOROUGH,TN,37659,MITCH MEREDITH,DIRECTOR OF ACCOUNTS AND BUDGETS,4237531847,,MMEREDITH@WASHINGTONCOUNTYTN.ORG,12/22/2022 13:10:07,MITCH MEREDITH-DIRECTOR OF ACCOUNTS AND BUDGET,"COMPTROLLER OF THE TREASURY, DIVISION OF LOCAL GOVERNMENT AUDIT",425 REP. JOHN LEWIS WAY N.,,NASHVILLE,TN,37243,GREG WORLEY,AUDIT REVIEW MANAGERT,6154017846,,GREG.WORLEY@COT.TN.GOV,12/21/2022 15:13:48,,O,,U,Y,N,N,N,U,1236264,Y,,41208801,,N,N,N,N,N,N,,21,12/22/2022 00:00:00,12/28/2022 01:30:05,,N,100,1,x00,12/22/2022 00:00:00,,Y,MITCH MEREDITH,DIRECTOR OF ACCOUNTS AND BUDGET,12/22/2022 00:00:00,626001445,N,,Y,N,,,,,Local government,UG,,01/10/2023 14:53:02,01/12/2023 10:08:23,N,G,07/01/2021 00:00:00,,L2J2BHW7LAE7,Y,US
1458707,1970292022,2022,197029,06/30/2022 00:00:00,S,A,,N,721264033,,N,120001057,"SANTA MONICA VOA ELDERLY HOUSING, INC. (LINCOLN COURT)",1660 DUKE STREET,,ALEXANDRIA,VA,22314,VANESSA TRAN,"CONTROLLER, HOUSING",7033415000,,VTRAN@VOA.ORG,12/22/2022 11:27:15,VANESSA TRAN-CONTROLLER,"MADDOX & ASSOCIATES, APC","5627 BANKERS AVENUE, BUILDING 2",,BATON ROUGE,LA,708082610,JEFF MADDOX,CPA,2259263360,,MAIL@MADDOXASSOCIATES.COM,12/27/2022 11:47:15,,O,,U,N,N,N,N,U,750000,Y,,3748997,,N,N,N,N,N,N,,14,12/27/2022 00:00:00,01/03/2023 01:30:07,,N,903,1,x00,12/27/2022 00:00:00,,N,VANESSA TRAN,CONTROLLER,12/27/2022 00:00:00,721314069,N,,N,N,,,,,Non-profit,UG,,,,,,07/01/2021 00:00:00,,EQ57TZU9A353,N,US
1449552,3552022,2022,355,05/31/2022 00:00:00,S,A,,N,010347381,,N,109391284,SACOPEE VALLEY HEALTH CENTER,70 MAIN STREET,,PORTER,ME,04068,MICHELLE EASTMAN,CHIEF FINANCIAL OFFICER,2076252235,,MEASTMAN@SVHC.ORG,11/11/2022 09:23:00,MICHELLE EASTMAN-CHIEF FINANCIAL OFFICER,BERRY DUNN MCNEIL & PARKER LLC,2211 CONGRESS STREET,,PORTLAND,ME,04102,MARY JALBERT,PRINCIPAL,2075412313,,MJALBERT@BERRYDUNN.COM,11/12/2022 05:56:51,,O,,U,N,N,N,N,U,750000,Y,,3237195,,N,N,N,N,N,N,,93,11/12/2022 00:00:00,11/16/2022 01:30:06,,N,908,1,x00,11/12/2022 00:00:00,,N,MICHELLE EASTMAN,CHIEF FINANCIAL OFFICER,11/12/2022 00:00:00,010523282,N,,N,N,,,,,Non-profit,UG,,,,,,06/01/2021 00:00:00,,GDYHYKHC8BK6,N,US
1470471,255102022,2022,25510,05/31/2022 00:00:00,S,A,,N,231352620,,N,077070035,ARCADIA UNIVERSITY,450 S EASTON ROAD,,GLENSIDE,PA,19038,JULIE ROSNER-LENGELE,CONTROLLER,2155722815,,ROSNERJ@ARCADIA.EDU,02/27/2023 19:01:12,JULIE LENGELE-UNIVERSITY CONTROLLER,"BAKER TILLY US, LLP","1650 MARKET STREET, SUITE 4500",,PHILADELPHIA,PA,19103,JOSEPH SASSA,PARTNER,2159722539,,JOSEPH.SASSA@BAKERTILLY.COM,02/27/2023 19:34:57,,O,,U,N,N,N,N,U,750000,Y,,44767052,,N,N,N,N,N,N,,84,02/27/2023 00:00:00,03/03/2023 01:30:07,,N,504,1,x00,02/27/2023 00:00:00,,N,JULIE LENGELE,UNIVERSITY CONTROLLER,02/27/2023 00:00:00,390859910,N,,N,N,,,,,Institution of higher education (IHE),UG,00323500,03/06/2023 14:22:31,03/09/2023 09:37:31,N,B,06/01/2021 00:00:00,,HT3NK1QGE1H8,N,US
1463342,916762022,2022,91676,06/30/2022 00:00:00,S,A,,N,610444780,,N,081015281,SPALDING UNIVERSITY,845 S. THIRD STREET,,LOUISVILLE,KY,40203,EZRA KRUMHANSL,CHIEF FINANCIAL OFFICER,8592805103,,EKRUMHANSL@SPALDING.EDU,01/04/2023 15:56:45,EZRA KRUMHANSL-CHIEF OPERATING OFFICER,CROWE LLP,"485 LEXINGTON AVENUE, FLOOR 11",,NEW YORK,NY,100178112,KELLY FRANK,PARTNER,2127518112,,KELLY.FRANK@CROWE.COM,01/06/2023 08:38:15,,O,,U,Y,N,N,N,U,750000,N,,26760703,,Y,N,N,Y,N,N,,84,01/06/2023 00:00:00,01/10/2023 01:30:06,,N,904,1,x93x84x00,01/06/2023 00:00:00,,N,EZRA KRUMHANSL,CHIEF OPERATING OFFICER,01/06/2023 00:00:00,350921680,N,,Y,Y,,,,,Institution of higher education (IHE),UG,00196000,01/20/2023 16:01:57,01/26/2023 10:15:23,S,B,07/01/2021 00:00:00,,J3KPEDNN74R6,N,US
1481438,2575482022,2022,257548,06/30/2022 00:00:00,S,A,,N,510172421,,N,,SEATTLE CHILDREN'S THEATRE ASSOCIATION,201 THOMAS STREET,,SEATTLE,WA,981094555,TONY FROEHLICH,DIRECTOR OF FINANCE AND OPERATIONS,2068594019,,TONYF@SCT.ORG,03/29/2023 18:04:42,TONY FROEHLICH-DIRECTOR OF FINANCE & OPS,CLARK NUBER P.S.,"10900 NE 4TH STREET, SUITE 1400",,BELLEVUE,WA,98004,SARAH WINE,SHAREHOLDER,4254544949,,SARAHW@CLARKNUBER.COM,03/29/2023 17:42:30,,O,,U,Y,N,N,N,U,750000,N,,1882390,,N,N,N,N,N,N,,59,03/29/2023 00:00:00,03/31/2023 01:30:04,,N,888,1,x00,03/29/2023 00:00:00,,N,TONY FROEHLICH,DIRECTOR OF FINANCE & OPS,03/29/2023 00:00:00,911194016,N,,Y,N,,,,,Non-profit,UG,,,,,,07/01/2021 00:00:00,,FS2YPS8TGTD6,N,US
1456714,1699172022,2022,169917,06/30/2022 00:00:00,S,A,,N,231671314,,N,100069350,COCALICO SCHOOL DISTRICT,SOUTH FOURTH STREET,,DENVER,PA,175170800,MS. SHERRI STULL,BUSINESS MANAGER,7173361415,,SHERRI_STULL@COCALICO.ORG,12/05/2022 17:19:51,SHERRI STULL-BUSINESS MANAGER,TROUT CPA,1705 OREGON PIKE,,LANCASTER,PA,176014200,MS. MEGAN SENKOWSKI,PARTNER,7175692900,,MSENKOWSKI@TROUTCPA.COM,12/06/2022 11:33:28,,O,,U,N,N,N,N,U,750000,Y,,5932907,,N,N,N,N,N,N,,84,12/06/2022 00:00:00,12/09/2022 01:30:08,,N,505,1,x00,12/06/2022 00:00:00,,N,SHERRI STULL,BUSINESS MANAGER,12/06/2022 00:00:00,231551315,N,,N,N,,,,,Local government,UG,,12/09/2022 13:13:54,12/15/2022 07:53:45,N,G,07/01/2021 00:00:00,,EFBMXJLV6HF4,N,US
1462999,1810062022,2022,181006,06/30/2022 00:00:00,S,A,,N,411801895,,N,,INDEPENDENT SCHOOL DISTRICT NO 2689,1401 7TH ST SW,,PIPESTONE,MN,56164,JACQUE KENNEDY,BUSINESS MANAGER,5078256718,,JACQUE.KENNEDY@PAS.K12.MN.US,12/29/2022 16:56:24,JACQUE KENNEDY-BUSINESS MANAGER,"MEULEBROECK, TAUBERT & CO.,PLLP","216 EAST MAIN, PO BOX 707",,PIPESTONE,MN,56164,MATT TAUBERT,PARTNER,5078254288,,MTAUBERT@MTCOCPA.COM,12/29/2022 16:49:09,,O,,U,N,Y,N,N,U,750000,N,,2800402,,N,N,N,N,N,N,,84,12/30/2022 00:00:00,01/03/2023 01:30:07,,N,505,1,x00,12/30/2022 00:00:00,,N,JACQUE KENNEDY,BUSINESS MANAGER,12/30/2022 00:00:00,411987097,Y,,N,N,,,,,Local government,UG,,01/15/2023 15:56:58,01/19/2023 06:35:12,N,G,07/01/2021 00:00:00,,DHBTCF8RGHM5,N,US
1466039,1813292022,2022,181329,06/30/2022 00:00:00,S,A,,N,526001022,,N,080557614,BOARD OF EDUCATION OF SOMERSET COUNTY,7982A TAWES CAMPUS DRIVE,,WESTOVER,MD,21871,LINDA JOHNSON,CFO,4106511616,,LRJOHNSON@SOMERSET.K12.MD.US,03/01/2023 13:44:27,"LINDA JOHNSON, CFO-CFO",UHY LLP,955 MT HERMON ROAD,,SALISBURY,MD,21804,"RONALD HICKMAN, CPA",MANAGING DIRECTOR,4107421328,,RHICKMAN@UHY-US.COM,03/01/2023 14:34:57,,O,,U,N,N,N,N,U,750000,Y,,10997900,,N,N,N,N,N,N,,84,03/01/2023 00:00:00,03/03/2023 01:30:07,,N,105,1,x00,03/01/2023 00:00:00,,N,"LINDA JOHNSON, CFO",CFO,03/01/2023 00:00:00,200694403,N,,N,N,,,,,Local government,UG,,03/08/2023 14:12:13,03/09/2023 09:37:31,N,G,07/01/2021 00:00:00,,FZPLCEDYE7L8,N,US
1482591,1918482022,2022,191848,06/30/2022 00:00:00,S,A,,N,816000431,,N,182311621,BELGRADE PUBLIC SCHOOLS,PO BOX 166,,BELGRADE,MT,59714,CARRIE FISHER,CLERK,4069242031,,CFISHER@BSD44.ORG,03/30/2023 20:17:33,CARRIE FISHER-DIRECTOR OF FINANCE,"DENNING, DOWNEY AND ASSOCIATES CPA",PO BOX 1957,,KALISPELL,MT,59903,ROBERT DENNING,OWNDER,4067566879,,CCLARK@DDAUDIT.COM,03/30/2023 13:23:11,,O,,U,Y,Y,Y,N,U,750000,N,,6571938,,N,N,N,N,N,N,,84,03/30/2023 00:00:00,04/01/2023 01:30:03,,N,505,1,x00,03/30/2023 00:00:00,,N,CARRIE FISHER,DIRECTOR OF FINANCE,03/30/2023 00:00:00,810514223,Y,,Y,N,,,,,Local government,UG,,04/12/2023 12:17:29,04/13/2023 10:23:02,N,G,07/01/2021 00:00:00,,XXXXXXXXXXXX,N,US
1473314,1982662022,2022,198266,09/30/2022 00:00:00,S,A,,N,582271714,,N,,CATHERINE BOOTH RESIDENCE INC A FLORIDA CORPORATION,625 LAKE DOT CIRCLE,,ORLANDO,FL,32801,MAJOR PHILIP SWYERS,TERRITORIAL FINANCIAL SECRETARY,4047286700,,PHIL.SWYERS@USS.SALVATIONARMY.ORG,02/28/2023 09:42:15,PHILIP SWYERS-ASST TREASURER,COHNRENICK LLP,"3560 LENOX RD NE, SUITE 2900",,ATLANTA,GA,30326,AMY BLOCKER,PARTNER,4048479447,,AMY.BLOCKER@COHNREZNICK.COM,02/27/2023 14:13:35,,O,,U,N,N,N,N,Q,750000,N,,9010290,,N,Y,N,Y,Y,N,,14,02/28/2023 00:00:00,03/03/2023 01:30:07,,N,903,1,x14,02/28/2023 00:00:00,,N,PHILIP SWYERS,ASST TREASURER,02/28/2023 00:00:00,221478099,N,,N,N,,,,,Non-profit,UG,,,,,,10/01/2021 00:00:00,,D6VLAANVC5E7,N,US
1465381,2400922022,2022,240092,06/30/2022 00:00:00,S,A,,N,452544052,,N,,"DC SCHOLARS PUBLIC CHARTER SCHOOL, INC.",5601 E. CAPITOL ST SE,,WASHINGTON,DC,20019,JENNIFER LEONARD,EXECUTIVE COACH,2025509323,,JLEONARD@DCSCHOLARS.ORG,01/03/2023 12:23:06,JENNIFER LEONARD-EXECUTIVE COACH,JM&M,"1730 RHODE ISLAND AVENUE, NW",,WASHINGTON,DC,20036,TINA PEACHER,AUDIT PRINCIPAL,4108840220,,TPEACHER@JMMCPAFIRM.COM,01/04/2023 08:17:46,,O,,U,N,N,N,N,,750000,Y,,2591868,,N,N,N,N,N,N,,84,01/04/2023 00:00:00,01/06/2023 01:30:06,,N,888,1,x00,01/04/2023 00:00:00,,N,JENNIFER LEONARD,EXECUTIVE COACH,01/04/2023 00:00:00,521853933,N,,N,N,,,,,Non-profit,UG,,01/18/2023 11:49:16,01/19/2023 06:35:12,N,G,07/01/2021 00:00:00,,M7M4WK6HS1M5,N,US
1482692,1926532022,2022,192653,06/30/2022 00:00:00,S,A,,N,816001419,,N,013422808,RICHLAND COUNTY,201 WEST MAIN STREET,,SIDNEY,MT,59270,STEPHANIE VERHASSELT,CLERK & RECORDER,4064331708,,SVERHASSELT@RICHLAND.ORG,03/31/2023 11:03:16,STEPHANIE VERHASSELT-STEPHANIE VERHASSELT,"DENNING, DOWNEY AND ASSOCIATES CPA'S",PO BOX 1957,,KALISPELL,MT,59903,ROBERT DENNING,OWNER,4067566879,,CCLARK@DDAUDIT.COM,03/30/2023 13:54:40,,O,,U,N,N,N,N,U,750000,N,,2467086,,N,N,N,N,N,N,,21,03/31/2023 00:00:00,04/05/2023 01:30:04,,N,100,1,x00,03/31/2023 00:00:00,,N,STEPHANIE VERHASSELT,STEPHANIE VERHASSELT,03/31/2023 00:00:00,810514223,N,,N,N,,,,,Local government,UG,,,,,,07/01/2021 00:00:00,,XXXXXXXXXXXX,N,US
1476313,2572632022,2022,257263,09/30/2022 00:00:00,S,A,,N,720966415,,N,037652950,IOWA HOUSING AUTHORITY,603 N. PARK DR,,IOWA,LA,70647,MIKE ESTES,CPA,8178313556,,IHA231603@GMAIL.COM,03/06/2023 17:07:22,PAMELA FONTENOT-EXECUTIVE DIRECTOR,"MIKE ESTES, P.C.","4040 FOSSIL CREEK BLVD, SUITE 100",,FORT WORTH,TX,76137,MIKE ESTES,CPA,8178313556,,OFFICE@MIKEESTESPC.COM,03/06/2023 17:12:11,,O,,U,N,N,N,N,U,750000,N,,843787,,N,N,N,N,N,N,,14,03/06/2023 00:00:00,03/08/2023 01:30:06,,N,888,1,x00,03/06/2023 00:00:00,,N,PAMELA FONTENOT,EXECUTIVE DIRECTOR,03/06/2023 00:00:00,752819715,N,,N,N,,,,,Local government,UG,,,,,,10/01/2021 00:00:00,,GPJNM6ULSZB4,N,US
1472809,2406032022,2022,240603,06/30/2022 00:00:00,S,A,,N,300604758,,N,086807973,"PATHWAYS VERMONT, INC.",PO BOX 127,,WINOOSKI,VT,05404,AMANDA KURTZ,FINANCE DIRECTOR,8024928218,,AMANDA@PATHWAYSVERMONT.ORG,02/14/2023 13:12:16,AMANDA KURTZ-FINANCE DIRECTOR,"JMM & ASSOCIATES, PC","336 WATER TOWER CIRCLE, SUITE 801",,COLCHESTER,VT,05446,"RANDALL L. SARGENT, CPA",AUDIT PARTNER,8026555665,,RLS@JMMCPA.NET,02/14/2023 13:41:52,,O,,U,N,N,N,N,U,750000,Y,,5238213,,N,N,N,N,N,N,,93,02/14/2023 00:00:00,02/16/2023 01:30:07,,N,888,1,x00,02/14/2023 00:00:00,,N,AMANDA KURTZ,FINANCE DIRECTOR,02/14/2023 00:00:00,030280081,N,,N,N,,,,,Non-profit,UG,,,,,,07/01/2021 00:00:00,,CELPF3N52T96,N,US
1462921,1977742022,2022,197774,06/30/2022 00:00:00,S,A,,N,526002611,,N,022536213,TRUSTEES OF THE WALTERS ART GALLERY,600 N CHARLES STREET,,BALTIMORE,MD,21201,MICHELLE RHODESBROWN,DIRECTOR OF FINANCE,4105479000,,MRHODESBROWN@THEWALTERS.ORG,12/22/2022 12:04:37,MICHELLE RHODESBROWN-DIRECTOR OF FINANCE & INVESTMENTS,ELLIN & TUCKER,400 EAST PRATT STREET,,BALTIMORE,MD,21202,MICHAEL STRAUSS,DIRECTOR,4107275735,,MSTRAUSS@ELLINANDTUCKER.COM,12/27/2022 09:18:23,,O,,U,N,N,N,N,U,750000,Y,,968184,,N,N,N,N,N,N,,45,01/03/2023 00:00:00,01/05/2023 01:30:07,,N,909,1,x00,01/03/2023 00:00:00,,N,MICHELLE RHODESBROWN,DIRECTOR OF FINANCE & INVESTMENTS,01/03/2023 00:00:00,520959934,N,,N,N,,,,,Non-profit,UG,,,,,,07/01/2021 00:00:00,,EQ5HKV5HWKG5,N,US
1472341,2237272022,2022,223727,08/31/2022 00:00:00,S,A,,N,760557273,,N,,"TWO DIMENSIONS PREPARATORY ACADEMY, INC.",12330 VICKERY,,HOUSTON,TX,77039,LADEIRDRE CONERLY,CFO,2812274702,,LCONERLY@TWODIMENSIONS.ORG,02/21/2023 11:18:40,LADEIRDRE CONERLY-CFO,RANDY WALKER & CO.,"7800 IH 10 WEST, STE. 505",,SAN ANTONIO,TX,78230,NATALIE KUHN,AUDIT PARTNER,2103669430,,PSMITH@CPATX.COM,02/22/2023 12:15:25,,O,,U,N,N,N,N,U,750000,N,,755161,,N,N,N,N,N,N,,84,02/22/2023 00:00:00,02/24/2023 01:30:06,,N,905,1,x00,02/22/2023 00:00:00,,N,LADEIRDRE CONERLY,CFO,02/22/2023 00:00:00,203992693,N,,N,N,,,,,Non-profit,UG,,02/28/2023 14:36:20,03/02/2023 10:23:11,N,G,09/01/2021 00:00:00,,LLPFXNZ8CQR1,N,US
1453345,1484442022,2022,148444,06/30/2022 00:00:00,S,A,,N,042377609,,N,244653194,READING HOUSING AUTHORITY,22 FRANK TANNER DRIVE,,READING,MA,018672399,KATHRYN GALLANT,EXECUTIVE DIRECTOR,7819446755,,KGALLANT@READINGHOUSING.ORG,03/23/2023 11:51:47,KATHRYN GALLANT-EXECUTIVE DIRECTOR,MARCUM LLP,155 SOUTH MAIN STREET SUITE 100,,PROVIDENCE,RI,02903,MICHAEL GUYDER,PARTNER,4016004725,,MICHAEL.GUYDER@MARCUMLLP.COM,03/16/2023 12:16:04,,O,,U,N,N,N,N,U,750000,Y,,2148358,,N,N,N,N,N,N,,14,03/23/2023 00:00:00,03/25/2023 01:30:06,,N,403,1,x00,03/23/2023 00:00:00,,N,KATHRYN GALLANT,EXECUTIVE DIRECTOR,03/23/2023 00:00:00,111986323,N,,N,N,,,,,Non-profit,UG,,,,,,07/01/2021 00:00:00,,C9GXYR7SHYJ5,N,US
1452293,2557222022,2022,255722,06/30/2022 00:00:00,S,A,,N,473829757,,N,,GEM PREP: POCATELLO LLC,600 SOUTH AVE,,DEARY,ID,83823,LORI BOGAR,DIRECTOR OF FINANCE,8008715057,,LORIBOGAR@GEMPREP.ORG,10/25/2022 18:49:13,LORI BOGAR-DIRECTOR OF FINANCE,"HAYDEN ROSS, PLLC",315 S ALMON ST,,MOSCOW,ID,83843,TONY MATSON,PARTNER,2088825547,,TMATSON@HAYDENROSS.COM,10/24/2022 10:39:07,,O,,U,N,N,N,N,U,750000,N,,842934,,N,N,N,N,N,N,,84,10/25/2022 00:00:00,10/28/2022 01:30:06,,N,888,1,x00,10/25/2022 00:00:00,,N,LORI BOGAR,DIRECTOR OF FINANCE,10/25/2022 00:00:00,460531452,N,,N,N,,,,,Local government,UG,,10/31/2022 14:48:35,11/03/2022 07:43:14,N,G,07/01/2021 00:00:00,,DZXLR3QBGK38,N,US
1481965,2057702022,2022,205770,06/30/2022 00:00:00,S,A,,N,956000810,,N,071914824,CITY OF WEST COVINA,1444 W. GARVEY AVE S,,WEST COVINA,CA,917902716,STEPHANIE SIKKEMA,FINANCE DIRECTOR,6269398463,,SSIKKEMA@WESTCOVINA.ORG,03/28/2023 17:18:18,STEPHANIE SIKKEMA-FINANCE DIRECTOR,"VAN LANT AND FANKHANEL, LLP","29970 TECHNOLOGY DR., SUITE 105A",,MURRIETA,CA,92563,BRETT VAN LANT,PARTNER,9512834848,,BVANLANT@VLFCPA.COM,03/28/2023 16:36:34,,O,,U,N,N,N,N,U,750000,N,,12945348,,N,N,N,N,N,N,,21,03/28/2023 00:00:00,03/31/2023 01:30:04,,N,200,1,x00,03/28/2023 00:00:00,,N,STEPHANIE SIKKEMA,FINANCE DIRECTOR,03/28/2023 00:00:00,461814856,N,,N,N,,,,,Local government,UG,,,,,,07/01/2021 00:00:00,,ZHHFLMKMZKL1,N,US
1474471,557362022,2022,55736,08/31/2022 00:00:00,S,A,,N,381988915,,N,076371376,THOMAS M. COOLEY LAW SCHOOL,300 S. CAPITOL AVENUE,,LANSING,MI,48933,PAUL ZELENSKI,ASSOCIATE DEAN OF ENROLLMENT,5173715140,,ZELENSKP@COOLEY.EDU,03/10/2023 10:11:04,RONDA BECK-CONTROLLER/ASST VP OF FINANCE,"PLANTE & MORAN, PLLC","1000 OAKBOOK DRIVE, SUITE 400",,ANN ARBOR,MI,48104,KRISTEN STUMPO,PARTNER,7343026945,,PM.SINGLEAUDIT@PLANTEMORAN.COM,03/02/2023 11:47:56,,O,,U,N,N,N,N,U,750000,Y,,22461697,,N,N,N,N,N,N,,84,03/10/2023 00:00:00,03/15/2023 01:30:06,,N,904,1,x00,03/10/2023 00:00:00,,N,RONDA BECK,CONTROLLER/ASST VP OF FINANCE,03/10/2023 00:00:00,381357951,N,,N,N,,,,,Institution of higher education (IHE),UG,01262700,03/17/2023 13:03:22,03/23/2023 08:41:55,N,B,09/01/2021 00:00:00,,CT3YNEPESKA8,N,US
1476678,2052542022,2022,205254,06/30/2022 00:00:00,S,A,,N,371265156,,N,794425603,"CAIRO WOMEN'S SHELTER, INC.",1401 WASHINGTON AVE.,,CAIRO,IL,62914,EULA J. WOODS,EXECUTIVE DIRECTOR,6187344357,,CAIROWOMENSSHELTER@GMAIL.COM,03/06/2023 19:47:20,E. JEANNINE WOODS-EXECUTIVE DIRECTOR,SARAH GIBBENS CPA,101 EAST BROADWAY BLVD,,JOHSTON CITY,IL,62951,SARAH M GIBBENS,CPA,6189835929,,SARAH@GIBBENSCPA.COM,03/07/2023 08:55:21,,O,,U,N,N,N,N,U,750000,Y,,1173451,,N,N,N,N,N,N,,16,03/07/2023 00:00:00,03/10/2023 01:30:04,,N,908,1,x00,03/07/2023 00:00:00,,N,E. JEANNINE WOODS,EXECUTIVE DIRECTOR,03/07/2023 00:00:00,453343553,N,,N,N,,,,,Non-profit,UG,,,,,,07/01/2021 00:00:00,,QQFML677T3K5,N,US
1456697,2110862022,2022,211086,06/30/2022 00:00:00,S,A,,N,161603918,,N,127091457,CHARTER SCHOOL FOR APPLIED TECHNOLOGIES,2303 KENMORE AVENUE,,BUFFALO,NY,14207,TANYA MOORE,CFO,7168767505,,TMOORE@CSAT-K12.ORG,11/22/2022 12:19:30,TANYA MOORE-CFO,"LUMSDEN & MCCORMICK, LLP",369 FRANKLIN STREET,,BUFFALO,NY,14202,DONNA GONSER,PARTNER,7168563300,,DGONSER@LUMSDENCPA.COM,11/22/2022 13:35:03,,O,,U,N,N,N,N,U,750000,Y,,5669497,,N,N,N,N,N,N,,84,11/22/2022 00:00:00,11/30/2022 01:30:08,,N,205,1,x00,11/22/2022 00:00:00,,N,TANYA MOORE,CFO,11/22/2022 00:00:00,160765486,N,,N,N,,,,,Local government,UG,,11/30/2022 14:06:02,12/01/2022 08:03:46,N,G,07/01/2021 00:00:00,,TGJ5EZ862LV2,N,US
1452442,2099242022,2022,209924,06/30/2022 00:00:00,S,A,,N,364304808,,N,041989414,"AHEPA/PENELOPE 35, INC.",10601 BEARD AVENUE SOUTH,,BLOOMINGTON,MN,554313646,DAWN COLE,CONTROLLER,3178453410,,DCOLE@AHEPASENIORLIVING.ORG,03/24/2023 05:42:04,DAWN COLE-CONTROLLER,CLARK SCHAEFER HAKETT & COMPANY,14 EAST MAIN STREET,,SPRINGFIELD,OH,45502,ROBERT KITCHEN,SHAREHOLDER,9373992000,,RKITCHEN@CSHCO.COM,03/18/2023 09:59:11,,O,,U,N,N,N,N,U,750000,Y,,3413824,,N,N,N,N,N,N,,14,03/24/2023 00:00:00,03/29/2023 01:30:03,,N,903,1,x00,03/24/2023 00:00:00,,N,DAWN COLE,CONTROLLER,03/24/2023 00:00:00,310800053,N,,N,N,,,,,Non-profit,UG,,,,,,07/01/2021 00:00:00,,ZVEJCTVFVJK3,N,US
1454930,2018792022,2022,201879,06/30/2022 00:00:00,S,A,,N,232051143,,N,195485453,"CONGRESO DE LATINO UNIDOS, INC. AND AFFILIATES",216 WEST SOMERSET STREET,,PHILADELPHIA,PA,19133,LISA AUERBACH,CHIEF FINANCIAL OFFICER,2679469008,,AUERBACHL@CONGRESO.NET,11/10/2022 16:44:25,LISA AUERBACH-CHIEF FINANCIAL OFFICER,EISNERAMPER LLP,"130 NORTH 18TH STREET, SUITE 3000",,PHILADELPHIA,PA,19103,JIMMY MO,PARTNER,2158818850,,JIMMY.MO@EISNERAMPER.COM,11/10/2022 16:39:16,,O,,U,N,N,N,N,U,750000,Y,,9743992,,N,N,N,N,N,N,,93,11/10/2022 00:00:00,11/15/2022 01:30:06,,N,908,1,x00,11/10/2022 00:00:00,,N,LISA AUERBACH,CHIEF FINANCIAL OFFICER,11/10/2022 00:00:00,131639826,N,,N,N,,,,,Non-profit,UG,,11/15/2022 14:43:46,11/17/2022 07:19:49,N,G,07/01/2021 00:00:00,,CJZ8NE8NBLR3,N,US
1458229,1963182022,2022,196318,06/30/2022 00:00:00,S,A,,N,581876019,,N,081566445,"HOUSTON VOA INDEPENDENT HOUSING, INC. (HEIGHTS MANOR)",1660 DUKE STREET,,ALEXANDRIA,VA,22314,VANESSA TRAN,"CONTROLLER, HOUSING",7033415000,,VTRAN@VOA.ORG,12/22/2022 10:50:29,VANESSA TRAN-CONTROLLER,"MADDOX & ASSOCIATES, APC","5627 BANKERS AVENUE, BUILDING 2",,BATON ROUGE,LA,708082610,BRYAN BEALE,CPA,2259263360,,MAIL@MADDOXASSOCIATES.COM,12/27/2022 11:02:16,,O,,U,N,N,N,N,U,750000,Y,,1438291,,N,N,N,Y,N,N,,14,12/27/2022 00:00:00,01/03/2023 01:30:07,,N,903,1,x00x14,12/27/2022 00:00:00,,N,VANESSA TRAN,CONTROLLER,12/27/2022 00:00:00,721314069,N,,N,N,,,,,Non-profit,UG,,,,,,07/01/2021 00:00:00,,MU66HXAWRF95,N,US
1485321,1942922022,2022,194292,08/31/2022 00:00:00,S,A,,N,916012236,,N,011791175,WARDEN SCHOOL DISTRICT NO. 146-161,101 W. BECK WAY,,WARDEN,WA,988579401,KASSANDRIA ROULEAU,DIRECTOR OF FINANCE,5093492366,,KROULEAU@WARDEN.WEDNET.EDU,05/24/2023 12:21:15,KASSANDRIA ROULEAU-DIRECTOR OF FINANCE,OFFICE OF THE WASHINGTON STATE AUDITOR,"316 W. BOONE AVE., STE. 680",,SPOKANE,WA,99201,ALISHA SHAW,PROGRAM MANAGER,5099192851,,ALISHA.SHAW@SAO.WA.GOV,05/24/2023 12:12:01,,O,,AS,N,Y,N,N,U,750000,Y,,3346949,,N,Y,N,Y,N,N,,84,05/24/2023 00:00:00,05/26/2023 01:30:05,,N,505,1,x00,05/24/2023 00:00:00,,N,KASSANDRIA ROULEAU,DIRECTOR OF FINANCE,05/24/2023 00:00:00,916001098,Y,,N,N,REGULATORY,Y,U,,Local government,UG,,05/30/2023 14:56:10,06/01/2023 10:21:25,G,G,09/01/2021 00:00:00,,CVCJV2ZL5HN3,N,US
1478402,1525042022,2022,152504,09/30/2022 00:00:00,S,A,,N,640652582,,N,139233597,JACKSON COUNTY UTILITY AUTHORITY,1225 JACKSON AVE,,PASCAGOULA,MS,39567,LINDA GREEN,DIRECTOR OF FINANCE,2287620119,,LGREEN@JCUA-MS.US,03/28/2023 15:40:05,LINDA GREEN-DIRECTOR OF FINANCE & ADMINISTRATION,"ALEXANDER, VAN LOON, SLOAN, LEVENS & FAVRE PLLC",9490 THREE RIVERS RD,,GULFPORT,MS,39503,KIM MARMALICH,AUDIT PARTNER,2288630411,,KMARMALICH@AVLCPA.COM,03/28/2023 15:45:26,,O,,U,N,N,N,N,U,750000,N,,4360084,,N,N,N,N,N,N,,66,03/28/2023 00:00:00,03/31/2023 01:30:04,,N,407,1,x00,03/28/2023 00:00:00,,N,LINDA GREEN,DIRECTOR OF FINANCE & ADMINISTRATION,03/28/2023 00:00:00,640654714,N,,N,N,,,,,Local government,UG,,,,,,10/01/2021 00:00:00,,E9FHMXXD5JY6,N,US
1465231,2049892022,2022,204989,06/30/2022 00:00:00,S,A,,N,421487324,,N,015711919,"AHEPA 192-II, INC.",202 SE 30TH STREET,,ANKENY,IA,50021,DAWN COLE,CONTROLLER,3178453410,,DCOLE@AHEPASENIORLIVING.ORG,05/04/2023 09:19:18,DAWN COLE-CONTROLLER,CLARK SCHAEFER HACKETT & COMPANY,14 EAST MAIN STREET,,SPRINGFIELD,OH,45502,ROBERT KITCHEN,SHAREHOLDER,9373992000,,RKITCHEN@CSHCO.COM,03/18/2023 14:52:54,,O,,U,N,N,N,N,U,750000,Y,,3030158,,N,N,N,N,N,N,,14,05/04/2023 00:00:00,05/06/2023 01:30:05,,N,903,1,x00,05/04/2023 00:00:00,,N,DAWN COLE,CONTROLLER,05/04/2023 00:00:00,310800053,N,,N,N,,,,,Non-profit,UG,,,,,,07/01/2021 00:00:00,,V26MVNZPNF51,N,US
1467041,1808782022,2022,180878,06/30/2022 00:00:00,S,A,,N,610434631,,N,148482185,OWENSBORO-DAVIESS COUNTY REGIONAL AIRPORT BOARD,2200 AIRPORT ROAD,,OWENSBORO,KY,42301,TRISTAN DURBIN,AIRPORT DIRECTOR,2706854179,,TRISTAN@OWB.NET,01/11/2023 14:46:44,TRISTAN DURBIN-AIRPORT DIRECTOR,ALEXANDER & COMPANY CPAS PSC,"2707 BRECKENRIDGE STREET, STE 1",,OWENSBORO,KY,42303,JOSEPH KELLER,AUDIT DIRECTOR,2706843237,,JOKELLER@ACOCPA.NET,01/10/2023 10:36:10,,O,,U,N,Y,N,N,U,750000,N,,891521,,Y,N,N,Y,Y,N,,20,01/11/2023 00:00:00,01/13/2023 01:30:05,,N,201,1,x20,01/11/2023 00:00:00,,N,TRISTAN DURBIN,AIRPORT DIRECTOR,01/11/2023 00:00:00,611120064,Y,,N,Y,,,,,Local government,UG,,,,,,07/01/2021 00:00:00,,HTNZMSGBKFG1,N,US
1479849,1324012022,2022,132401,06/30/2022 00:00:00,S,A,,N,946003048,,N,173281056,HOUSING AUTHORITY OF THE CITY OF ALAMEDA,701 ATLANTIC AVENUE,,ALAMEDA,CA,94501,LOUIE SO,DIRECTOR OF FINANCE,5107474313,,LSO@ALAMEDAHSG.ORG,03/24/2023 13:44:53,LOUIE SO-DIRECTOR OF FINANCE,NOVOGRADAC & COMPANY,"1144 HOOPER AVENUE, SUITE 203",,TOMS RIVER,NJ,08753,RICH LARSEN,PARTNER,7326237003,,RICH.LARSEN@NOVOCO.COM,03/27/2023 14:29:08,,O,,U,N,N,N,N,U,1137717,N,,37923903,,N,N,N,N,N,N,,14,03/27/2023 00:00:00,03/29/2023 01:30:03,,N,403,1,x00,03/27/2023 00:00:00,,N,LOUIE SO,DIRECTOR OF FINANCE,03/27/2023 00:00:00,943108253,N,,N,N,,,,,Local government,UG,,,,,,07/01/2021 00:00:00,,YG6XENAX1B56,N,US
1463235,2496182022,2022,249618,09/30/2022 00:00:00,S,A,,N,383272394,,N,023584803,"MACOMB COUNTY CHILD ADVOCACY CENTER, INC.",131 MARKET STREET,,MOUNT CLEMENS,MI,48043,DORIE VAZQUEZ-NOLAN,EXECUTIVE DIRECTOR,5864630123,,DORIEV@MCCAREHOUSE.ORG,02/22/2023 10:49:52,DORIE VAZQUEZ-NOLAN-EXECUTIVE DIRECTOR,"BAKER TILLY US, LLP",2000 TOWN CENTER SUITE 900,,SOUTHFIELD,MI,48075,LAURIE HORVATH,PARTNER,2483688868,,LAURIE.HORVATH@BAKERTILLY.COM,02/20/2023 16:33:44,,O,,U,N,N,N,N,U,750000,Y,,1016094,,N,N,N,N,N,N,,16,02/23/2023 00:00:00,02/25/2023 01:30:08,,N,888,1,x00,02/23/2023 00:00:00,,N,DORIE VAZQUEZ-NOLAN,EXECUTIVE DIRECTOR,02/23/2023 00:00:00,380859910,N,,N,N,,,,,Non-profit,UG,,,,,,10/01/2021 00:00:00,,XTBCTJVNBHJ5,N,US
1459726,2089962022,2022,208996,06/30/2022 00:00:00,S,A,,N,770648133,,N,,CANADIAN SCHOOL DISTRICT NO. I-2,PO BOX 168,,CANADIAN,OK,74425,LAURA GRAGG,SUPERINTENDENT,9183392705,,LGRAGG@CANADIAN.K12.OK.US,01/12/2023 12:24:28,LAURA GRAGG-SUPERINTENDENT,BLEDSOE HEWETT & GULLEKSON,"PO BOX 1310, ",,BROKEN ARROW,OK,740131310,JEFF HEWETT,PARTNER,9184999991,,JHEWETT@BHGAUDIT.COM,12/16/2022 17:38:02,,O,,S,N,N,N,N,U,750000,N,,1614528,,N,N,N,N,N,N,,84,01/12/2023 00:00:00,01/14/2023 01:30:07,,N,505,1,x00,01/12/2023 00:00:00,,N,LAURA GRAGG,SUPERINTENDENT,01/12/2023 00:00:00,141891056,N,,N,N,REGULATORY,Y,Q,,Local government,UG,,01/24/2023 12:55:04,01/26/2023 10:15:23,N,G,07/01/2021 00:00:00,,M9FNFLN9NJ55,N,US
1466125,2523392022,2022,252339,06/30/2022 00:00:00,S,A,,N,205886784,,N,,HEALTH SCIENCES HIGH AND MIDDLE COLLEGE,3910 UNIVERSITY AVE,,SAN DIEGO,CA,92105,IAN PUMPIAN,PRESIDENT/CHIEF EXECUTIVE OFFICER,6195289070,,IPUMPIAN@SDSU.EDU,02/16/2023 20:41:09,SHERI JOHNSON-PRINCIPAL,EIDE BAILLY LLP,"10681 FOOTHILL BLVD, SUITE 300",,RANCHO CUCAMONGA,CA,91730,BRIAN RUFF,PARTNER,9094664410,,BRUFF@EIDEBAILLY.COM,02/06/2023 16:39:17,,O,,U,N,N,N,N,U,750000,N,,891803,,N,N,N,N,N,N,,84,02/17/2023 00:00:00,02/21/2023 01:30:06,,N,888,1,x00,02/17/2023 00:00:00,,N,SHERI JOHNSON,PRINCIPAL,02/17/2023 00:00:00,450250958,N,,N,N,,,,,Non-Profit,UG,,02/24/2023 14:15:35,03/02/2023 10:23:11,N,G,07/01/2021 00:00:00,,V9MYGGZEQ2C6,N,US
1478611,1339512022,2022,133951,06/30/2022 00:00:00,S,A,,N,946002711,,N,,WILLITS UNIFIED SCHOOL DISTRICT,1277 BLOSSER LANE,,WILLITS,CA,95490,MELISSA RAGSDALE,DIRECTOR OF FISCAL SERVICES,7074595314,,MELISSARAGSDALE@WILLITSUNIFIED.COM,03/28/2023 11:29:22,MELISSA RAGSDALE-DIRECTOR OF FISCAL SERVICES,CHRISTY WHITE INC.,348 OLIVE STREET,,SAN DIEGO,CA,92103,MICHAEL ASH,PARTNER,6192708222,,MASH@CHRISTYWHITE.COM,03/28/2023 12:15:00,,O,,U,N,N,N,N,U,750000,Y,,4347588,,N,N,N,N,N,N,,84,03/28/2023 00:00:00,03/31/2023 01:30:04,,N,505,1,x00,03/28/2023 00:00:00,,N,MELISSA RAGSDALE,DIRECTOR OF FISCAL SERVICES,03/28/2023 00:00:00,272956198,N,,N,N,,,,,Local government,UG,,04/07/2023 12:31:54,04/13/2023 10:23:02,N,G,07/01/2021 00:00:00,,MHXQHBJ712M6,N,US
1455174,1298102022,2022,129810,06/30/2022 00:00:00,S,A,,N,920029587,,N,159626670,BRISTOL BAY BOROUGH SCHOOL DISTRICT,P.O. BOX 169,,NAKNEK,AK,99633,YVONNE PHELPS,BUSINESS MANAGER,9072464225,,BUSINESSMANAGER@BBBSD.NET,11/16/2022 18:28:04,YVONNE PHELPS-BUSINESS MANAGER,"ALTMAN, ROGERS & CO.","3000 C STREET, SUITE 201",,ANCHORAGE,AK,99503,GRANT R. TODD,PRINCIPAL,9072742992,,FEDCENSUS@ALTROGCO.COM,11/09/2022 20:03:33,,O,,U,N,N,N,N,U,750000,N,,1312559,,N,N,N,N,N,N,,84,11/16/2022 00:00:00,11/18/2022 01:30:09,,N,105,1,x00,11/16/2022 00:00:00,,N,YVONNE PHELPS,BUSINESS MANAGER,11/16/2022 00:00:00,920143182,N,,N,N,,,,,State,UG,,11/20/2022 13:43:50,12/01/2022 08:03:46,N,G,07/01/2021 00:00:00,,NC2DNP764VJ9,N,US
1454457,1814502022,2022,181450,06/30/2022 00:00:00,S,A,,Y,850162247,,Y,153574637,ST. JOHN'S COLLEGE,1160 CAMINO DE CRUZ BLANCA,,SANTA FE,NM,87505,MICHAEL DURAN,TREASURER,5059846088,,MICHAEL.DURAN@SJC.EDU,11/21/2022 11:54:03,MICHAEL DURAN-TREASURER/CFO,MARCUM LLP,"1899 L ST. NW, SUITE 850",,WASHINGTON,DC,20036,MATT HUFFNER,PARTNER,2025549889,,MATT.HUFFNER@MARCUMLLP.COM,11/28/2022 14:04:14,,O,,U,N,Y,N,N,U,750000,Y,,9305061,,N,N,N,N,Y,N,,84,11/28/2022 00:00:00,12/04/2022 01:30:06,,N,904,1,x00x84,11/28/2022 00:00:00,,N,MICHAEL DURAN,TREASURER/CFO,11/28/2022 00:00:00,111986323,Y,,N,N,,,,,Non-profit,UG,00209300,12/05/2022 14:07:45,12/08/2022 07:34:55,N,B,07/01/2021 00:00:00,,Z2RUETN8LLM4,Y,US
1452007,2345232022,2022,234523,06/30/2022 00:00:00,S,A,,N,261747636,,N,187493655,"SUMMIT HOMES FOR ELDERLY, INC., VILLAGE GREEN APARTMENTS",407 E MAIN STREET,,MORRISTOWN,TN,37814,MARY HAZELWOOD,ASSISTANT DIRECTOR,4235861494,,MARYH@DOUGLASCHEROKEE.ORG,10/26/2022 13:29:12,KAY HALE-PRESIDENT,"PURKEY, CARTER, COMPTON, SWANN & CARTER, PLLC",P.O. BOX 727,,MORRISTOWN,TN,378150727,R. SUSIE CARTER,MEMBER,4235864850,,SCARTER@PCCSC.COM,10/28/2022 12:45:55,,O,,U,N,N,N,N,U,750000,Y,,840519,,N,N,N,N,N,N,,14,10/28/2022 00:00:00,11/01/2022 01:30:07,,N,903,1,x00,10/28/2022 00:00:00,,N,KAY HALE,PRESIDENT,10/28/2022 00:00:00,620882329,N,,N,N,,,,,Non-profit,UG,,,,,,07/01/2021 00:00:00,,K91DAARD6N66,N,US
1490950,2506612022,2022,250661,12/31/2022 00:00:00,S,A,,N,410883446,,N,111022187,CITY OF LINO LAKES,600 TOWN CENTER PARKWAY,,LINO LAKES,MN,55014,HANNAH LYNCH,FINANCE DIRECTOR,6519822405,,HLYNCH@LINOLAKES.US,06/12/2023 10:09:26,HANNAH LYNCH-FINANCE DIRECTOR,"REDPATH AND COMPANY, LTD",55 5TH ST. E #1400,,ST. PAUL,MN,55101,ANDY HERING,PARTNER,6514267000,,AHERING@REDPATHCPAS.COM,06/09/2023 10:06:25,,O,,U,N,N,N,N,U,750000,N,,2158433,,N,N,N,N,N,N,,21,06/12/2023 00:00:00,06/14/2023 01:30:04,,N,888,1,x00,06/12/2023 00:00:00,,N,HANNAH LYNCH,FINANCE DIRECTOR,06/12/2023 00:00:00,410975573,N,,N,N,,,,,Local government,UG,,,,,,01/01/2022 00:00:00,,US4LJ66SB5N5,N,US
1483728,2164982022,2022,216498,06/30/2022 00:00:00,S,A,,N,420946031,,N,,PRELUDE BEHAVIORAL SERVICES,430 SOUTHGATE AVE,,IOWA CITY,IA,52240,PAM BARKLEY,CONTROLLER,5155767261,,PAMELAB@CFRHELPS.ORG,04/03/2023 12:58:47,PAM BARKLEY-FINANCE DIRECTOR,"SCHNURR & COMPANY, LLP","822 CENTRAL AVE, SUITE 400",,FORT DODGE,IA,50501,MURRAY STANLEY,"PARTNER, CPA",5155767136,,MURRAY@SCHNURRLLP.COM,03/31/2023 10:13:42,,O,,U,N,N,N,N,U,750000,N,,2585897,,N,N,N,N,N,N,,93,04/03/2023 00:00:00,04/07/2023 01:30:06,,N,908,1,x00,04/03/2023 00:00:00,,N,PAM BARKLEY,FINANCE DIRECTOR,03/31/2023 00:00:00,421282836,N,,N,N,,,,,Local government,UG,,,,,,07/01/2021 00:00:00,,UKFAQMJAK3Z2,N,US
1489792,2123172022,2022,212317,08/31/2022 00:00:00,S,A,,N,916216260,,N,018930750,ORTING SCHOOL DISTRICT NO. 344,121 WHITESELL ST NE,,ORTING,WA,98360,MARCI BANNAN,DIRECTOR OF BUSINESS SERVICES,3608936500,,BANNANM@ORTING.WEDNET.EDU,05/30/2023 17:09:21,MARCI BANNAN-MARCI BANNAN,OFFICE OF THE WASHINGTON STATE AUDITOR,949 MARKET ST SUITE 560,,TACOMA,WA,98402,SAUNDRA GROSHONG,AUDIT MANAGER,2535233037,,SAUNDRA.GROSHONG@SAO.WA.GOV,05/30/2023 16:44:06,,O,,AS,N,N,N,N,U,750000,Y,,3596751,,N,N,N,N,N,N,,84,05/30/2023 00:00:00,06/02/2023 01:30:06,,N,505,1,x00,05/30/2023 00:00:00,,N,MARCI BANNAN,MARCI BANNAN,05/30/2023 00:00:00,916001098,N,,N,N,REGULATORY,,U,,Local government,UG,,06/07/2023 11:40:23,06/08/2023 08:47:12,N,G,09/01/2021 00:00:00,,SK1ZQCLYBLW7,N,US
1476109,2192322022,2022,219232,06/30/2022 00:00:00,S,A,,N,426039480,,N,073475444,NASHUA-PLAINFIELD COMMUNITY SCHOOL DISTRICT,612 GREELEY STREET,,NASHUA,IA,50658,BRITTNAY MCNEIL ,SBO,6413454835,,BMCNEIL@NASHUA-PLAINFIELD.K12.IA.US,03/03/2023 12:02:34,BRITTANY MCNEIL-BUSINESS OFFICIAL,KAY CHAPMAN CPA PC,116 HARRISON STREET,,MUSCATINE,IA,52761,KAY L CHAPMAN,PRESIDENT/CPA,5632641385,,KAYSOFFICE@CPAKAY.COM,03/06/2023 16:08:07,,O,,U,N,Y,N,N,U,750000,N,,1124339,,N,Y,N,Y,N,N,,84,03/06/2023 00:00:00,03/08/2023 01:30:06,,N,505,1,x00x84,03/06/2023 00:00:00,,N,BRITTANY MCNEIL,BUSINESS OFFICIAL,03/06/2023 00:00:00,391904727,Y,,N,N,,,,,Local government,UG,,03/13/2023 14:42:38,03/16/2023 08:44:21,G,G,07/01/2021 00:00:00,,NPLAPH6SLCK3,N,US
1483265,2507122022,2022,250712,06/30/2022 00:00:00,S,A,,N,112841113,,N,,CONGREGATION TEFILAH L'MOSHE D/B/A YESHIVA KOLLEL TIFERETH ELIZER,1227 47TH STREET,,BROOKLYN,NY,11219,HERSHEL LEV,CHIEF FINANCIAL OFFICER,7186008897,,HERSHELLEV@GMAIL.COM,03/30/2023 17:14:26,HERSHEL LEV-CFO,MAYER RISPLER & CO. CPA'S,18 HEYWARD,,BROOKLYN,NY,11249,MICHAEL FRIEDMAN,PARTNER,7188529200,,MICHAELF@RISPLERCPA.COM,03/30/2023 17:20:08,,O,,U,N,N,N,N,U,750000,Y,,2207409,,N,N,N,N,N,N,,84,03/30/2023 00:00:00,04/01/2023 01:30:03,,N,888,1,x00,03/30/2023 00:00:00,,N,HERSHEL LEV,CFO,03/30/2023 00:00:00,Ma3108982,N,,N,N,,,,,Institution of higher education (IHE),UG,04265900,04/14/2023 13:38:53,04/21/2023 10:36:42,N,B,07/01/2021 00:00:00,,N49CQKSWPHH3,N,US
1466530,1696852022,2022,169685,06/30/2022 00:00:00,S,A,,N,251157793,,N,100069616,HOLLIDAYSBURG AREA SCHOOL DISTRICT,405 CLARK STREET,,HOLLIDAYSBURG,PA,16648,AUTUMN FISCUS,BUSINESS MANAGER,8146964454,,AUTUMN.FISCUS@HASDTIGERS.COM,01/06/2023 12:51:46,AUTUMN FISCUS-BUSINESS MANAGER,"YOUNG, OAKES, BROWN & CO., P.C.",1210 13TH STREET,,ALTOONA,PA,16601,"DANIEL W. BRADLEY, CPA",PRINCIPAL,8149446191,,DBRADLEY@YOBCO.COM,01/06/2023 09:00:25,,O,,U,N,N,N,N,U,750000,Y,,4704484,,N,N,N,N,N,N,,84,01/06/2023 00:00:00,01/10/2023 01:30:06,,N,505,1,x00,01/06/2023 00:00:00,,N,AUTUMN FISCUS,BUSINESS MANAGER,01/06/2023 00:00:00,251589048,N,,N,N,,,,,Local government,UG,,01/20/2023 14:16:46,01/26/2023 10:15:23,N,G,07/01/2021 00:00:00,,JX6JSJVWCHZ9,N,US
1479957,2150102022,2022,215010,06/30/2022 00:00:00,S,A,,N,363909467,,N,,"CITIES IN SCHOOLS AURORA 2000, INC.",444 W. GALENA SUITE 202,,AURORA ,IL,60506,THERESA SHOEMAKER,EXECUTIVE DIRECTOR,6306929524,,TSHOEMAKER@CITIESINSCHOOLS.ORG,03/22/2023 16:13:53,THEREA SHOEMAKER-EXECUTIVE DIRECTOR,WIELAND WALLACE INC.,232 S. BATAVIA AVENUE,,BATAVIA,IL,60510,PAUL H. WIELAND,PRESIDENT,6304064490,,PAUL@WIELANDCPAS.NET,03/31/2023 17:39:26,,O,,U,N,N,N,N,U,750000,N,,1815934,,N,N,N,N,N,N,,84,03/31/2023 00:00:00,04/04/2023 01:30:04,,N,909,1,x00,03/31/2023 00:00:00,,N,THEREA SHOEMAKER,EXECUTIVE DIRECTOR,03/31/2023 00:00:00,364025026,N,,N,N,,,,,Non-profit,UG,,04/25/2023 13:12:41,04/27/2023 09:05:25,N,G,07/01/2021 00:00:00,,CPBSTRCK3KC5,N,US
1455385,19092022,2022,1909,06/30/2022 00:00:00,S,A,,Y,041591060,,Y,076614874,NEW ENGLAND COLLEGE OF OPTOMETRY AND AFFILIATE,424 BEACON STREET,,BOSTON,MA,02115,TRACI LOGAN,"EXECUTIVE VP, CFO AND COO",6175875711,,LOGANT@NECO.EDU,11/29/2022 13:00:26,TRACI LOGAN-CHIEF OPERATING OFFICER/CFO,MAYER HOFFMAN MCCANN PC,500 BOYLSTON STREET,,BOSTON,MA,02116,DYAN REINHOLD,SHAREHOLDER,6177610600,,DREINHOLD@CBIZ.COM,11/30/2022 09:27:49,,O,,U,N,N,N,N,U,750000,Y,,23334066,,N,N,N,N,N,N,,84,11/30/2022 00:00:00,12/04/2022 01:30:06,,N,904,1,x00,11/30/2022 00:00:00,,N,TRACI LOGAN,CHIEF OPERATING OFFICER/CFO,11/30/2022 00:00:00,431947695,N,,N,N,,,,,Institution of higher education (IHE),UG,00216400,12/05/2022 15:03:37,12/08/2022 07:34:55,N,B,07/01/2021 00:00:00,,YWYEJEYHCA31,N,US
1448796,2555852022,2022,255585,02/28/2022 00:00:00,S,A,,N,231473884,,N,060057296,MANN CENTER FOR THE PERFORMING ARTS,123 SOUTH BROAD STREET SUITE 815,,PHILADELPHIA,PA,19109,MEGAN O'SHEA,VICE PRESIDENT AND CHIEF FINANCIAL OFFIC,2155467900,,MOSHEA@MANNCENTER.ORG,10/07/2022 15:22:35,MEGAN O'SHEA-VICE PRESIDENT AND CFO,KREISCHER MILLER,100 WITMER ROAD SUITE 350,,HORSHAM,PA,19044,KATHLEEN GALASKA,AUDIT DIRECTOR,2154414600,,KGALASKA@KMCO.COM,10/10/2022 09:19:46,,O,,U,N,N,N,N,U,750000,N,,10000000,,N,N,N,N,N,N,,59,10/10/2022 00:00:00,10/15/2022 01:30:07,,N,888,1,x00,10/10/2022 00:00:00,,N,MEGAN O'SHEA,VICE PRESIDENT AND CFO,10/10/2022 00:00:00,231980475,N,,N,N,,,,,Non-profit,UG,,,,,,03/01/2021 00:00:00,,HNH4RN73DLT5,N,US
1484445,2238952022,2022,223895,09/30/2022 00:00:00,S,A,,N,050541068,,N,166240239,VILLAGE OF PALMETTO BAY,9705 EAST HIBISCUS STREET,,PALMETTO BAY,FL,33157,DESMOND CHIN,FINANCE DIRECTOR,3052591268,,DCHIN@PALMETTOBAY-FL.GOV,04/04/2023 09:21:40,DESMOND CHIN-FINANCE DIRECTOR,MARCUM LLP,ONE SE THIRD AVE SUITE 1100,,MIAMI,FL,33131,MOISES D ARIZA,OFFICE MANAGING PARTNER,3059959612,,MOISES.ARIZA@MARCUMLLP.COM,04/04/2023 09:25:02,,O,,U,N,N,N,N,U,750000,N,,3636841,,N,N,N,N,N,N,,21,04/04/2023 00:00:00,04/07/2023 01:30:06,,N,903,1,x00,04/04/2023 00:00:00,,N,DESMOND CHIN,FINANCE DIRECTOR,04/04/2023 00:00:00,111986323,N,,N,N,,,,,Local government,UG,,,,,,10/01/2021 00:00:00,,NMCMZ1MN2629,N,US
1469649,1160862022,2022,116086,09/30/2022 00:00:00,S,A,,N,920137088,,N,796268548,"ARCTIC RESEARCH CONSORTIUM OF THE UNITED STATES , INCORPORATED","3535 COLLEGE ROAD, SUITE 101",,FAIRBANKS,AK,99709,BRANDI AUSTIN,DIRECTOR OF FINANCE/HR,9073882430,,BRANDI@MAIL.ARCUS.ORG,01/24/2023 17:24:34,BRANDI AUSTIN-DIRECTOR OF FINANCE/HR,ALLIANCE CPAS LLC,"119 NORTH CUSHMAN STREET, SUITE 300",,FAIRBANKS,AK,99701,KARA MOORE,PARTNER,9074567762,,KARA@CH-CPA.COM,01/25/2023 12:23:45,,O,,U,N,N,N,N,U,750000,Y,,2437304,,N,N,N,N,N,N,,47,01/25/2023 00:00:00,01/28/2023 01:30:06,,N,909,1,x00,01/25/2023 00:00:00,,N,BRANDI AUSTIN,DIRECTOR OF FINANCE/HR,01/25/2023 00:00:00,920117073,N,,N,N,,,,,Non-profit,UG,,,,,,10/01/2021 00:00:00,,E5RSJGBH7CU8,N,US
1479556,2477292022,2022,247729,06/30/2022 00:00:00,S,A,,N,616001854,,N,627239981,CITY OF LAWRENCEBURG,100 N. MAIN ST.,,LAWRENCEBURG,KY,40342,JUDY RUSSELL,TREASURER,5028394372,,JRUSSELL@LAWRENCEBURGKY.ORG,03/23/2023 10:15:50,JUDY RUSSELL-TREASURER,"CHARLES T. MITCHELL COMPANY, PLLC",201 W MAIN ST,,FRANKFORT,KY,40601,RYAN MOORE,PARTNER,5022277395,,RMOORE@CTMCPA.COM,03/23/2023 10:17:06,,O,,U,N,N,N,N,U,750000,N,,2094829,,N,N,N,N,N,N,,21,03/23/2023 00:00:00,03/25/2023 01:30:06,,N,888,1,x00,03/23/2023 00:00:00,,N,JUDY RUSSELL,TREASURER,03/23/2023 00:00:00,610567366,N,,N,N,,,,,Local government,UG,,,,,,07/01/2021 00:00:00,,GTUEYK341NB4,N,US
1488013,1910982022,2022,191098,12/31/2022 00:00:00,S,A,,N,911549007,,N,,GRACE COURT,"818 W RIVERSIDE, SUITE 300",,SPOKANE,WA,99201,ANDREA AXTMAN,ASSISTANT CONTROLLER,5094596012,,ANDREA.AXTMAN@G-B.COM,05/09/2023 11:21:39,ANDREA AXTMAN-ASSISTANT CONTROLLER,SCHOEDEL & SCHOEDEL CPAS PLLC,"422 W RIVERSIDE, SUITE 1420",,SPOKANE,WA,99201,DARCY SKJOTHAUG,CPA,5097472158,,DSKJOTHAUG@SCHOEDEL.COM,05/08/2023 19:08:25,,O,,U,N,N,N,N,U,750000,Y,,3662103,,N,N,N,N,N,N,,14,05/09/2023 00:00:00,05/12/2023 01:30:08,,N,903,1,x00,05/09/2023 00:00:00,,N,ANDREA AXTMAN,ASSISTANT CONTROLLER,05/09/2023 00:00:00,910164823,N,,N,N,,,,,Non-profit,UG,,,,,,01/01/2022 00:00:00,,E7KWZJ9WWGJ1,N,US
1490521,696882022,2022,69688,08/31/2022 00:00:00,S,A,,N,470666715,,N,115076903,"CHARLES DREW HEALTH CENTER, INC.",2915 GRANT STREET,,OMAHA,NE,68111,TARSHA JACKSON,CFO,4024571215,,TARSHA.JACKSON@CHARLESDREW.COM,05/31/2023 21:00:47,TARSHA JACKSON-CHIEF FINANCIAL OFFICER,CORE CPAS PC,PO BOX 1317,,HASTINGS,NE,689021317,JAKE B KLABENES,CPA,4024624154,,JKLABENES@CORECPAS.US,05/31/2023 20:45:19,,O,,U,N,N,N,N,U,750000,N,,8075690,,Y,N,N,Y,Y,N,,93,05/31/2023 00:00:00,06/02/2023 01:30:06,,N,908,1,x93,05/31/2023 00:00:00,,Y,TARSHA JACKSON,CHIEF FINANCIAL OFFICER,05/31/2023 00:00:00,921841583,N,,N,Y,,,,,Non-profit,UG,,,,,,09/01/2021 00:00:00,,LBNNLRDE8793,N,US
1471845,2354422022,2022,235442,06/30/2022 00:00:00,S,A,,N,876000265,,N,073002818,PRICE MUNICIPAL CORPORATION,185 EAST MAIN STREET,,PRICE,UT,84501,LISA RICHENS ,FINANCE DIRECTOR ,4356363167,,LISAR@PRICEUTAH.NET,02/06/2023 20:03:52,LISA RICHENS-FINANCE DIRECTOR,LARSON AND COMPANY ,765 NORTH MAIN STREET,,SPANISH FORK ,UT,84660,JON HADERLIE ,PARTNER ,8017983545,,JHADERLIE@LARSCO.COM,02/06/2023 18:02:03,,O,,U,N,N,N,N,U,750000,Y,,882821,,N,N,N,N,N,N,,10,02/06/2023 00:00:00,02/09/2023 01:30:05,,N,909,1,x00,02/06/2023 00:00:00,,N,LISA RICHENS,FINANCE DIRECTOR,02/06/2023 00:00:00,870516083,N,,N,N,,,,,Local government,UG,,,,,,07/01/2021 00:00:00,,HDXVMTNXCH68,N,US
1466586,2425242022,2022,242524,06/30/2022 00:00:00,S,A,,N,460675150,,N,,INSPIRE NOLA CHARTER SCHOOLS,2401 WESTBEND PARKWAY,,NEW ORLEANS,LA,70114,CHARLIE MACKLES,CHIEF FINANCIAL OFFICER,5042273057,,CHARLIE.MACKLES@INSPIRENOLASCHOOLS.ORG,01/06/2023 14:31:39,CHARLIE MACKLES-CFO,ERICKSEN KRENTEL LLP,4227 CANAL STREET,,NEW ORLEANS,LA,70119,JEREMY THIBODEAUX,PARTNER,5044867275,,JTHIBODEAUX@ERICKSENKRENTEL.COM,01/06/2023 14:07:48,,O,,U,N,N,N,N,U,800584,Y,,26686123,,N,N,N,N,N,N,,84,01/06/2023 00:00:00,01/10/2023 01:30:06,,N,888,1,x00,01/06/2023 00:00:00,,N,CHARLIE MACKLES,CFO,01/06/2023 00:00:00,770549733,N,,N,N,,,,,Non-profit,UG,,01/20/2023 14:20:40,01/26/2023 10:15:23,N,G,07/01/2021 00:00:00,,L3V6K1X53GW9,N,US
1465401,1659322022,2022,165932,06/30/2022 00:00:00,S,A,,N,736060638,,N,074270034,BROKEN ARROW PUBLIC SCHOOLS,701 SOUTH MAIN ST,,BROKEN ARROW,OK,74012,NATALIE ENEFF,CHIEF FINANCIAL OFFICER,9182595776,,NSENEFF@BASCHOOLS.ORG,01/17/2023 08:30:25,NATALIE ENEFF-CHIEF FINANCIAL OFFICER,"JENKINS & KEMPER, CPA'S, P.C.",116 W BRECKENRIDGE,,BIXBY,OK,74008,MICHAEL KEMPER,PARTNER,9183664440,,MKEMPER@JENKINSKEMPER.COM,01/16/2023 11:45:38,,O,,U,N,N,N,N,U,944840,Y,,31494656,,N,N,N,N,N,N,,84,01/17/2023 00:00:00,01/20/2023 01:30:07,,N,505,1,x00,01/17/2023 00:00:00,,N,NATALIE ENEFF,CHIEF FINANCIAL OFFICER,01/17/2023 00:00:00,731514558,N,,N,N,,,,,Local government,UG,,01/30/2023 13:53:00,02/02/2023 10:21:52,N,G,07/01/2021 00:00:00,,E79CJDH2JE91,N,US
1479786,1667662022,2022,166766,06/30/2022 00:00:00,S,A,,N,936001120,,N,100069004,YAMHILL COUNTY SCHOOL DISTRICT 30J,1100 N. E. OAKEN HILLS DR.,,WILLAMINA,OR,97396,LISA ANDERSON,BUSINESS MANAGER AND DEPUTY CLERK,5038764525,,LISA.ANDERSON@WILLAMINA.K12.OR.US,04/03/2023 13:44:24,LISA ANDERSON-BUSINESS MANAGER,UMPQUA VALLEY FINANCIAL,171 NE EXCHANGE AVE.,,ROSEBURG,OR,97470,JEAN LARSON,AUDITOR,5416778100,,JEAN@OREGONCPAS.COM,04/03/2023 13:56:58,,O,,U,N,N,N,N,U,750000,Y,,2010535,,N,N,N,N,N,N,,84,04/03/2023 00:00:00,04/07/2023 01:30:06,,N,505,1,x00,04/03/2023 00:00:00,,N,LISA ANDERSON,BUSINESS MANAGER,03/31/2023 00:00:00,825425527,N,,N,N,,,,,Local government,UG,,05/01/2023 11:15:44,05/04/2023 07:17:29,N,G,07/01/2021 00:00:00,,HDTBY5T2N854,N,US
1450018,2226872022,2022,222687,06/30/2022 00:00:00,S,A,,N,203602772,,N,826310604,SUNRISE COURT HOUSING DBA SUNRISE COURT APARTMENTS 127-HH004,100 23RD AVENUE SOUTH,,SEATTLE,WA,981442302,COURTNEY SMITH,DIRECTOR OF FINANCE,2063285716,,COURTNEYS@CCSWW.ORG,10/17/2022 16:20:08,COURTNEY SMITH-DIRECTOR OF FINANCE,CLIFTONLARSONALLEN LLP,"10700 NORTHUP WAY, SUITE 200",,BELLEVUE,WA,98004,ALISTAIR CERRETTI,DIRECTOR,4255883506,,ALISTAIR.CERRETTI@CLACONNECT.COM,10/17/2022 16:13:00,,O,,U,N,N,N,N,U,750000,Y,,1337892,,N,N,N,N,N,N,,14,10/23/2022 00:00:00,10/25/2022 01:30:04,,N,903,1,x00,10/23/2022 00:00:00,,N,COURTNEY SMITH,DIRECTOR OF FINANCE,10/23/2022 00:00:00,410746749,N,,N,N,,,,,Non-profit,UG,,,,,,07/01/2021 00:00:00,,LKB3FFEUGM23,N,US
1457651,814382022,2022,81438,05/31/2022 00:00:00,S,A,,N,560556753,,N,066300153,LENOIR-RHYNE UNIVERSITY,PO BOX 7164,,HICKORY,NC,28603,JEREMY SHREVE,VP FOR BUSINESS & FINANCE,8283287100,,JEREMY.SHREVE@LR.EDU,11/30/2022 12:28:22,JEREMY SHREVE-VICE PRESIDENT FOR BUSINESS & FINANCE,"BDO USA, LLP","421 FAYETTEVILLE STREET, SUITE 300",,RALEIGH,NC,27601,MICHAEL BOTZIS,AUDIT MANAGING DIRECTOR,9192781989,,MBOTZIS@BDO.COM,11/22/2022 08:21:55,,O,,U,N,Y,N,N,U,911726,Y,,30390867,,N,N,N,Y,N,N,,84,11/30/2022 00:00:00,12/04/2022 01:30:06,,N,904,1,x00x84,11/30/2022 00:00:00,,N,JEREMY SHREVE,VICE PRESIDENT FOR BUSINESS & FINANCE,11/30/2022 00:00:00,135381590,Y,,N,N,,,,,Institution of higher education (IHE),UG,00294100,12/07/2022 11:02:33,12/08/2022 07:34:55,B,B,06/01/2021 00:00:00,,GNF2LDZWGG23,N,US
1482707,1525662022,2022,152566,06/30/2022 00:00:00,S,A,,N,646000191,,N,,CALHOUN COUNTY SCHOOL DISTRICT,119 WEST MAIN STREET,,PITTSBORO,MS,38951,JOLYNN CLANTON,BUSINESS MANAGER,6624123152,,JCLANTON@CALHOUNK12.COM,03/30/2023 11:46:50,JO LYNN CLANTON-BUSINESS MANAGER,"FORTENBERRY & BALLARD, PC","1048 GLUCKSTADT ROAD, SUITE B",,MADISON,MS,39110,BRENT BALLARD,SHAREHOLDER,6019925292,,BRENT@FORTCPA.COM,03/30/2023 12:03:28,,O,,U,N,N,N,N,U,750000,Y,,7484996,,N,N,N,N,N,N,,84,03/30/2023 00:00:00,04/01/2023 01:30:03,,N,505,1,x00,03/30/2023 00:00:00,,N,JO LYNN CLANTON,BUSINESS MANAGER,03/30/2023 00:00:00,640887736,N,,N,N,,,,,Local government,UG,,04/18/2023 13:23:14,04/21/2023 10:36:42,N,G,07/01/2021 00:00:00,,MVHXUJMK6HN5,N,US
1461569,1354382022,2022,135438,06/30/2022 00:00:00,S,A,,N,846012146,,N,082659574,MOFFAT COUNTY SCHOOL DISTRICT RE-1,776 YAMPA AVENUE,,CRAIG,CO,81625,JOHN WALL,EXECUTIVE DIRECTOR OF FINANCE,9708266265,,JOHN.WALL@MOFFATSD.ORG,12/12/2022 17:11:43,JOHN WALL-DIRECTOR OF FINANCE,"MCMAHAN AND ASSOCIATES, L.L.C.",P.O. BOX 5850,,AVON,CO,81620,PAUL BACKES,MANAGING MEMBER,9708458800,,PAUL.BACKES@MCMAHANCPA.COM,12/12/2022 14:19:04,,O,,U,N,N,N,N,U,750000,Y,,3922859,,N,N,N,N,N,N,,84,12/12/2022 00:00:00,12/16/2022 01:30:06,,N,505,1,x00,12/12/2022 00:00:00,,N,JOHN WALL,DIRECTOR OF FINANCE,12/12/2022 00:00:00,841509269,N,,N,N,,,,,Local government,UG,,12/30/2022 15:04:15,01/05/2023 10:36:38,N,G,07/01/2021 00:00:00,,NRK7D8MYXTJ4,N,US
1474579,340612022,2022,34061,06/30/2022 00:00:00,S,A,,N,237390996,,N,078174232,"CROWN HEIGHTS JEWISH COMMUNITY COUNCIL, INC.",392 KINGSTON AVENUE,,BROOKLYN,NY,11225,CHAYA UMINER,CHIEF FINANCIAL OFFICER,7187719000,,UMINER@CHJCC.ORG,02/22/2023 10:15:18,CHAYA UMINER-FISCAL DIRECTOR,ROTH AND COMPANY LLP,1428 36TH STREET,,BROOKLYN,NY,11218,ZACHARIA WAXLER,CO-MANAGING PARTNER,7182361600,,ZWAXLER@ROTHCOCPA.COM,02/21/2023 18:23:01,,O,,U,N,N,N,N,U,750000,Y,,1960370,,N,N,N,N,N,N,,93,02/22/2023 00:00:00,02/25/2023 01:30:08,,N,908,1,x00,02/22/2023 00:00:00,,N,CHAYA UMINER,FISCAL DIRECTOR,02/22/2023 00:00:00,113360065,N,,N,N,,,,,Non-profit,UG,,,,,,07/01/2021 00:00:00,,YRPPZBBQC389,N,US
1469948,1285522022,2022,128552,06/30/2022 00:00:00,S,A,,N,990230341,,N,046012378,FAMILY SUPPORT SERVICES OF WEST HAWAII,75-127 LUNAPULE ROAD SUITE 11,,KAILUA-KONA,HI,96740,RAYMOND CLOUGH,CONTROLLER,8084662028,,RCLOUGH@FSSWH.ORG,01/31/2023 15:38:48,RAYMOND CLOUGH-CONTROLLER,CARBONARO CPAS & MANAGEMENT GROUP,"1885 MAIN ST., STE 408",,WAILUKU,HI,96793,ROZANNE CONNELL,MANAGER,8089306850,,ROZANNE@CARBOCPA.COM,01/31/2023 15:17:14,,O,,U,N,N,N,N,U,750000,Y,,1663766,,N,N,N,N,N,N,,93,01/31/2023 00:00:00,02/03/2023 01:30:06,,N,908,1,x00,01/31/2023 00:00:00,,N,RAYMOND CLOUGH,CONTROLLER,01/31/2023 00:00:00,990303190,N,,N,N,,,,,Non-profit,UG,,02/10/2023 13:05:17,02/16/2023 06:12:37,,N,07/01/2021 00:00:00,,C4FSNG9J7J98,N,US
1470228,1345052022,2022,134505,06/30/2022 00:00:00,S,A,,N,680211884,,N,,LOS MOLINOS UNIFIED SCHOOL DISTRICT,7851 HIGHWAY 99E,,LOS MOLINOS,CA,96055,CHRISTIE LANDINGHAM,CHIEF BUSINESS OFFICIAL,5303847826,,CLANDINGHAM@LMUSD.NET,02/01/2023 14:45:51,CHRISTIE LANDINGHAM-CHIEF BUSINESS OFFICIAL,CHRISTY WHITE INC.,348 OLIVE STREET,,SAN DIEGO,CA,92103,MICHAEL ASH,PARTNER,6192708222,,MASH@CHRISTYWHITE.COM,02/02/2023 11:27:46,,O,,U,N,N,N,N,U,750000,N,,1246271,,N,N,N,N,N,N,,84,02/02/2023 00:00:00,02/07/2023 01:30:06,,N,505,1,x00,02/02/2023 00:00:00,,N,CHRISTIE LANDINGHAM,CHIEF BUSINESS OFFICIAL,02/02/2023 00:00:00,272956198,N,,N,N,,,,,Local government,UG,,02/13/2023 12:49:55,02/16/2023 06:12:37,N,G,07/01/2021 00:00:00,,FAKEJGHC6ED6,N,US
1454280,1502872022,2022,150287,06/30/2022 00:00:00,S,A,,N,386002241,,N,100036003,NORTH BRANCH AREA SCHOOLS,6655 JEFFERSON RD PO BOX 3620,,NORTH BRANCH,MI,48416,MELISSA MONTGOMERY,BUSINESS DIRECTOR,8106887995,,MMONTGOMERY@NBBRONCOS.NET,11/16/2022 07:25:11,MELISSA MONTGOMERY-DIRECTOR OF FINANCE & HUMAN RESOUCES,"ANDERSON, TUCKEY, BERNHARDT & DORAN P.C.",715 E FRANK ST,,CARO,MI,48723,ANGELA BURNETTE,ENGAGEMENT PARTNER,9896733137,,ABURNETTE@ATBDCPA.COM,11/11/2022 12:47:36,,O,,U,Y,N,N,N,U,750000,Y,,3720083,,N,N,N,N,N,N,,84,11/16/2022 00:00:00,11/18/2022 01:30:09,,N,505,1,x00,11/16/2022 00:00:00,,N,MELISSA MONTGOMERY,DIRECTOR OF FINANCE & HUMAN RESOUCES,11/16/2022 00:00:00,382475073,N,,Y,N,,,,,Local government,UG,,11/20/2022 13:24:26,12/01/2022 08:03:46,N,G,07/01/2021 00:00:00,,NLBHQXPJJ2T7,N,US
1489112,1964542022,2022,196454,06/30/2022 00:00:00,S,A,,N,570542729,,N,,GREENVILLE COUNTY COMMISSION ON ALCOHOL AND DRUG ABUSE,1400 CLEVELAND STREET,,GREENVILLE,SC,29607,TIM JONES,FINANCE DIRECTOR,8647673737,,TIMJONES@PHOENIXCENTER.ORG,05/22/2023 14:33:52,TIM JONES-FINANCE DIRECTOR,"MCKINLEY, COOPER & CO., LLC","777 LOWNDES HILL ROAD, BUILDING 3, SUITE 225",,GREENVILLE,SC,29607,TONI MCKINLEY,MEMBER,8642331800,,TMCKINLEY@MCKINLEYCOOPER.COM,05/22/2023 15:07:06,,O,,U,N,N,N,N,U,750000,Y,,3802824,,N,N,N,N,N,N,,93,05/22/2023 00:00:00,05/24/2023 01:30:05,,N,908,1,x00,05/22/2023 00:00:00,,N,TIM JONES,FINANCE DIRECTOR,05/22/2023 00:00:00,272826067,N,,N,N,,,,,Non-profit,UG,,,,,,07/01/2021 00:00:00,,EMVUFTNMWD36,N,US
1475583,1378192022,2022,137819,06/30/2022 00:00:00,S,A,,N,580871915,,N,079798957,CITY OF SOCIAL CIRCLE BOARD OF EDUCATION,147 ALCOVA DR,,SOCIAL CIRCLE,GA,30025,NICOLE CROSS,CFO,7704642731,,NICOLE.CROSS@SOCIALCIRCLESCHOOLS.ORG,03/29/2023 15:14:55,NICOLE CROSS-CHIEF FINANCIAL OFFICER,GEORGIA DEPARTMENT OF AUDITS AND ACCOUNTS,270 WASHINGTON STREET S. W. SUITE 4-101,,ATLANTA,GA,30334,KAREN RODGERS,SENIOR AUDITOR,4046515397,,RODGERSK@AUDITS.GA.GOV,03/29/2023 15:12:17,,O,,U,N,N,N,N,U,750000,Y,,2787839,,N,N,N,N,N,N,,84,03/30/2023 00:00:00,04/01/2023 01:30:03,,N,505,1,x00,03/30/2023 00:00:00,,N,NICOLE CROSS,CHIEF FINANCIAL OFFICER,03/30/2023 00:00:00,586002005,N,,N,N,,,,,Local government,UG,,04/18/2023 11:11:13,04/21/2023 10:36:42,N,G,07/01/2021 00:00:00,,NJKGZK9E3VJ5,N,US
1485656,2191792022,2022,219179,12/31/2022 00:00:00,S,A,,N,460281490,,N,140242731,"CITY OF BOX ELDER, SD",420 VILLA DRIVE,,BOX ELDER,SD,577192000,NICOLE SCHNEIDER,CFO/CITY ADMINISTRATOR,6059231404,,NICOLE.SCHNEIDER@BOXELDER.US,05/02/2023 18:43:38,NICOLE SCHNEIDER-CITY ADMINISTRATOR/CFO,"CASEY PETERSON, LTD.",909 SAINT JOSEPH STREET STE 101,,RAPID CITY,SD,57701,DEIDRE BUDAHL,AUDIT PARTNER,6053481930,,DEIDREB2@CASEYPETERSON.COM,05/02/2023 17:34:51,,O,,S,N,N,N,N,U,750000,N,,1507069,,N,N,N,N,N,N,,66,05/02/2023 00:00:00,05/05/2023 01:30:05,,N,200,1,x00,05/02/2023 00:00:00,,N,NICOLE SCHNEIDER,CITY ADMINISTRATOR/CFO,05/02/2023 00:00:00,460403496,N,,N,N,CASH,N,U,,Local government,UG,,,,,,01/01/2022 00:00:00,,FR73LZC1QJB3,N,US
1453651,1740772022,2022,174077,06/30/2022 00:00:00,S,A,,N,756002810,,N,003185733,WYLIE INDEPENDENT SCHOOL DISTRICT,951 SOUTH BALLARD ST.,,WYLIE,TX,75098,SCOTT RODERICK,ASST. SUPT. FOR FINANCE & OPERATIONS,9724293027,,SCOTT.RODERICK@WYLIEISD.NET,10/28/2022 17:21:36,SCOTT RODERICK-ASST. SUPER FOR FINANCE & OPERATIONS,"EDGIN, PARKMAN, FLEMING & FLEMING, PC",P.O. BOX 750,,WICHITA FALLS,TX,763070750,PAUL FLEMING,CPA/SHAREHOLDER,9407665550,,PFLEMING@EPFFPC.COM,10/28/2022 17:28:20,,O,,U,N,N,N,N,U,750000,Y,,23553732,,N,N,N,N,N,N,,84,10/28/2022 00:00:00,11/01/2022 01:30:07,,N,505,1,x00,10/28/2022 00:00:00,,N,SCOTT RODERICK,ASST. SUPER FOR FINANCE & OPERATIONS,10/28/2022 00:00:00,203899206,N,,N,N,,,,,Local government,UG,,11/02/2022 14:24:55,11/03/2022 07:43:14,N,G,07/01/2021 00:00:00,,C936PHWFBB23,N,US
1478101,2000032022,2022,200003,06/30/2022 00:00:00,S,A,,N,716038580,,N,100003326,LINCOLN CONSOLIDATED SCHOOL DISTRICT,107 E SCHOOL DISTRICT,,LINCOLN,AR,727448841,DR. MARY ANN SPEARS,SUPERINTENDENT,4798247310,,MSPEARS@LINCOLNCSD.COM,03/16/2023 10:58:16,MARY ANN SPEARS-SUPERINTENDENT,ARKANSAS LEGISLATIVE AUDIT,"500 WOODLANE STREET, STE 172",,LITTLE ROCK,AR,722011099,"MATT FINK, CPA",DEPUTY LEGISLATIVE AUDITOR,5016838600,,DCF@ARKLEGAUDIT.GOV,03/16/2023 09:37:12,,O,,AS,N,N,N,N,U,750000,Y,,2485357,,N,N,N,N,N,N,,84,03/16/2023 00:00:00,03/21/2023 01:30:07,,N,505,1,x00,03/16/2023 00:00:00,,N,MARY ANN SPEARS,SUPERINTENDENT,03/16/2023 00:00:00,716042275,N,,N,N,REGULATORY,Y,U,,Local government,UG,,03/22/2023 13:30:31,03/23/2023 08:41:55,N,G,07/01/2021 00:00:00,,Z8RTWFAGN8E1,N,US
1463350,1470642022,2022,147064,06/30/2022 00:00:00,S,A,,N,726001133,,N,020879367,RAPIDES PARISH SCHOOL BOARD,P.O. BOX 7117,,ALEXANDRIA,LA,713067117,"ELIZABETH DOMITE, CPA",CHIEF FINANCIAL OFFICER,3184493123,,ELIZABETH.DOMITE@RPSB.US,12/22/2022 16:28:58,"ELIZABETH DOMITE, CPA-CHIEF FINANCIAL OFFICER","PAYNE, MOORE & HERRINGTON, LLP",P.O. BOX 13200,,ALEXANDRIA,LA,713153200,"REBECCA NATION, CPA",PARTNER,3184431893,,RNATION@PMHCPA.COM,12/22/2022 16:18:07,,C,84,U,Y,N,N,N,U,1754465,Y,,58482168,,N,N,N,N,N,N,,,12/22/2022 00:00:00,01/01/2023 01:30:05,,N,505,1,x00,12/22/2022 00:00:00,,N,"ELIZABETH DOMITE, CPA",CHIEF FINANCIAL OFFICER,12/22/2022 00:00:00,720475011,N,,Y,N,,,,,Local government,UG,,01/10/2023 14:55:23,01/12/2023 10:08:23,N,G,07/01/2021 00:00:00,,S9VQJ9Q445B1,N,US
1460194,2479702022,2022,247970,06/30/2022 00:00:00,S,A,,N,821301171,,N,080738822,DEMOCRACY PREP AGASSI CAMPUS,1201 W LAKE MEAD BLVD,,LAS VEGAS,NV,89106,JACKIE WHITE,CONTROLLER,7024870460,,JACKIE.WHITE@DEMOCRACYPREP.ORG,12/22/2022 13:27:12,JACKIE WHITE-CONTROLLER,CLIFTONLARSONALLEN LLP,10845 GRIFFITH PEAK DR SUITE 550,,LAS VEGAS,NV,89135,DERRICK DEBRUYNE,PRINCIPAL,6268577300,,DERRICK.DEBRUYNE@CLACONNECT.COM,12/23/2022 16:03:48,,O,,U,N,N,N,N,U,750000,Y,,2413841,,N,N,N,N,N,N,,84,12/23/2022 00:00:00,01/01/2023 01:30:05,,N,888,1,x00,12/23/2022 00:00:00,,N,JACKIE WHITE,CONTROLLER,12/23/2022 00:00:00,410746749,N,,N,N,,,,,Local Government,UG,,01/11/2023 12:45:35,01/12/2023 10:08:23,N,G,07/01/2021 00:00:00,,CQUQYFTXJ4L8,N,US
1454426,1421042022,2022,142104,06/30/2022 00:00:00,S,A,,N,376006718,,N,091522565,MARION COMMUNITY UNIT SCHOOL DISTRICT #2,1700 WEST CHERRY STREET,,MARION,IL,62959,KIM DEFRANK WATSON,CHIEF FINANCIAL OFFICER,6189932321,,KDEFRANK@MARIONUNIT2.ORG,11/15/2022 10:30:41,KIM DEFRANK WATSON-CHIEF FINANCIAL OFFICER,KEMPER CPA GROUP LLP,3401 PROFESSIONAL PARK DRIVE,,MARION ,IL,62959,KIMBERLY WALKER,PARTNER,6189973055,,KWALKER@KEMPERCPA.COM,11/15/2022 10:03:01,,O,,S,N,N,N,N,U,750000,N,,8603789,,N,N,N,N,N,N,,84,11/15/2022 00:00:00,11/18/2022 01:30:09,,N,505,1,x00,11/15/2022 00:00:00,,N,KIM DEFRANK WATSON,CHIEF FINANCIAL OFFICER,11/15/2022 00:00:00,370818432,N,,N,N,REGULATORY,N,U,,Local Government,UG,,11/20/2022 13:55:11,12/01/2022 08:03:46,N,G,07/01/2021 00:00:00,,QLSBMSFCZ3S9,N,US
1474009,2570892022,2022,257089,06/30/2022 00:00:00,S,A,,N,550516500,,N,127415123,SALT ROCK WATER PUBLIC SERVICE DISTRICT,31 WATER PLANT ROAD,,SALT ROCK,WV,25559,PATRICIA LEE,GENERAL MANAGER,3045223778,,PATRICIA.LEE@AMWATER.COM,02/17/2023 10:28:39,PATRICIA LEE-GENERAL MANAGER,"DAVID L. HOWELL, CPA",P.O. BOX 458,,BELLE,WV,25015,"DAVID HOWELL, CPA",PROPRIETOR,3042202319,,DAVIDHOWELLCPA@SUDDENLINK.NET,02/20/2023 13:42:48,,O,,U,N,N,N,N,U,750000,N,,1453854,,N,N,N,N,N,N,,66,02/20/2023 00:00:00,02/24/2023 01:30:06,,N,888,1,x00,02/20/2023 00:00:00,,N,PATRICIA LEE,GENERAL MANAGER,02/20/2023 00:00:00,550769185,N,,N,N,,,,,Local government,UG,,,,,,07/01/2021 00:00:00,,WAW6Z3ZVKGR3,N,US
1475169,1576312022,2022,157631,06/30/2022 00:00:00,S,A,,N,226002310,,N,100663186,SOUTH ORANGE/MAPLEWOOD BOARD OF EDUCATION,525 ACADEMY STREET,,MAPLEWOOD ,NJ,07040,ERIS BURNSIDE,BUSINESS ADMINISTRATOR ,9737625600,,EBURNSID@SOMSD.K12.NJ.US,03/17/2023 14:25:50,BURNSIDE ERIC-ERIC BURNSIDE,PKF O'CONNOR DAVIES,"20 COMMERCE DRIVE, SUITE 301",,CRANFORD,NJ,07016,ANDREW HODULIK,PARTNER,9082726200,,RPROVOST@PKFOD.COM,03/17/2023 14:31:47,,O,,U,N,N,N,N,U,750000,Y,,6162042,,N,N,N,N,N,N,,84,03/17/2023 00:00:00,03/21/2023 01:30:07,,N,505,1,x00,03/17/2023 00:00:00,,N,BURNSIDE ERIC,ERIC BURNSIDE,03/17/2023 00:00:00,271728945,N,,N,N,,,,,Local government,UG,,03/24/2023 13:20:05,03/30/2023 07:37:24,N,G,07/01/2021 00:00:00,,FPFFSBJ2KJK1,N,US
1488223,2275352022,2022,227535,12/31/2022 00:00:00,S,A,,N,300074718,,N,966642493,"MERCY OUTREACH MINISTRIES II, INC. 042-HD131",5810 NORTH MAIN STREET,,WILLISTON,OH,43468,JOSEPH BEAGLE,DIRECTOR OF FISCAL SERVICES,4199724390,,JBEAGLE@LUTHERHOME.ORG,05/12/2023 07:34:15,JOSEPH BEAGLE-FISCAL SERVICES,CLIFTONLARSONALLEN LLP,1785 INDIAN WOOD CIR,,MAUMEE,OH,43537,JESSICA RITTER ,DIRECTOR,4197942000,,JESSICA.RITTER@CLACONNECT.COM,05/11/2023 10:14:03,,O,,U,N,N,N,N,U,750000,Y,,1185947,,N,N,N,N,N,N,,14,05/12/2023 00:00:00,05/16/2023 01:30:06,,N,903,1,x00,05/12/2023 00:00:00,,N,JOSEPH BEAGLE,FISCAL SERVICES,05/12/2023 00:00:00,410746749,N,,N,N,,,,,Non-profit,UG,,,,,,01/01/2022 00:00:00,,KXGYK9D1K4A4,N,US
1460406,2487242022,2022,248724,03/31/2022 00:00:00,S,A,,N,431298527,,N,791583305,"ALIVE, INC.",PO BOX 28733,,SAINT LOUIS,MO,631463409,MAGGIE MENEFEE,EXECUTIVE DIRECTOR,3149937080,,MMENEFEE@ALIVESTL.ORG,12/06/2022 13:34:46,MARGARET MENEFEE-EXECUTIVE DIRECTOR,LINDA A HOWDESHELL CPA,9208 LODGE POLE LANE,,SAINT LOUIS,MO,631262118,LINDA HOWDESHELL,OWNER,3147403983,,LINDAH_CPA@HOTMAIL.COM,12/06/2022 13:31:37,,O,,U,N,Y,Y,N,U,750000,N,,1261889,,N,Y,Y,Y,N,N,,16,12/06/2022 00:00:00,12/09/2022 01:30:08,,N,888,1,x00,12/06/2022 00:00:00,,N,MARGARET MENEFEE,EXECUTIVE DIRECTOR,12/06/2022 00:00:00,474590864,Y,,N,N,,,,,Non-profit,UG,,,,,,04/01/2021 00:00:00,,ZE6JCNDHQL99,N,US
1456416,1603492022,2022,160349,06/30/2022 00:00:00,S,A,,N,146001627,,N,,LAKE PLACID CENTRAL SCHOOL DISTRICT,50 CUMMINGS ROAD,,LAKE PLACID,NY,12946,DANA WOOD,ASST. SUPERINTENDENT FOR BUSINESS,5185232475,,DWOOD@LAKEPLACIDCSD.NET,11/14/2022 09:13:27,DANA WOOD-ASSISTANT SUPERINTENDENT FOR BUSINESS,"TELLING & HILLMAN, P.C.",5 PARK STREET,,MIDDLEBURY,VT,05753,TOM TELLING,CPA,8023883311,,TOMTELLING@TELLINGANDHILLMAN.CPA,11/15/2022 08:42:14,,O,,U,N,N,N,N,U,750000,N,,1212930,,N,N,N,N,N,N,,84,11/15/2022 00:00:00,11/18/2022 01:30:09,,N,505,1,x00,11/15/2022 00:00:00,,N,DANA WOOD,ASSISTANT SUPERINTENDENT FOR BUSINESS,11/15/2022 00:00:00,830858098,N,,N,N,,,,,Local government,UG,,11/20/2022 13:25:21,12/01/2022 08:03:46,N,G,07/01/2021 00:00:00,,QNNRLW6JEQL9,N,US
1453556,1155782022,2022,115578,03/31/2022 00:00:00,S,A,,N,916087782,,N,088720677,GARDEN TERRACE,500 N. EMERSON STREET,,WENATCHEE,WA,98801,KEN NEHER,EXECUTIVE DIRECTOR,5096632154,,KENN.GT@NWI.NET,11/08/2022 16:58:40,KEN NEHER-EXECUTIVE DIRECTOR,"HOMCHICK, SMITH & ASSOCIATES, PLLC",700 N MISSION ST,,WENATCHEE,WA,98801,JOHN SIMMONS,MEMBER,5096631131,,JOHNS@HOMCHICK.COM,11/09/2022 12:52:51,,O,,U,N,N,N,N,U,750000,Y,,5164117,,N,N,N,N,N,N,,14,11/09/2022 00:00:00,11/11/2022 01:30:05,,N,903,1,x00,11/09/2022 00:00:00,,N,KEN NEHER,EXECUTIVE DIRECTOR,11/09/2022 00:00:00,910626552,N,,N,N,,,,,Non-profit,UG,,,,,,04/01/2021 00:00:00,,CZPYU8KNE7P3,N,US
1486626,2504812022,2022,250481,12/31/2022 00:00:00,S,A,,N,271153340,,N,,"WECONNECT INTERNATIONAL, INC.","1100 H ST, NW, SUITE 1100",,WASHINGTON,DC,20005,ELIZABETH VAZQUEZ,PRESIDENT AND CEO,2028106000,,EVAZQUEZ@WECONNECTINTERNATIONAL.ORG,04/25/2023 22:01:57,ELIZABETH VAZQUEZ-CEO,"ROGERS & COMPANY, PLLC","8300 BOONE BLVD, SUITE 600",,VIENNA,VA,20182,MARINA POLYAKOVA,AUDIT PRINCIPAL,7038930320,,MPOLYAKOVA@ROGERSPLLC.COM,04/26/2023 06:27:48,,O,,U,N,N,N,N,U,750000,N,,1272574,,N,N,N,N,N,N,,98,04/26/2023 00:00:00,04/28/2023 01:30:06,,N,888,1,x00,04/26/2023 00:00:00,,N,ELIZABETH VAZQUEZ,CEO,04/26/2023 00:00:00,582676261,N,,N,N,,,,,Non-profit,UG,,,,,,01/01/2022 00:00:00,,SDB5LVTQN219,N,US
1482633,1820542022,2022,182054,06/30/2022 00:00:00,S,A,,N,660433498,,N,803864552,MUNICIPALITY OF HORMIGUEROS,PO BOX 97,,HORMIGUEROS,PR,00660,MIRIAM IRIZARRY BOBE,FINANCE DIRECTOR,7878492515,,FINANZAS@HORMIGUEROSPR.COM,03/29/2023 21:10:34,MIRIAM IRIZARRY BOBE-MIRIAM IRIZARRY BOBE,LOPEZ VEGA CPA PSC,CALLE PARANA #1686 EL CEREZAL,,SAN JUAN,PR,00926,ANGEL A. LOPEZ VEGA,PRESIDENT,7877778044,,ALFREDOLOPEZ@LOPEZVEGACPA-PR.COM,03/29/2023 21:11:01,,O,,UQ,Y,N,Y,N,U,750000,N,,6254933,,N,N,N,N,N,N,,21,03/29/2023 00:00:00,03/31/2023 01:30:04,,N,710,1,x00,03/29/2023 00:00:00,,N,MIRIAM IRIZARRY BOBE,MIRIAM IRIZARRY BOBE,03/29/2023 00:00:00,660587053,N,,Y,N,,,,,Local government,UG,,,,,,07/01/2021 00:00:00,,VA6DSTRAE2V3,N,US
1450019,1623862022,2022,162386,06/30/2022 00:00:00,S,A,,N,310836468,,N,077435733,EDISON STATE COMMUNITY COLLEGE,1973 EDISON DRIVE,,PIQUA,OH,45356,JAMES LEHMKUHL,VP OF ADMINISTRATION & FINANCE,9377787961,,JLEHMKUHL@EDISONOHIO.EDU,10/31/2022 13:58:12,JAMES LEHMKUHL-JAMES LEHMKUHL,CLARK SCHAEFER HACKETT,"14 EAST MAIN STREET, SUITE 500",,SPRINGFIELD,OH,45502,LARRY WEEKS,SHAREHOLDER,9373992000,,LWEEKS@CSHCO.COM,10/30/2022 15:07:07,,O,,U,N,N,N,N,U,750000,Y,,10530805,,N,N,N,N,N,N,,84,10/31/2022 00:00:00,11/02/2022 01:30:07,,N,004,1,x00,10/31/2022 00:00:00,,N,JAMES LEHMKUHL,JAMES LEHMKUHL,10/31/2022 00:00:00,310800053,N,,N,N,,,,,Institution of higher education (IHE),UG,01275000,11/02/2022 12:20:48,11/03/2022 07:43:14,N,B,07/01/2021 00:00:00,,YQKMBKRHKKB4,N,US
1491031,1467042022,2022,146704,12/31/2022 00:00:00,S,A,,N,726000391,,N,,EVANGELINE PARISH POLICE JURY,1008 WEST LASALLE STREET,,VILLE PLATTE,LA,70586,CHESTER GRANGER,SECRETARY-TREASURER,3373635651,,CHESTERG@EPPJ.NET,06/06/2023 14:05:17,CHESTER GRANGER-SECRETARY TREASURE,"KOLDER, SLAVEN & COMPANY, LLC",P.O. BOX 588,,VILLE PLATTE,LA,70586,CASEY L. ARDOIN,ENGAGEMENT PARTNER,3373632792,,CASEYA@KCSRCPAS.COM,06/06/2023 10:44:24,,O,,U,N,N,Y,N,U,750000,Y,,6865362,,N,N,N,N,N,N,,21,06/06/2023 00:00:00,06/09/2023 01:30:04,,N,109,1,x00,06/06/2023 00:00:00,,N,CHESTER GRANGER,SECRETARY TREASURE,06/06/2023 00:00:00,721369868,N,,N,N,,,,,Local government,UG,,,,,,01/01/2022 00:00:00,,VJK9NVCQ1DU7,N,US
1470260,1827432022,2022,182743,06/30/2022 00:00:00,S,A,,N,273203997,,N,,FRESNO COUNTY RURAL TRANSIT AGENCY,"2035 TULARE STREET, SUITE 201",,FRESNO,CA,937219361,LONG HER,ACCOUNTANT,5592334148,,LONGH@FRESNOCOG.ORG,01/27/2023 16:03:05,LONG HER-ACCOUNTANT,PRICE PAIGE AND COMPANY,570 N MAGNOLIA AVE STE 100,,CLOVIS,CA,936119361,JASMINE LOGEE,AUDIT SENIOR,5592999540,,JASMINE@PPCPAS.COM,01/27/2023 19:42:36,,O,,U,N,N,N,N,U,750000,Y,,3105155,,N,N,N,N,N,N,,20,01/27/2023 00:00:00,02/01/2023 01:30:07,,N,406,1,x00,01/27/2023 00:00:00,,N,LONG HER,ACCOUNTANT,01/27/2023 00:00:00,770203007,N,,N,N,,,,,Local government,UG,,,,,,07/01/2021 00:00:00,,KRFPMXN2KT55,N,US
1463372,1699662022,2022,169966,06/30/2022 00:00:00,S,A,,N,231667968,,N,,HAZLETON AREA SCHOOL DISTRICT,1515 WEST 23RD STREET,,HAZLE TOWNSHIP,PA,18202,TONY LAMANNA,ASSISTANT BUSINESS MANAGER,5704593111,,LAMANNAT@HASDK12.ORG,01/24/2023 08:50:56,ANTHONY LAMANNA-ASSISTANT BUSINESS MANAGER,KLACIK AND ASSOCIATES PC,101 WEST INDEPENDENCE STREET,,SHAMOKIN,PA,17872,ANTHONY GAGLIARDI,MANAGER,5703281128,,AGAGLIARDI@KLACIKPC.COM,01/24/2023 08:45:25,,O,,U,N,N,N,N,U,750000,Y,,35906338,,N,N,N,N,N,N,,84,01/24/2023 00:00:00,01/27/2023 01:30:06,,N,505,1,x00,01/24/2023 00:00:00,,N,ANTHONY LAMANNA,ASSISTANT BUSINESS MANAGER,01/24/2023 00:00:00,232890989,N,,N,N,,,,,Local government,UG,02554500,02/03/2023 13:27:10,02/09/2023 10:07:22,N,B,07/01/2021 00:00:00,,CTECNNVRKRB9,N,US
1451293,1500242022,2022,150024,06/30/2022 00:00:00,S,A,,N,386000558,,N,010880995,BAY CITY PUBLIC SCHOOLS,601 BLEND ST,,BAY CITY,MI,48706,JOLENE COMPTON,DIRECTOR OF FINANCE AND ACCOUNTING,9896718111,,COMPTONJ@BCSCHOOLS.NET,10/28/2022 12:49:53,JOLENE COMPTON-DIRECTOR OF FINANCE,WEINLANDER FITZHUGH,1600 CENTER AVENUE,,BAY CITY,MI,48708,DAVID QUIMBY,PARTNER,9898935577,,DAVE.QUIMBY@WF.CPA,10/26/2022 11:12:14,,O,,U,N,N,N,N,U,750000,Y,,18317560,,N,N,N,Y,N,N,,84,10/31/2022 00:00:00,11/02/2022 01:30:07,,N,505,1,x00,10/31/2022 00:00:00,,N,JOLENE COMPTON,DIRECTOR OF FINANCE,10/31/2022 00:00:00,382272300,N,,N,N,,,,,Local government,UG,,11/02/2022 12:54:45,11/03/2022 07:43:14,N,G,07/01/2021 00:00:00,,NVHRA4V88HN3,N,US
1468625,1939982022,2022,193998,06/30/2022 00:00:00,S,A,,N,236003787,,N,,THE SCHOOL DISTRICT OF THE CITY OF HARRISBURG,1601 STATE STREET,,HARRISBURG,PA,17103,DR. MARCIA STOKES,BUSINESS ADMINISTRATOR ,7177034130,,MSTOKES@HBGSD.US,01/24/2023 09:02:53,DR. MARCIA STOKES-CHIEF FINANCIAL OFFICER,"BBD, LLP",1835 MARKET STREET,,PHILADELPHIA ,PA,19103,CARL HOGAN,PARTNER,2155677770,,CHOGAN@BBDCPA.COM,01/24/2023 08:55:39,,O,,U,N,N,N,N,U,973014,N,,32433807,,N,N,N,N,N,N,,84,01/24/2023 00:00:00,01/27/2023 01:30:06,,N,505,1,x00,01/24/2023 00:00:00,,N,DR. MARCIA STOKES,CHIEF FINANCIAL OFFICER,01/24/2023 00:00:00,232896692,N,,N,N,,,,,Local government,UG,,02/03/2023 13:22:43,02/09/2023 10:07:22,N,G,07/01/2021 00:00:00,,TCAHJUGP3QM5,N,US
1480544,2361052022,2022,236105,06/30/2022 00:00:00,S,A,,N,450222079,,N,086110178,JACOBSON MEMORIAL HOSPITAL CARE CENTER AND SUBSIDIARY,601 EAST ST N,,ELGIN,ND,585330367,MICAELA MEYER,CFO,7015842792,,MMEYER@JMHCC.ORG,03/30/2023 12:46:07,MICAELA MEYER-CFO,EIDE BAILLY LLP,4310 17TH AVE S,,FARGO,ND,58103,RENEE GRAVALIN,PARTNER,7012398631,,RGRAVALIN@EIDEBAILLY.COM,03/27/2023 20:31:45,,O,,U,N,Y,N,N,U,750000,N,,2657498,,Y,N,N,Y,N,N,,10,03/30/2023 00:00:00,04/01/2023 01:30:03,,N,902,1,x00x10x93,03/30/2023 00:00:00,,N,MICAELA MEYER,CFO,03/30/2023 00:00:00,450250958,Y,,N,Y,,,,,Non-profit,UG,,,,,,07/01/2021 00:00:00,,PEKXCMGQMT86,N,US
1466942,2502892022,2022,250289,06/30/2022 00:00:00,S,A,,N,824796176,,N,,WASHINGTON METRORAIL SAFETY COMMISSION,"750 FIRST STREET NE, SUITE 900",,WASHINGTON,DC,20002,DAVID MAYER,CHIEF EXECUTIVE OFFICER,2023841521,,DMAYER@WMSC.GOV,01/12/2023 11:28:26,DAVID MAYER-CEO,CHERRY BEKAERT LLP,"3800 GLENWOOD AVENUE, SUITE 200",,RALEIGH,NC,27612,SCOTT ANDERSON,DIRECTOR,9197821040,,SANDERSON@CBH.COM,01/12/2023 10:44:21,,O,,U,N,N,N,N,U,750000,N,,1739464,,N,N,N,N,N,N,,20,01/12/2023 00:00:00,01/14/2023 01:30:07,,N,888,1,x00,01/12/2023 00:00:00,,N,DAVID MAYER,CEO,01/12/2023 00:00:00,560574444,N,,N,N,,,,,Local government,UG,,,,,,07/01/2021 00:00:00,,V8J8D8S17CY7,N,US
1486974,2332482022,2022,233248,06/30/2022 00:00:00,S,A,,N,460282624,,N,053104188,CHESTER AREA SCHOOL DISTRICT NO. 39-1,PO BOX 159,,CHESTER,SD,57016,KRISTI LEWIS,BUSINESS MANAGER,6054892411,,KRISTI.LEWIS@K12.SD.US,05/05/2023 10:23:10,KRISTI LEWIS-BUSINESS MANAGER,ELO CPAS & ADVISORS,PO BOX 249,,MITCHELL,SD,57301,TERRI POST,PARTNER,6059967717,,TERRI.POST@ELOCPA.COM,05/05/2023 10:46:48,,O,,U,N,N,N,N,U,750000,N,,885834,,N,N,N,N,N,N,,84,05/05/2023 00:00:00,05/10/2023 01:30:05,,N,505,1,x00,05/05/2023 00:00:00,,N,KRISTI LEWIS,BUSINESS MANAGER,05/05/2023 00:00:00,460434947,N,,N,N,,,,,Local government,UG,,05/12/2023 13:04:01,05/18/2023 10:11:07,N,G,07/01/2021 00:00:00,,C86BNS455KJ8,N,US
1478006,1489762022,2022,148976,06/30/2022 00:00:00,S,A,,N,386004689,,N,062222997,"CITY OF GRAND RAPIDS, MICHIGAN",300 MONROE AVENUE NW,,GRAND RAPIDS,MI,49503,CURT REPPUHN,DEPUTY COMPTROLLER,6164563194,,CAREPPUHN@GRAND-RAPIDS.MI.US,03/29/2023 08:31:26,CURT REPPUHN-DEPUTY COMPTROLLER,"PLANTE & MORAN, PLLC","3000 TOWN CENTER, SUITE 400",,SOUTHFIELD,MI,48075,JOE KOWALSKI,ENGAGEMENT PARTNER,2482233761,,PM.SINGLEAUDIT@PLANTEMORAN.COM,03/27/2023 11:54:24,,O,,U,N,N,N,N,U,873951,N,,29131686,,N,N,N,N,N,N,,21,03/29/2023 00:00:00,04/01/2023 01:30:03,,N,200,1,x00,03/29/2023 00:00:00,,N,CURT REPPUHN,DEPUTY COMPTROLLER,03/29/2023 00:00:00,381357951,N,,N,N,,,,,Local government,UG,,,,,,07/01/2021 00:00:00,,DBPMK7XDKTG3,N,US
1451246,1504502022,2022,150450,06/30/2022 00:00:00,S,A,,N,381751522,,N,074217100,OAKLAND COMMUNITY COLLEGE,2480 OPDYKE ROAD,,BLOOMFIELD HILLS,MI,48304,SHARON CONVERSE,DIRECTOR OF FINANCIAL SERVICES,2483412154,,SKCONVER@OAKLANDCC.EDU,11/10/2022 15:28:27,SHARON CONVERSE-CONTROLLER,"PLANTE & MORAN, PLLC",19176 HALL ROAD,,CLINTON TOWNSHIP,MI,48038,DANA COOMES,PARTNER,5864164913,,PM.SINGLEAUDIT@PLANTEMORAN.COM,11/10/2022 14:04:35,,C,84,U,N,N,N,N,U,1552067,Y,,51735555,,N,N,N,N,N,N,,,11/10/2022 00:00:00,11/16/2022 01:30:06,,N,504,1,x00,11/10/2022 00:00:00,,N,SHARON CONVERSE,CONTROLLER,11/10/2022 00:00:00,381357951,N,,N,N,,,,,Institution of higher education (IHE),UG,00230300,11/16/2022 12:53:44,11/17/2022 07:19:49,N,B,07/01/2021 00:00:00,,GRBGSMEVKN86,N,US
1460935,2064852022,2022,206485,06/30/2022 00:00:00,S,A,,N,346000778,,N,021151733,COPLEY-FAIRLAWN CITY SCHOOL DISTRICT,3797 RIDGEWOOD ROAD,,COPLEY,OH,443211695,JOHN WHEADON,TREASUER,3306844815,,JOHN.WHEADON@COPLEY-FAIRLAWN.ORG,01/20/2023 07:18:27,JOHN WHEADON-TREASURER,"KEITH FABER, AUDITOR OF STATE","88 EAST BROAD STREET, 10TH FLOOR",,COLUMBUS,OH,43215,KEVIN HEAD,SENIOR AUDIT MANAGER,3304710033,,KLHEAD@OHIOAUDITOR.GOV,01/19/2023 15:18:56,,O,,U,N,N,N,N,U,750000,Y,,2827948,,N,N,N,N,N,N,,84,01/20/2023 00:00:00,01/24/2023 01:30:06,,N,505,1,x00,01/20/2023 00:00:00,,N,JOHN WHEADON,TREASURER,01/20/2023 00:00:00,311334820,N,,N,N,,,,,Local government,UG,,01/31/2023 15:40:25,02/02/2023 10:21:52,N,G,07/01/2021 00:00:00,,WKD2KK6MTKT4,N,US
1463437,1518332022,2022,151833,06/30/2022 00:00:00,S,A,,N,416001596,,N,,INDEPENDENT SCHOOL DISTRICT NO. 316,499 POWELL AVE,,COLERAINE,MN,55722,MIRANDA JURGANSEN,BUSINESS MANAGER,2182477306,,MJURGANSEN@ISD316.ORG,12/20/2022 09:16:15,MIRANDA JURGANSEN-BUSINESS MANAGER,WIPFLI LLP,"1502 LONDON ROAD, SUITE 200",,DULUTH,MN,55812,MICHELLE SWOBODA,PARTNER,2187224705,,MSWOBODA@WIPFLI.COM,12/20/2022 14:35:45,,O,,U,Y,N,N,N,U,750000,Y,,2431430,,N,N,N,N,N,N,,84,12/20/2022 00:00:00,12/22/2022 01:30:06,,N,505,1,x00,12/20/2022 00:00:00,,N,MIRANDA JURGANSEN,BUSINESS MANAGER,12/20/2022 00:00:00,390758449,N,,Y,N,,,,,Local government,UG,,01/06/2023 13:27:41,01/12/2023 10:08:23,N,G,07/01/2021 00:00:00,,WJRZL1SRJ2P9,N,US
1489851,2042822022,2022,204282,03/31/2022 00:00:00,S,A,,N,952492427,,N,085591816,"FLORENCE CRITTENTON SERVICES OF ORANGE COUNTY, INC.",801 E CHAPMAN SUITE 203,,FULLERTON,CA,92831,PHOEBE MIYAMOTO,VP OF FINANCE,7146809000,,PMIYAMOTO@CRITTENTONSOCAL.ORG,05/24/2023 21:24:03,PHOEBE MIYAMOTO-VICE PRESIDENT OF FINANCE,KMJ CORBIN & COMPANY,"2855 MICHELLE DR., SUITE 350",,IRVINE,CA,92606,KENDALL MERKLEY,AUDIT PARTNER,9494310997,,KENDALL@KMJPARTNERSCPA.COM,05/24/2023 20:23:26,,O,,U,N,Y,N,N,U,841452,Y,,28048395,,N,N,N,N,N,N,,93,05/24/2023 00:00:00,05/26/2023 01:30:05,,N,908,1,x00,05/24/2023 00:00:00,,N,PHOEBE MIYAMOTO,VICE PRESIDENT OF FINANCE,05/24/2023 00:00:00,810569753,Y,,N,N,,,,,Non-profit,UG,,,,,,04/01/2021 00:00:00,,FQ5KVM25RSN9,N,US
1462315,1749362022,2022,174936,08/31/2022 00:00:00,S,A,,N,751246742,,N,611506788,REGION 9 EDUCATION SERVICE CENTER,301 LOOP 11,,WICHITA FALLS,TX,763063706,WES PIERCE,EXECUTIVE DIRECTOR,9403226928,,WES.PIERCE@ESC9.NET,01/02/2023 16:17:30,WES PIERCE-EXECUTIVE DIRECTOR,"EDGIN, PARKMAN, FLEMING & FLEMING, PC",P.O. BOX 750,,WICHITA FALLS,TX,763070750,MICHAEL D. EDGIN,CPA / SHAREHOLDER,9407665550,,MEDGIN@EPFFPC.COM,12/19/2022 10:25:21,,O,,U,N,N,N,N,U,750000,Y,,10379902,,N,N,N,N,N,N,,93,01/03/2023 00:00:00,01/05/2023 01:30:07,,N,505,1,x00,01/03/2023 00:00:00,,N,WES PIERCE,EXECUTIVE DIRECTOR,01/03/2023 00:00:00,203899206,N,,N,N,,,,,Local government,UG,,01/17/2023 12:53:45,01/19/2023 06:35:12,N,G,09/01/2021 00:00:00,,DZEL3M3BH5Z2,N,US
1450233,2210972022,2022,221097,06/30/2022 00:00:00,S,A,,N,680491171,,N,,"HERITAGE FIELDS, INC.",P.O. BOX 710,,DECATUR,IL,62525,CANDACE CLEVENGER,PRESIDENT,2173626262,,CCLEVENGER@HERITAGENET.ORG,10/18/2022 15:03:58,CANDACE CLEVENGER-PRESIDENT,MCK CPAS & ADVISORS,1353 E. MOUND ROAD,,DECATUR,IL,62526,CATHY MANSUR,PARTNER,2178752655,,CMANSUR@MCKCPA.COM,10/18/2022 12:57:42,,O,,U,N,N,N,N,U,750000,Y,,2088646,,N,N,N,N,N,N,,14,10/18/2022 00:00:00,10/21/2022 01:30:07,,N,903,1,x00,10/18/2022 00:00:00,,N,CANDACE CLEVENGER,PRESIDENT,10/18/2022 00:00:00,371074029,N,,N,N,,,,,Non-profit,UG,,,,,,07/01/2021 00:00:00,,VAMWGJN1LXE4,N,US
1472877,2572522022,2022,257252,06/30/2022 00:00:00,S,A,,N,461862158,,N,,GREAT LAKES ACADEMY INC.,8401 S SAGINAW AVE,,CHICAGO,IL,606172029,MIKE MESTERHARM,CHIEF OPERATING OFFICER,7735303040,,MMESTERHARM@GLACHICAGO.ORG,03/01/2023 14:55:53,MIKE MESTERHARM-CHIEF OPERATING OFFICER,ORBA,"455 NORTH CITYFRONT PLAZA DRIVE, SUITE 1500",,CHICAGO,IL,60611,JAMES QUAID,DIRECTOR,3126707444,,JQUAID@ORBA.COM,02/10/2023 13:06:04,,O,,U,N,N,N,N,U,750000,N,,1587092,,N,N,N,N,N,N,,84,03/02/2023 00:00:00,03/08/2023 01:30:06,,N,888,1,x00,03/02/2023 00:00:00,,N,MIKE MESTERHARM,CHIEF OPERATING OFFICER,03/02/2023 00:00:00,362938874,N,,N,N,,,,,Non-profit,UG,,03/08/2023 15:44:59,03/09/2023 09:37:31,N,G,07/01/2021 00:00:00,,UKJJTXNK1FG1,N,US
1449651,1815262022,2022,181526,03/31/2022 00:00:00,S,A,,Y,830206502,,N,177297397,"HOUSING AUTHORITY OF THE CITY OF CHEYENNE, WYOMING",PO BOX 20046,,CHEYENNE,WY,82003,GREG HANCOCK,EXECUTIVE DIRECTOR,3076338317,,GHANCOCK@CHEYENNEHOUSING.ORG,10/11/2022 18:22:04,GREG HANCOCK-EXECUTIVE DIRECTOR,"NIEWEDDE & WIENS, CPA'S",PO BOX 98,,YORK,NE,68467,JEFF WIENS,PARTNER,4023624410,,JEFF@NWCPAS.NET,10/13/2022 08:52:02,,O,,U,N,Y,N,N,U,750000,N,,16275227,,N,Y,Y,Y,N,N,,14,10/13/2022 00:00:00,10/15/2022 01:30:07,,N,203,1,x00x14,10/13/2022 00:00:00,,N,GREG HANCOCK,EXECUTIVE DIRECTOR,10/13/2022 00:00:00,470812943,Y,,N,N,,,,,Local government,UG,,,,,,04/01/2021 00:00:00,,MCD5SMMWNBE5,N,US
1466954,1870272022,2022,187027,06/30/2022 00:00:00,S,A,,N,936002250,,N,037085651,CITY OF SANDY,39250 PIONEER BLVD,,SANDY,OR,97055,TYLER DEEMS,FINANCE DIRECTOR,5038261079,,TDEEMS@CI.SANDY.OR.US,01/12/2023 11:28:20,TYLER DEEMS-DEPUTY CITY MANAGER,"TALBOT, KORVOLA & WARWICK, LLP","14945 SW SEQUOIA PKWY, STE 150",,PORTLAND,OR,97224,TIMOTHY GILLETTE,PARTNER,5032742849,,TGILLETTE@TKW.COM,01/12/2023 12:39:48,,O,,U,Y,N,N,N,U,750000,Y,,1550493,,Y,N,N,Y,N,N,,20,01/12/2023 00:00:00,01/14/2023 01:30:07,,N,200,1,x00,01/12/2023 00:00:00,,N,TYLER DEEMS,DEPUTY CITY MANAGER,01/12/2023 00:00:00,930954337,N,,Y,Y,,,,,State,UG,,,,,,07/01/2021 00:00:00,,RPCMHNGRWDD1,N,US
1485529,1565242022,2022,156524,06/30/2022 00:00:00,S,A,,N,210735947,,Y,075522102,BURLINGTON COUNTY INSTITUTE OF TECHNOLOGY,695 WOODLANE ROAD,,WESTAMPTON,NJ,08060,ANDREW WILLMOTT,BUSINESS ADMINISTRATOR,6092674226,,AWILLMOTT@BURLCOSCHOOLS.ORG,05/22/2023 11:12:21,ANDREW WILLMOTT-BA/BS,"BRENT W. LEE & CO., LLC",39 PADDOCK LANE,,CINNAMINSON,NJ,08077,GEORGE LEE,SENIOR ACCOUNTANT,6096705307,,CASEY.LEE33@YAHOO.COM,04/24/2023 09:46:42,,O,,U,N,N,N,N,U,750000,Y,,4477959,,N,N,N,N,N,N,,84,05/22/2023 00:00:00,05/24/2023 01:30:05,,N,105,1,x00,03/08/2023 00:00:00,,N,ANDREW WILLMOTT,BA/BS,03/08/2023 00:00:00,273629598,N,,N,N,,,,,Local government,UG,04285600,03/15/2023 12:26:23,03/16/2023 08:44:21,N,B,07/01/2021 00:00:00,,EZL5WZMKU9M4,,
1479923,2407212022,2022,240721,12/31/2022 00:00:00,S,A,,N,720918445,,N,602417870,"WESTMINSTER SERVICES FOR THE ELDERLY, INC.",250 SOUTH FIRST STREET,,PONCHATOULA,LA,70454,ELIZABETH KING,HOUSING ACCOUNTING SUPPORT SUPERVISOR,6142732179,,NCRAUDITTEAM@NATIONALCHURCHRESIDENCES.ORG,03/28/2023 11:01:34,JILL KOLB-TREASURER,"DAUBY O'CONNOR & ZALESKI, LLC",501 CONGRESSIONAL BLVD,,CARMEL,IN,46032,HEATHER PERRY,MEMBER,3178485700,,HPERRY@DOZLLC.COM,04/04/2023 08:40:13,,O,,U,N,N,N,N,U,750000,Y,,1347196,,N,N,N,N,N,N,,10,04/04/2023 00:00:00,04/07/2023 01:30:06,,N,888,1,x00,04/04/2023 00:00:00,,N,JILL KOLB,TREASURER,04/04/2023 00:00:00,351750664,N,,N,N,,,,,Non-profit,UG,,,,,,01/01/2022 00:00:00,,DLX7W35P3XE5,N,US
1456589,2120072022,2022,212007,03/31/2022 00:00:00,S,A,,N,710413798,,N,078575107,"LEE COUNTY COOPERATIVE CLINIC, INC.",530 WEST ATKINS BLVD,,MARIANNA,AR,72360,CAMESHIA ROGERS,FINANCE DIRECTOR,9013372284,,CROGERS@LCCC.US.COM,11/20/2022 23:46:46,CAMESHIA ROGERS-CHIEF FINANCIAL OFFICER,"MEYER & WARD, CPAS",P.O. BOX 1045,,WYNNE,AR,72396,HODA WARD,CPA,8702387971,,HWARDCPA@HOTMAIL.COM,11/14/2022 12:47:09,,O,,U,N,N,N,N,U,750000,N,,3399181,,N,N,N,N,N,N,,93,11/20/2022 00:00:00,11/28/2022 01:30:06,,N,908,1,x00,11/20/2022 00:00:00,,N,CAMESHIA ROGERS,CHIEF FINANCIAL OFFICER,11/20/2022 00:00:00,710810734,N,,N,N,,,,,Non-profit,UG,,,,,,04/01/2021 00:00:00,,VK2BR99EYVY9,N,US
1473078,1479212022,2022,147921,06/30/2022 00:00:00,S,A,,N,046001419,,N,076612407,COUNTY OF BARNSTABLE,3195 MAIN STREET,,BARNSTABLE,MA,02630,CAROL COPPOLA,FINANCE DIRECTOR,5083756915,,CAROL.COPPOLA@CAPECOD.GOV,03/31/2023 16:21:28,CAROL COPPOLA-FINANCE DIRECTOR,MELANSON CPAS,"10 NEW ENGLAND BUSINESS CENTER DR., STE. 107",,ANDOVER,MA,01810,EDWARD BOYD,PRINCIPAL,9787490005,,ED.BOYD@MARCUMLLP.COM,03/31/2023 15:41:01,,O,,U,N,N,N,N,U,750000,Y,,5141858,,N,N,N,N,N,N,,11,03/31/2023 00:00:00,04/06/2023 01:30:05,,N,100,1,x00,03/31/2023 00:00:00,,N,CAROL COPPOLA,FINANCE DIRECTOR,03/31/2023 00:00:00,020354851,N,,N,N,,,,,Local Government,UG,,,,,,07/01/2021 00:00:00,,SM2ZMLDPQXG3,N,US
1448700,2119132022,2022,211913,06/30/2022 00:00:00,S,A,,N,341966420,,N,,JEWISH SENIOR HOUSING OF AKRON 042-35532,730 WEST MARKET STREET,,AKRON,OH,44303,BRENT MEYER,CONTROLLER,3307624011,,BMEYER@SMSILIVING.COM,03/16/2023 17:13:09,BRENT MEYER-CONTROLLER,APPLE GROWTH PARTNERS,1540 WEST MARKET STREET,,AKRON,OH,44313,DANA PATTERSON,PRINCIPAL,3308677350,,DPATTERSON@APPLEGROWTH.COM,03/17/2023 07:01:56,,O,,U,N,N,N,N,U,750000,Y,,777690,,N,N,N,N,N,N,,14,03/17/2023 00:00:00,03/21/2023 01:30:07,,N,903,1,x00,03/17/2023 00:00:00,,N,BRENT MEYER,CONTROLLER,03/17/2023 00:00:00,814504770,N,,N,N,,,,,Non-profit,UG,,,,,,07/01/2021 00:00:00,,S4BTQGE2MFD6,N,US
1462853,1559522022,2022,155952,06/30/2022 00:00:00,S,A,,N,886000190,,N,081833311,"CITY OF ELKO, NEVADA",1751 COLLEGE AVE.,,ELKO,NV,89801,JAN L. BAUM,FINANCIAL SERVICES DIRECTOR,7757777110,,JBAUM@ELKOCITYNV.GOV,12/19/2022 11:32:17,JAN BAUM-FINANCIAL SERVICES DIRECTOR,"HINTONBURDICK, PLLC","63 SOUTH 300 EAST, SUITE 100",,ST. GEORGE,UT,84770,CHAD B. ATKINSON,PARTNER,8885661277,,CATKINSON@HINTONBURDICK.COM,12/20/2022 11:24:39,,O,,U,N,N,N,N,U,750000,Y,,7829943,,N,N,N,N,N,N,,21,12/20/2022 00:00:00,12/22/2022 01:30:06,,N,200,1,x00,12/20/2022 00:00:00,,N,JAN BAUM,FINANCIAL SERVICES DIRECTOR,12/20/2022 00:00:00,870492866,N,,N,N,,,,,Local government,UG,,,,,,07/01/2021 00:00:00,,D29CRMBNAQM7,N,US
1488928,2035442022,2022,203544,12/31/2022 00:00:00,S,A,,N,760488667,,N,,"BAYTOWN SUPPORTIVE HOUSING, INC",2550 UNIVERSITY AVE. W. SUITE 330 N,,ST. PAUL,MN,55114,CHUCK REUTER,ACOUNTING MANAGER,6516457271,,CREUTER@ACCESSIBLESPACE.ORG,06/12/2023 10:41:10,CHUCK REUTER-ACCOUNTING MANAGER,"HINRICHS & ASSOCIATES, LTD","1000 SHELARD PARKWAY, STE. 110",,MINNEAPOLIS,MN,55426,BOB BAKER,SHAREHOLDER,9525428010,,BOB@HINRICHSASSOCIATES.COM,06/12/2023 12:20:56,,O,,U,N,N,N,N,U,750000,N,,1804631,,N,N,N,N,Y,N,,14,06/12/2023 00:00:00,06/14/2023 01:30:04,,N,903,1,x00x14,06/12/2023 00:00:00,,N,CHUCK REUTER,ACCOUNTING MANAGER,06/12/2023 00:00:00,411629155,N,,N,N,,,,,Non-profit,UG,,,,,,01/01/2022 00:00:00,,HKZRYK81LMB1,N,US
1472240,33912022,2022,3391,06/30/2022 00:00:00,S,A,,N,042507815,,N,883920969,"RAINBOW CHILD DEVELOPMENT CENTER, INC.",10 EDWARD STREET,,WORCESTER,MA,01605,HEATHER MARCANO,BUSINESS MANAGER,5087916849,,HMARCANO@RAINBOWCDC.COM,02/17/2023 09:39:00,HEATHER MARCANO-HEATHER MARCANO,"AAFCPAS, INC.",50 WASHINGTON STREET,,WESTBOROUGH,MA,01581,KATIE BELANGER,PARTNER,5083669100,,KBELANGER@AAFCPA.COM,02/24/2023 11:51:03,,O,,U,N,N,N,N,U,750000,Y,,1509901,,N,N,N,N,N,N,,93,02/27/2023 00:00:00,03/02/2023 01:30:07,,N,908,1,x00,02/27/2023 00:00:00,,N,HEATHER MARCANO,HEATHER MARCANO,02/27/2023 00:00:00,042571780,N,,N,N,,,,,Non-profit,UG,,,,,,07/01/2021 00:00:00,,G4ECBHHF75J3,N,US
1484733,269352022,2022,26935,12/31/2022 00:00:00,S,A,,N,232130954,,N,,"ON LOK HOUSE, INC.",1900 HUNTINGTON DRIVE,,DUARTE,CA,91010,DERRICK LAWSON,ASSISTANT CONTROLLER,8182470420,,DERRICK.LAWSON@HUMANGOOD.ORG,04/27/2023 17:19:03,ANDREW J. MCDONALD-CFO,"DAUBY O'CONNOR & ZALESKI, LLC",501 CONGRESSIONAL BLVD. ,,CARMEL,IN,46032,CHRISTOPHER J. PETESCH,PRINCIPAL,3178485700,,CPETESCH@DOZLLC.COM,04/28/2023 08:46:52,,O,,U,N,N,N,N,U,750000,N,,3534594,,N,N,N,N,Y,N,,14,04/28/2023 00:00:00,05/02/2023 01:30:07,,N,903,1,x00x14,04/28/2023 00:00:00,,N,ANDREW J. MCDONALD,CFO,04/28/2023 00:00:00,351750664,N,,N,N,,,,,Non-profit,UG,,,,,,01/01/2022 00:00:00,,JE1DUM5XD463,N,US
1476994,712432022,2022,71243,06/30/2022 00:00:00,S,A,,Y,510103684,,N,077069243,CHRISTIANA CARE HEALTH SYSTEM AND AFFILIATES,"200 HYGEIA DRIVE, SUITE 2400",,NEWARK,DE,197132949,BRIANNA MALONEY,"DIRECTOR, RESEARCH FINANCE",3026232582,,BMALONEY@CHRISTIANACARE.ORG,03/29/2023 14:55:33,"BRIANNA MALONEY-DIRECTOR, RESEARCH FINANCE","PRICEWATERHOUSECOOPERS, LLC","TWO COMMERCE SQUARE, SUITE 1800, 2001 MARKET ",,PHILADELPHIA,PA,191037045,WILLIAM LIVA,PARTNER,2153135021,,WILLIAM.J.LIVA@PWC.COM,03/30/2023 14:47:29,,C,93,U,N,N,N,N,U,3000000,Y,,121312178,,N,N,N,N,N,N,,,03/30/2023 00:00:00,04/01/2023 01:30:03,,N,908,1,x00,03/30/2023 00:00:00,,N,BRIANNA MALONEY,"DIRECTOR, RESEARCH FINANCE",03/30/2023 00:00:00,134008324,N,,N,N,,,,,Non-profit,UG,,04/18/2023 11:32:21,04/21/2023 10:36:42,N,G,07/01/2021 00:00:00,,X4ADJRZ3Q1H4,N,US
1464544,1808182022,2022,180818,06/30/2022 00:00:00,S,A,,N,526001005,,N,184089704,"BOARD OF EDUCATION OF QUEEN ANNE'S COUNTY, MARYLAND",200 CHESTERFIELD AVENUE,,CENTREVILLE,MD,21617,JANE TOWERS ,CHIEF FINANCIAL OFFICER,4107588208,,JANE.TOWERS@QACPS.ORG,12/29/2022 12:45:30,JANE TOWERS-CFO,UHY LLP ,955 MOUNT HERMON ROAD,,SALISBURY,MD,21804,AUDREY MCKENRICK,PRINCIPAL,4107421328,,AMCKENRICK@UHY-US.COM,01/03/2023 13:07:09,,O,,U,N,N,N,N,U,750000,Y,,13369059,,N,N,N,N,N,N,,84,01/03/2023 00:00:00,01/05/2023 01:30:07,,N,105,1,x00,01/03/2023 00:00:00,,N,JANE TOWERS,CFO,01/03/2023 00:00:00,200694403,N,,N,N,,,,,Local government,UG,,01/17/2023 12:59:05,01/19/2023 06:35:12,N,G,07/01/2021 00:00:00,,XQGMGEP47M41,N,US
1490254,2259062022,2022,225906,08/31/2022 00:00:00,S,A,,N,742932865,,N,030539121,UNITY PARTNERS,"4001 EAST 29TH STREET, SUITE 114",,BRYAN,TX,77802,OWEN MANSILL,CHIEF FINANCIAL OFFICER,9795952900,,OMANSILL@PROJECT-UNITY.ORG,05/30/2023 16:05:46,OWEN MANSILL-CHIEF FINANCIAL OFFICER,SEIDEL SCHROEDER,1575 CRESCENT POINTE PKWY,,COLLEGE STATION,TX,77845,DUANE MUEHLBRAD,PARTNER,9798468980,,DMUEHLBRAD@SSCCPA.COM,05/30/2023 15:15:13,,O,,U,N,N,N,N,U,750000,Y,,1238380,,N,N,N,N,N,N,,93,05/30/2023 00:00:00,06/02/2023 01:30:06,,N,909,1,x00,05/30/2023 00:00:00,,N,OWEN MANSILL,CHIEF FINANCIAL OFFICER,05/30/2023 00:00:00,742052353,N,,N,N,,,,,Non-profit,UG,,,,,,09/01/2021 00:00:00,,HEZNEMFDV689,N,US
1467543,1950532022,2022,195053,06/30/2022 00:00:00,S,A,,N,310856208,,N,103547378,SOUTHERN OHIO EDUCATIONAL SERVICE CENTER,3321 AIRBORNE ROAD,,WILMINGTON ,OH,45177,RACHEL MEYER,TREASURER,9373826921,,RMEYER@SOUTHERNOHIOESC.ORG,03/14/2023 13:51:55,RACHEL MEYER-TREASURER,AUDITOR OF STATE OF OHIO,88 E. BROAD STREET,,COLUMBUS,OH,43215,CRISTAL JONES,CHIEF AUDITOR,5133618550,,DCF-SOUTHWEST@OHIOAUDITOR.GOV,03/14/2023 08:36:53,,O,,U,N,N,N,N,U,750000,Y,,1700054,,N,N,N,N,N,N,,84,03/14/2023 00:00:00,03/17/2023 01:30:05,,N,505,1,x00,03/14/2023 00:00:00,,N,RACHEL MEYER,TREASURER,03/14/2023 00:00:00,311334820,N,,N,N,,,,,Local government,UG,,03/21/2023 13:25:16,03/23/2023 08:41:55,N,G,07/01/2021 00:00:00,,P3JYCZM562S7,N,US
1468450,1860682022,2022,186068,05/31/2022 00:00:00,S,A,,N,237411718,,N,,KIDS INCORPORATED OF THE BIG BEND,306 LAURA LEE AVE,,TALLAHASSEE,FL,323016979,ANITA BUSHNYAKOVA,CFO,8504149800,,ABUSHNYAKOVA@KIDSINCORPORATED.ORG,01/17/2023 13:59:00,ANITA BUSHNYAKOVA-CHIEF FINANCIAL OFFICER,THOMAS HOWELL FERGUSON,2615 CENTENNIAL BLVD,,TALLAHASSEE,FL,32308,ALLISON HARRELL,SHAREHOLDER,8506688100,,AHARRELL@THF-CPA.COM,01/17/2023 12:17:32,,O,,U,N,N,N,N,U,750000,Y,,3725492,,N,N,N,N,N,N,,93,01/17/2023 00:00:00,01/20/2023 01:30:07,,N,908,1,x00,01/17/2023 00:00:00,,N,ANITA BUSHNYAKOVA,CHIEF FINANCIAL OFFICER,01/17/2023 00:00:00,593186310,N,,N,N,,,,,Non-profit,UG,,,,,,06/01/2021 00:00:00,,YNHPC44NAHA6,N,US
1449306,1499982022,2022,149998,06/30/2022 00:00:00,S,A,,N,386000346,,N,017598780,MARTIN PUBLIC SCHOOLS,1556 CHALMERS,,MARTIN,MI,49070,SAMANTHA BALL,"SUPERINTENDENT, CFO",2694420503,,SAMANTHA.BALL@MARTINPUBLICSCHOOLS.ORG,10/11/2022 14:34:21,SAMANTHA BALL-SUPERINTENDENT/CFO,MANER COSTERISAN,"2425 E. GRAND RIVER AVENUE, SUITE 1",,LANSING,MI,48912,"JEFFREY L. STALEY, CPA",PRINCIPAL,5173237500,,JSTALEY@MANERCPA.COM,10/11/2022 13:29:28,,O,,U,N,N,N,N,U,750000,N,,1154727,,N,N,N,N,N,N,,84,10/11/2022 00:00:00,10/15/2022 01:30:07,,N,505,1,x00,10/11/2022 00:00:00,,N,SAMANTHA BALL,SUPERINTENDENT/CFO,10/11/2022 00:00:00,382157642,N,,N,N,,,,,Local government,UG,,10/19/2022 13:42:40,10/20/2022 09:37:08,N,G,07/01/2021 00:00:00,,J7ZCHTLMKF69,N,US
1483113,2406802022,2022,240680,06/30/2022 00:00:00,S,A,,N,660210567,,N,136564197,"COLEGIO LA MILAGROSA, INC",9 GUADALUPE STREET,,PONCE,PR,00731,EDWIN G HERNANDEZ,AAI FINANCE OFFICER,7878414728,,AAICLMFINANZAS@GMAIL.COM,03/31/2023 10:11:42,EDWIN G HERNANDEZ-FINANCIAL SUPERVISOR,"RRC CPA GROUP, PSC",2971 AVE. EMILIO FAGOT ESQ. CALLE OBISPADO,,PONCE,PR,00716,ERIC ROSALY,PARTNER,7878435500,,YLASOR2000@YAHOO.COM,03/31/2023 10:53:20,,O,,U,Y,N,N,N,U,750000,N,,2223762,,Y,N,N,Y,Y,N,,10,03/31/2023 00:00:00,04/05/2023 01:30:04,,N,888,1,x00x10,03/31/2023 00:00:00,,N,EDWIN G HERNANDEZ,FINANCIAL SUPERVISOR,03/31/2023 00:00:00,660701886,N,,Y,Y,,,,,Non-profit,UG,,,,,,07/01/2021 00:00:00,,GKANPR1182N6,N,US
1455791,2363812022,2022,236381,06/30/2022 00:00:00,S,A,,N,264007559,,N,077464956,REGIONAL SCHOOL UNIT 21,177 ALEWIVE ROAD,,KENNEBUNK,ME,040436101,GWEN BEDELL,INTERIM FINANCE DIRECTOR,2079851100,,GBEDELL@RSU21.NET,11/22/2022 09:02:08,GWEN BEDELL-INTERIM FINANCE DIRECTOR,WIPFLI LLP,30 LONG CREEK DRIVE,,SOUTH PORTLAND,ME,041062437,CHRISTIAN SMITH,PARTNER ,2077745701,,CHRISTIAN.SMITH@WIPFLI.COM,11/21/2022 15:07:45,,O,,U,N,N,N,N,U,750000,Y,,3980758,,N,N,N,N,N,N,,84,11/22/2022 00:00:00,11/30/2022 01:30:08,,N,505,1,x00,11/22/2022 00:00:00,,N,GWEN BEDELL,INTERIM FINANCE DIRECTOR,11/22/2022 00:00:00,390758449,N,,N,N,,,,,Local government,UG,,11/30/2022 14:10:24,12/01/2022 08:03:46,N,G,07/01/2021 00:00:00,,ERXNS5JJ6RT9,N,US
1480123,361292022,2022,36129,06/30/2022 00:00:00,S,A,,N,251187858,,N,028423473,"CENTRAL PENNSYLVANIA COMMUNITY ACTION, INC",207 E CHERRY ST,,CLEARFIELD,PA,16830,MICHELLE STINER,EXECUTIVE DIRECTOR,8147651551,,MSTINER@CPCAA.NET,03/23/2023 17:45:09,MICHELLE STINER-EXECUTIVE DIRECTOR,"TROXELL & ASSOCIATES, LLC",2882 OKLAHOMA SALEM ROAD,,DUBOIS,PA,15801,MEGAN TROXELL,OWNER,8143711760,,MTROXELL@TROXELLCPA.COM,03/23/2023 18:08:28,,O,,U,N,N,N,N,U,750000,Y,,8615907,,N,N,N,N,N,N,,21,03/24/2023 00:00:00,03/28/2023 01:30:04,,N,908,1,x00,03/24/2023 00:00:00,,N,MICHELLE STINER,EXECUTIVE DIRECTOR,03/24/2023 00:00:00,271298363,N,,N,N,,,,,Non-profit,UG,,,,,,07/01/2021 00:00:00,,HH6UMM8F8W98,N,US
1485507,2394722022,2022,239472,12/31/2022 00:00:00,S,A,,N,311774378,,N,,"FRIENDLY TEMPLE APARTMENTS, INC.",5521 WELLS AVE,,ST LOUIS,MO,63112,AMANDA JENKINS,CONTROLLER,3147260111,,AJENKINS@STANDREWS1.COM,04/26/2023 13:10:29,AMANDA JENKINS-CONTROLLER,"PETTIT & COMPANY, LLC","3725 E. SOUTHPORT RD., SUITE A",,INDIANAPOLIS,IN,46227,JOHN PETTIT,DIRECTOR,3177438120,,JPETTIT@PETTITCPAS.COM,04/25/2023 08:22:17,,O,,U,N,N,N,N,U,750000,Y,,4977985,,N,N,N,N,N,N,,14,04/26/2023 00:00:00,04/28/2023 01:30:06,,N,888,1,x00,04/26/2023 00:00:00,,N,AMANDA JENKINS,CONTROLLER,04/26/2023 00:00:00,465446838,N,,N,N,,,,,Non-profit,UG,,,,,,01/01/2022 00:00:00,,S4JKKBTNL653,N,US
1473933,1644712022,2022,164471,06/30/2022 00:00:00,S,A,,N,346002962,,N,348098265,WADSWORTH CITY SCHOOL DISTRICT,524 BROAD STREET,,WADSWORTH,OH,44281,DOUG BEEMAN,TREASURER,3303351303,,DBEEMAN@WADSWORTHSCHOOLS.ORG,03/23/2023 08:09:50,DOUG BEEMAN-TREASURER,"KEITH FABER, AUDITOR OF STATE",88 EAST BROAD STREET,,COLUMBUS,OH,43215,LINDSEY YOUNG,SENIOR AUDIT MANAGER,8006262297,,LTYOUNG@OHIOAUDITOR.GOV,03/23/2023 07:45:38,,O,,U,N,N,N,N,U,750000,Y,,3847128,,N,N,N,N,N,N,,84,03/29/2023 00:00:00,03/31/2023 01:30:04,,N,505,1,x00,03/29/2023 00:00:00,,N,DOUG BEEMAN,TREASURER,03/29/2023 00:00:00,311334820,N,,N,N,,,,,Local government,UG,,04/11/2023 12:40:30,04/13/2023 10:23:02,N,G,07/01/2021 00:00:00,,J2SHPBH8PSS8,N,US
1482420,2576322022,2022,257632,06/30/2022 00:00:00,P,A,,N,591581448,,N,,OCALA SYMPHONY ORCHESTRA,500 BE 9TH ST,,OCALA,FL,34470,MATT WARDELL,EXECUTIVE DIRECTOR,3523511606,,MATT@REILLYARTSCENTER.COM,03/30/2023 14:10:26,MATT WARDELL-CHIEF EXECUTIVE OFFICER,PURVIS GRAY,2347 SE 17TH STREET,,OCALA,FL,34471,HELEN PAINTER ,AUDIT PARTNER,3527323872,,HELENP@PURVISGRAY.COM,03/29/2023 13:42:14,,O,,U,N,N,N,N,U,750000,N,,1095753,,N,N,N,N,N,N,,59,03/30/2023 00:00:00,04/01/2023 01:30:03,,N,888,1,x00,03/30/2023 00:00:00,,N,MATT WARDELL,CHIEF EXECUTIVE OFFICER,03/30/2023 00:00:00,590548468,N,,N,N,,,,,Non-profit,UG,,,,,,07/01/2021 00:00:00,,J3HTNJJTDCJ9,N,US
1485920,2214012022,2022,221401,09/30/2022 00:00:00,S,A,,N,751166224,,N,069019438,"CITY OF BEDFORD, TEXAS",2000 FOREST RIDGE DRIVE,,BEDFORD,TX,76021,CARYN RIGGS,ASSISTANT CITY MANAGER/CFO,8179522177,,CARYN.RIGGS@BEDFORDTX.GOV,04/19/2023 15:41:45,CARYN RIGGS-ASSISTANT CITY MANAGER/CFO,"WEAVER AND TIDWELL, L.L.P.","2300 NORTH FIELD STREET, SUITE 1000",,DALLAS,TX,75201,JENNIFER RIPKA,PARTNER,9724489268,,JENNIFER.RIPKA@WEAVER.COM,04/27/2023 16:18:53,,O,,U,N,N,N,N,U,750000,Y,,3634365,,N,N,N,N,N,N,,21,04/27/2023 00:00:00,04/29/2023 01:30:05,,N,200,1,x00,04/27/2023 00:00:00,,N,CARYN RIGGS,ASSISTANT CITY MANAGER/CFO,04/27/2023 00:00:00,750786316,N,,N,N,,,,,Local government,UG,,,,,,10/01/2021 00:00:00,,CU7BX9ZKPQK8,N,US
1471740,1195782022,2022,119578,06/30/2022 00:00:00,S,A,,N,942221305,,N,,CHILDREN'S COUNCIL OF SAN FRANCISCO,445 CHURCH STREET,,SAN FRANCISCO,CA,94114,ERIC FISCHER,CFO,4152762900,,EFISCHER@CHILDRENSCOUNCIL.ORG,03/08/2023 17:28:29,ERIC FISCHER-CHIEF FINANCIAL OFFICER,HARRINGTON GROUP,2698 MATARO STREET,,PASADENA,CA,91107,CARLOS A. DAVIS,PARTNER,6264036801,,CARLOS@NPOCPAS.COM,03/07/2023 15:24:11,,O,,U,N,N,N,N,U,849679,Y,,28322645,,N,N,N,N,N,N,,93,03/08/2023 00:00:00,03/10/2023 01:30:04,,N,908,1,x00,03/08/2023 00:00:00,,N,ERIC FISCHER,CHIEF FINANCIAL OFFICER,03/08/2023 00:00:00,954557617,N,,N,N,,,,,Non-profit,UG,,,,,,07/01/2021 00:00:00,,FTMKGYA9FNA3,N,US
1480186,1945232022,2022,194523,06/30/2022 00:00:00,S,A,,N,556000394,,N,100081850,RITCHIE COUNTY BOARD OF EDUCATION,134 SOUTH PENN AVENUE,,HARRISVILLE,WV,26362,LORI WELLS,TREASURER,3046432991,,LRWELLS@K12.WV.US,03/23/2023 11:52:54,LORI WELLS-DIRECTOR OF FINANCE/CSBO,"THE FYFFE JONES GROUP, AC",1033 20TH STREET,,HUNTINGTON,WV,25703,MICHAEL MISITI,PARTNER,3045258592,,MICHAEL.MISITI@FYFFEJONES.CPA,03/23/2023 11:40:27,,O,,U,N,N,N,N,U,750000,Y,,3847335,,N,N,N,N,N,N,,84,03/23/2023 00:00:00,03/25/2023 01:30:06,,N,505,1,x00,03/23/2023 00:00:00,,N,LORI WELLS,DIRECTOR OF FINANCE/CSBO,03/23/2023 00:00:00,550634778,N,,N,N,,,,,Local government,UG,,03/29/2023 12:26:23,03/30/2023 07:37:24,N,G,07/01/2021 00:00:00,,CCH5F5LYW5N8,N,US
1483038,1923522022,2022,192352,09/30/2022 00:00:00,S,A,,N,746002492,,N,,"MCLENNAN COUNTY, TEXAS",501 WASHINGTON AVE,,WACO,TX,76701,FRANCES BARTLETT,COUNTY AUDITOR,2547575156,,FRANCES.BARTLETT@CO.MCLENNAN.TX.US,06/15/2023 09:41:44,FRANCES BARTLETT-COUNTY AUDITOR,"PATTILLO, BROWN & HILL L.L.P.",401 W HWY 6,,WACO,TX,76710,CHRIS PRUITT,PARTNER,2547724901,,CPRUITT@PBHCPA.COM,06/14/2023 17:49:54,,O,,U,N,N,N,N,U,750000,Y,,16464292,,N,N,N,N,N,N,,21,06/15/2023 00:00:00,06/17/2023 01:30:05,,N,100,1,x00,06/15/2023 00:00:00,,N,FRANCES BARTLETT,COUNTY AUDITOR,06/15/2023 00:00:00,741130599,N,,N,N,,,,,Local government,UG,,,,,,10/01/2021 00:00:00,,M69EWFNBMSY3,N,US
1455621,2570072022,2022,257007,06/30/2022 00:00:00,S,A,,N,813326090,,N,084752433,"FLORIDIANS FOR QUALITY VIRTUAL EDUCATION, INC.",5805 BRECKENRIDGE PKWY STE E,,TAMPA,FL,33610,MEGAN HOLSTON,MANAGEMENT COMPANY,8557415127,,MEGAN.HOLSTON@PEARSON.COM,02/13/2023 10:26:27,"MEGAN HOLSTON-ASSISTANT DIRECTOR, SCHOOL FINANCIAL SERVICES","KING & WALKER, CPAS, PL","2803 W. BUSCH BLVD, STE 106",,TAMPA,FL,33618,"ROBERT WALKER, CPA",PARTNER,8138924274,,BOB@KINGANDWALKER.COM,02/14/2023 09:17:50,,O,,U,N,N,N,N,U,750000,N,,2166652,,N,N,N,N,N,N,,84,02/14/2023 00:00:00,02/16/2023 01:30:07,,N,888,1,x00,02/14/2023 00:00:00,,N,MEGAN HOLSTON,"ASSISTANT DIRECTOR, SCHOOL FINANCIAL SERVICES",02/14/2023 00:00:00,202081868,N,,N,N,,,,,Non-profit,UG,,02/21/2023 12:12:24,02/23/2023 10:06:56,N,G,07/01/2021 00:00:00,,D9DNMX623P45,N,US
1457201,2477742022,2022,247774,09/30/2022 00:00:00,S,A,,N,392035771,,N,010624686,"MILLENNIUM - JANESVILLE I, INC.",6735 VISTAGREEN WAY #310,,ROCKFORD,IL,61107,PERRY G. HARENDA,PRESIDENT AND TREASURER,8153978827,,PERRYHARENDA@STAR-HOLD.COM,12/29/2022 10:32:51,PERRY G. HARENDA-PRESIDENT,"DAUBY O'CONNOR & ZALESKI, LLC",501 CONGRESSIONAL BLVD.,,CARMEL,IN,46032,MICHAEL L. TURNER,MEMBER,3178485700,,MTURNER@DOZLLC.COM,12/29/2022 10:36:27,,O,,U,N,N,N,N,U,750000,N,,1567191,,N,N,N,N,Y,N,,14,12/29/2022 00:00:00,01/03/2023 01:30:07,,N,888,1,x14x00,12/29/2022 00:00:00,,N,PERRY G. HARENDA,PRESIDENT,12/29/2022 00:00:00,351750664,N,,N,N,,,,,Non-profit,UG,,,,,,10/01/2021 00:00:00,,NQKEMD3NMHP1,N,US
1457709,1102672022,2022,110267,06/30/2022 00:00:00,S,A,,N,841182143,,N,556300317,ROCKY MOUNTAIN HUMAN SERVICES,9900 E. ILIFF AVENUE,,DENVER,CO,80231,NANCY STOKES,CFO,3036365796,,NSTOKES@RMHUMANSERVICES.ORG,11/20/2022 19:53:45,NANCY STOKES-CFO,"KUNDINGER, CORDER & MONTOYA, P.C.","475 LINCOLN STREET, SUITE 200",,DENVER,CO,80203,STEVE CORDER,CPA,3035345953,,SCORDER@KCMDENVER.CPA,11/21/2022 06:45:30,,O,,U,Y,N,N,N,U,750000,Y,,15631464,,N,N,N,N,N,N,,64,11/21/2022 00:00:00,11/28/2022 01:30:06,,N,909,1,x00,11/21/2022 00:00:00,,N,NANCY STOKES,CFO,11/21/2022 00:00:00,841255164,N,,Y,N,,,,,Non-profit,UG,,11/28/2022 14:22:24,12/01/2022 08:03:46,,N,07/01/2021 00:00:00,,KGZ4WENLDJE5,N,US
1481824,405592022,2022,40559,06/30/2022 00:00:00,S,A,,N,314379572,,N,124308040,ST. VINCENT FAMILY CENTERS,1490 E MAIN STREET,,COLUMBUA,OH,43205,PAUL CORNETT,CHIEF FINANCIAL OFFICER,6142520731,,PCORNETT@SVFC.ORG,03/30/2023 16:10:40,PAUL CORNETT-CFO,"PARMS & COMPANY, LLC","400 S. 5TH STREET, SUITE 220",,COLUMBUS,OH,43215,TIM GRANT,PARTNER,6142243078,,TGRANT@PARMS.COM,03/30/2023 15:12:42,,O,,U,N,N,N,N,U,750000,N,,1184019,,N,N,N,N,N,N,,93,03/30/2023 00:00:00,04/01/2023 01:30:03,,N,908,1,x00,03/30/2023 00:00:00,,N,PAUL CORNETT,CFO,03/30/2023 00:00:00,010548473,N,,N,N,,,,,Non-profit,UG,,,,,,07/01/2021 00:00:00,,U2D2KJ5XMAW9,N,US
1481593,554542022,2022,55454,09/30/2022 00:00:00,S,A,,N,381790220,,N,069493229,"ALLEGAN COUNTY RESOURCE DEVELOPMENT COMMITTEE, INC.",323 WATER STREET,,ALLEGAN,MI,49010,BRENDA MOLENDYK,CFO,2696735472,,BMOLENDYK@COMMUNITYACTIONALLEGAN.ORG,04/13/2023 10:03:00,BRENDA MOLENDYK-CFO/COO,GABRIDGE & COMPANY,3940 PENINSULAR DR SE STE 200,,GRAND RAPIDS,MI,49546,JOE VERLIN,PRINCIPAL,6163286275,,JVERLIN@GABRIDGECO.COM,04/13/2023 10:00:14,,O,,U,N,N,N,N,U,750000,Y,,6986340,,N,N,N,N,N,N,,93,04/13/2023 00:00:00,04/18/2023 01:30:05,,N,908,1,x00,04/13/2023 00:00:00,,N,BRENDA MOLENDYK,CFO/COO,04/13/2023 00:00:00,260317004,N,,N,N,,,,,Non-profit,UG,,,,,,10/01/2021 00:00:00,,EH75KMTG46A7,N,US
1487796,2543532022,2022,254353,12/31/2022 00:00:00,S,A,,N,721311299,,N,969636161,"ACADIANA REGIONAL COALITION ON HOMELESSNESS & HOUSING, INC.",211-A GUILBEAU RD.,,LAFAYETTE,LA,70506,ELSA DIMITRIADIS,EXECUTIVE DIRECTOR,5043397844,,ELSA@ARCHACADIANA.ORG,05/05/2023 12:24:37,ELSA DIMITRIADIS-EXECUTIVE DIRECTOR,"DARNALL, SIKES & FREDERICK",1231 E. LAUREL AVE.,,EUNICE,LA,70535,KEVIN YOUNG,PARTNER,3374574146,,KEVINY@DSFCPAS.COM,05/05/2023 10:57:08,,O,,U,N,N,N,N,U,750000,Y,,1558001,,N,N,N,N,N,N,,14,05/05/2023 00:00:00,05/10/2023 01:30:05,,N,888,1,x00,05/05/2023 00:00:00,,N,ELSA DIMITRIADIS,EXECUTIVE DIRECTOR,05/05/2023 00:00:00,720738838,N,,N,N,,,,,Non-profit,UG,,,,,,01/01/2022 00:00:00,,JUMNCJXFDML3,N,US
1480964,2575182022,2022,257518,06/30/2022 00:00:00,S,A,,N,841657746,,N,,THE GATHERING INN,201 BERKELEY AVE,,ROSEVILLE,CA,95678,ROLANDE TELLIER,ACCOUNTANT,9167919355,,RTELLIER@THEGATHERINGINN.COM,03/27/2023 16:32:38,ROLANDE TELLIER-CHIEF OPERATING OFFICER,"NICHOLSON & OLSON, CPA'S","729 SUNRISE AVE, SUITE 300",,ROSEVILLE,CA,95661,STEVEN NICHOLSON,ACCOUNTANT,9167867997,,STEVEN@NICHOLSONOLSON.COM,03/26/2023 15:52:00,,O,,U,N,N,N,N,U,750000,N,,1509190,,N,N,N,N,N,N,,14,03/27/2023 00:00:00,03/29/2023 01:30:03,,N,888,1,x00,03/27/2023 00:00:00,,N,ROLANDE TELLIER,CHIEF OPERATING OFFICER,03/27/2023 00:00:00,942777154,N,,N,N,,,,,Non-profit,UG,,,,,,07/01/2021 00:00:00,,JSK9NL95RU75,N,US
1476532,1486652022,2022,148665,06/30/2022 00:00:00,S,A,,N,381714400,,N,041808262,OAKLAND UNIVERSITY,"2200 N. SQUIRREL ROAD, 121 WEST VANDENBERG",,ROCHESTER,MI,483094452,JAMES HARGETT,ASSOCIATE VP FOR FINANCE & CONTROLLER,2483702297,,HARGETT@OAKLAND.EDU,03/16/2023 16:10:34,JAMES HARGETT-AVP & CONTROLLER,"PLANTE & MORAN, PLLC",19176 HALL ROAD SUITE 300,,CLINTON TOWNSHIP,MI,48038,DANA COOMES ,PARTNER,5864164913,,PM.SINGLEAUDIT@PLANTEMORAN.COM,03/11/2023 10:46:31,,C,84,U,N,N,N,N,U,979981,N,,140691899,,Y,N,N,Y,Y,N,,,03/16/2023 00:00:00,03/21/2023 01:30:07,,N,004,1,x84,03/16/2023 00:00:00,,N,JAMES HARGETT,AVP & CONTROLLER,03/16/2023 00:00:00,381357951,N,,N,Y,,,,,Institution of higher education (IHE),UG,00230700,03/22/2023 14:05:03,03/23/2023 08:41:55,G,B,07/01/2021 00:00:00,,HJTLACN81NK1,N,US
1462945,459682022,2022,45968,06/30/2022 00:00:00,S,A,,Y,351101603,,N,,"BLUE RIVER SERVICES, INC",1099 MARCI LN,,GEORGETOWN,IN,47122,ROSE A. BOOK,FISCAL DIRECTOR,8129406608,,ROSEBOOK@BRSINC.ORG,12/27/2022 14:58:21,ROSE BOOK-FISCAL DIRECTOR,"DEMING, MALONE, LIVESAY & OSTROFF",301 E. ELM ST,,NEW ALBANY,IN,47150,LISA M. NEWBANKS,DIRECTOR,8129813434,,LNEWBANKS@DMLO.COM,12/28/2022 09:57:45,,O,,U,N,N,N,N,U,750000,Y,,7037818,,N,N,N,N,N,N,,84,12/28/2022 00:00:00,01/03/2023 01:30:07,,N,908,1,x00,12/28/2022 00:00:00,,N,ROSE BOOK,FISCAL DIRECTOR,12/28/2022 00:00:00,611064249,N,,N,N,,,,,Non-profit,UG,,01/11/2023 14:13:50,01/12/2023 10:08:23,N,G,07/01/2021 00:00:00,,MU2AN91YJYG4,N,US
1450859,2420372022,2022,242037,06/30/2022 00:00:00,S,A,,N,753149099,,N,023960431,"AHEPA 296, INC.",3835 CREIGHTON ROAD,,PENSACOLA,FL,32504,DAWN COLE,CONTROLLER,3178453410,,DCOLE@AHEPASENIORLIVING.ORG,05/08/2023 16:00:38,DAWN COLE-CONTROLLER,CLARK SCHAEFER HACKETT,14 EAST MAIN STREET,,SPRINGFIELD,OH,45502,ROBERT KITCHEN,SHAREHOLDER,9373992000,,RKITCHEN@CSHCO.COM,03/18/2023 13:47:34,,O,,U,N,N,N,N,U,750000,Y,,6351849,,N,N,N,N,N,N,,14,05/08/2023 00:00:00,05/10/2023 01:30:05,,N,888,1,x00,05/08/2023 00:00:00,,N,DAWN COLE,CONTROLLER,05/08/2023 00:00:00,310800053,N,,N,N,,,,,Non-profit,UG,,,,,,07/01/2021 00:00:00,,F6SLHYEM4GW5,N,US
1470561,2501192022,2022,250119,06/30/2022 00:00:00,S,A,,N,237022588,,N,002908858,"MOBILE MEDICAL CARE, INC.",9309 OLD GEORGETOWN ROAD,,BETHESDA,MD,20814,PETER LOWET,EXECUTIVE DIRECTOR,3018410841,,PLOWET@MOBILEMEDICALCARE.ORG,02/01/2023 14:12:37,PETER LOWET-EXECUTIVE DIRECTOR,"GELMAN, ROSENBERG & FREEDMAN","4550 MONTGOMERY AVENUE, SUITE 800 NORTH",,BETHESDA,MD,20814,WALT DERENGOWSKI,DIRECTOR,3019519090,,WDERENGOWSKI@GRFCPA.COM,02/06/2023 09:45:30,,O,,U,N,N,N,N,U,750000,Y,,2098576,,N,N,N,N,Y,N,,93,02/06/2023 00:00:00,02/10/2023 01:30:06,,N,888,1,x00x93,02/06/2023 00:00:00,,N,PETER LOWET,EXECUTIVE DIRECTOR,02/06/2023 00:00:00,521392008,N,,N,N,,,,,Non-profit,UG,,,,,,07/01/2021 00:00:00,,M1N9BTD3SZF9,N,US
1480607,2154882022,2022,215488,06/30/2022 00:00:00,S,A,,N,731100711,,N,,TUPELO PUBLIC SCHOOLS,200 S 7TH AVE,,TUPELO,OK,74572,KEVIN MANN,SUPERINTENDENT,5808452460,,KMANN@TUPELO.K12.OK.US,03/29/2023 09:29:53,KEVIN MANN-SUPERINTENDENT,"JENKINS & KEMPER, CPA'S, P.C.",116 W BRECKENRIDGE AVE,,74008,OK,74008,MICHAEL KEMPER,PARTNER,9183664440,,MKEMPER@JENKINSKEMPER.COM,03/28/2023 10:46:49,,O,,S,N,N,N,N,U,750000,N,,986922,,N,N,N,N,N,N,,84,03/29/2023 00:00:00,03/31/2023 01:30:04,,N,505,1,x00,03/29/2023 00:00:00,,N,KEVIN MANN,SUPERINTENDENT,03/29/2023 00:00:00,731514558,N,,N,N,REGULATORY,Y,Q,,Local government,UG,,04/11/2023 11:41:16,04/13/2023 10:23:02,N,G,07/01/2021 00:00:00,,HZ1MNM5MJE53,N,US
1459308,955492022,2022,95549,02/28/2022 00:00:00,S,A,,N,636054097,,N,,"MONTGOMERY COMMUNITY ACTION COMMITTEE AND CDC, INC.",1066 ADAMS AVENUE,,MONTGOMERY,AL,36104,BRIDGETTE YEE,CFO,3342633474,,AUDLEYPORTER4@GMAIL.COM,11/30/2022 18:44:15,DESTINY SCOTT-BRIDGETTE YEE,BAS PARTNERS LLC,15800 PINES BLVD,,PEMBROKE PINES ,FL,33027,AUDLEY PORTER,PRESIDENT,9542888450,,APORTER@CPAAPORTER.COM,11/30/2022 18:39:28,,O,,U,N,N,N,N,U,750000,N,,16761383,,N,N,N,N,N,N,,93,11/30/2022 00:00:00,12/02/2022 01:30:07,,N,908,1,x00,11/30/2022 00:00:00,,N,DESTINY SCOTT,BRIDGETTE YEE,11/30/2022 00:00:00,208779390,N,,N,N,,,,,Non-profit,UG,,,,,,03/01/2021 00:00:00,,ET54KL5S5VK1,N,US
1460821,2055222022,2022,205522,06/30/2022 00:00:00,S,A,,N,316000786,,N,,DEER PARK COMMUNITY CITY SCHOOL DISTRICT,8688 DONNA LANE,,CINCINNATI,OH,45236,JEFF LEWIS,TREASURER,5138911881,,LEWIS.J@DPCCSD.ORG,12/13/2022 13:24:25,JEFF LEWIS-TREASURER,PLATTENBURG & ASSOCIATES,"8230 MONTGOMERY ROAD, SUITE 150",,CINCINNATI,OH,45236,DAVE MINICH,PARTNER,5138912722,,DMINICH@PLATTENBURG.COM,12/13/2022 09:34:36,,O,,U,N,N,N,N,U,750000,Y,,2849918,,N,N,N,N,N,N,,84,12/13/2022 00:00:00,12/16/2022 01:30:06,,N,505,1,x00,12/13/2022 00:00:00,,N,JEFF LEWIS,TREASURER,12/13/2022 00:00:00,311395136,N,,N,N,,,,,Local government,UG,,12/30/2022 14:03:44,01/05/2023 10:36:38,N,G,07/01/2021 00:00:00,,H322SRSXES64,N,US
1472762,729852022,2022,72985,06/30/2022 00:00:00,S,A,,N,520595110,,N,001910777,THE JOHNS HOPKINS UNIVERSITY,3910 KESWICK RD. SUITE N5145,,BALTIMORE,MD,21211,PAUL GASIOR,SR. DIRECTOR SPONSORED PROJECTS,4439978155,,PGASIOR@JHU.EDU,03/20/2023 09:43:37,PAUL GASIOR-SENIOR DIRECTOR SPONSORED PROJECTS,KPMG,"1 EAST PRATT STREET, 6TH FLR ",,BALTIMORE,MD,21202,JENNIFER HALL,PARTNER,3364337117,,JCHALL@KPMG.COM,03/20/2023 10:37:44,,C,12,U,N,N,N,N,U,11402099,Y,,3800699590,,N,N,N,N,Y,N,,,03/20/2023 00:00:00,03/23/2023 01:30:06,,N,904,1,x93x00,03/20/2023 00:00:00,,N,PAUL GASIOR,SENIOR DIRECTOR SPONSORED PROJECTS,03/20/2023 00:00:00,135565207,N,,N,N,,,,,Institution of higher education (IHE),UG,02078300,03/27/2023 11:56:02,03/30/2023 07:37:24,N,B,07/01/2021 00:00:00,,FTMTDMBR2GC7,N,US
1481207,2504862022,2022,250486,06/30/2022 00:00:00,S,A,,N,452481410,,N,,"TULSA LEGACY CHARTER SCHOOL DISTRICT NO E-006, TULSA COUNTY",105 E. 63RD STREET NORTH,,TULSA,OK,74126,KIANA SMITH,EXECUTIVE DIRECTOR,9187941442,,KCHUNG@TULSALEGACY.ORG,03/31/2023 16:58:30,KARINA CHUNG-DIRECTOR OF OPERATIONS,BLEDSOE HEWETT & GULLEKSON,"PO BOX 1310, ",,BROKEN ARROW,OK,740131310,JEFF HEWETT,PARTNER,9184999991,,JHEWETT@BHGAUDIT.COM,03/27/2023 15:32:46,,O,,S,N,N,N,N,U,750000,N,,975057,,N,N,N,N,N,N,,84,04/02/2023 00:00:00,04/07/2023 01:30:06,,N,888,1,x00,04/02/2023 00:00:00,,N,KARINA CHUNG,DIRECTOR OF OPERATIONS,03/31/2023 00:00:00,141891056,N,,N,N,REGULATORY,Y,Q,,Local government,UG,,04/28/2023 14:42:20,05/04/2023 07:17:29,N,G,07/01/2021 00:00:00,,SXD1RU8ZJHW3,N,US
1471348,2573252022,2022,257325,06/30/2022 00:00:00,S,A,,N,362171178,,N,011451746,VOICES OF STEPHENSON COUNTY,565 N TURNER AVE,,FREEPORT,IL,61032,BETH MASKELL,EXECUTIVE DIRECTOR,8152351641,,BMASKELL@VOICESOFSC.ORG,03/09/2023 14:20:19,BETH MASKELL-BETH MASKELL,"BENNING GROUP, LLC","50 W DOUGLAS, SUITE 300",,FREEPORT,IL,61032,JENNY BLOCKER,MEMBER/AUDIT SUPERVISOR,8152353157,,JBLOCKER@BENNINGGROUP.COM,03/12/2023 16:00:25,,O,,U,Y,N,N,N,U,750000,N,,1147328,,Y,N,N,Y,N,N,,14,03/12/2023 00:00:00,03/15/2023 01:30:06,,N,888,1,x00,03/12/2023 00:00:00,,N,BETH MASKELL,BETH MASKELL,03/12/2023 00:00:00,300003878,N,,Y,Y,,,,,Non-profit,UG,,,,,,07/01/2021 00:00:00,,LECBAFSKG8X8,N,US
1470400,1645652022,2022,164565,06/30/2022 00:00:00,S,A,,N,341115947,,N,080147291,MAPLEWOOD CAREER CENTER,7075 STATE ROUTE 88,,RAVENNA,OH,44266,MICHELLE SECKMAN,TREASURER,3302962892,,SECKMANMI@MWOOD.CC,03/14/2023 14:29:41,MICHELLE SECKMAN-TREASURER,"KEITH FABER, AUDITOR OF STATE","88 EAST BROAD STREET, 5TH FLOOR",,COLUMBUS,OH,43215,KEVIN HEAD,SENIOR AUDIT MANAGER,3304380617,,KLHEAD@OHIOAUDITOR.GOV,03/14/2023 13:14:22,,O,,U,N,N,N,N,U,750000,N,,835279,,N,N,N,N,N,N,,10,03/14/2023 00:00:00,03/17/2023 01:30:05,,N,505,1,x00,03/14/2023 00:00:00,,N,MICHELLE SECKMAN,TREASURER,03/14/2023 00:00:00,311334820,N,,N,N,,,,,Local government,UG,,03/21/2023 12:16:26,03/23/2023 08:41:55,N,G,07/01/2021 00:00:00,,CJFHEURLL3L5,N,US
1483998,1773102022,2022,177310,08/31/2022 00:00:00,S,A,,N,916008402,,N,100674506,CENTRAL VALLEY SCHOOL DISTRICT NO. 356,2218 N MOLTER ROAD,,LIBERTY LAKE,WA,99019,MATHEW KNOTT,DIRECTOR OF BUSINESS SERVICES,5095585437,,MKNOTT@CVSD.ORG,05/30/2023 12:53:55,MATHEW KNOTT-DIRECTOR OF BUSINESS SERVICES,OFFICE OF THE WASHINGTON STATE AUDITOR,"316 W BOONE AVE, SUITE 680",,SPOKANE,WA,99201,ALISHA SHAW,PROGRAM MANAGER,5099192851,,ALISHA.SHAW@SAO.WA.GOV,05/25/2023 00:16:00,,O,,AS,N,N,N,N,U,1100173,Y,,36672447,,N,Y,N,Y,N,N,,84,05/30/2023 00:00:00,06/02/2023 01:30:06,,N,505,1,x00,05/30/2023 00:00:00,,N,MATHEW KNOTT,DIRECTOR OF BUSINESS SERVICES,05/30/2023 00:00:00,916001098,N,,N,N,REGULATORY,Y,U,,Local government,UG,,06/07/2023 11:50:29,06/08/2023 08:47:12,G,G,09/01/2021 00:00:00,,LJNSJ1C1KU15,N,US
1467033,1344502022,2022,134450,06/30/2022 00:00:00,S,A,,N,946002388,,N,,EMPIRE UNION SCHOOL DISTRICT,116 N. MCMLURE ROAD ,,MODESTO ,CA,95357,ANDREYA VISCOVICH,"ASST. SUPERINTENDENT, BUSINESS SERVICES ",2095212800,,AVISCOVICH@EMPIRE.K12.CA.US,01/12/2023 12:35:06,"ANDREYA VISCOVICH-ASSISTANT SUPERINTENDENT, BUSINESS SERVICES",EIDE BAILLY LLP ,"6051 N. FRESNO STREET, SUITE 101",,FRESNO,CA,93710,BILL WILLIAMS ,PARTNER ,5592480871,,BCWILLIAMS@EIDEBAILLY.COM,01/12/2023 12:26:42,,O,,U,N,N,N,N,U,750000,Y,,8153822,,N,N,N,N,N,N,,84,01/14/2023 00:00:00,01/19/2023 01:30:09,,N,505,1,x00,01/14/2023 00:00:00,,N,ANDREYA VISCOVICH,"ASSISTANT SUPERINTENDENT, BUSINESS SERVICES",01/14/2023 00:00:00,450250958,N,,N,N,,,,,Local government,UG,,01/25/2023 14:46:11,01/26/2023 10:15:23,N,G,07/01/2021 00:00:00,,P564VF4QCA53,N,US
1478991,2573702022,2022,257370,06/30/2022 00:00:00,S,A,,N,626007992,,N,,TOWN OF WOODBURY,101 WEST WATERS STREET,,WOODBURY,TN,37190,CHARLENE ODOM,RECORDER ,6155634221,,WDBYCITY@DTCCOM.NET,03/17/2023 16:44:46,CHARLENE ODOM-CITY RECORDER/CMFO,JOHN R. POOLE CPA,134 NORTHLAKE DRIVE,,HENDERSONVILLE,TN,37075,JOHN POOLE,OWNER,6158224177,,JRPOOLECPA@AOL.COM,03/17/2023 16:32:11,,O,,U,N,N,N,N,U,750000,N,,1977483,,N,N,N,N,N,N,,14,03/17/2023 00:00:00,03/21/2023 01:30:07,,N,888,1,x00,03/17/2023 00:00:00,,N,CHARLENE ODOM,CITY RECORDER/CMFO,03/17/2023 00:00:00,455624092,N,,N,N,,,,,Local government,UG,,,,,,07/01/2021 00:00:00,,FW71X8MC55M1,N,US
1454397,1848332022,2022,184833,06/30/2022 00:00:00,S,A,,N,470773689,,N,830870338,MOSAIC HOUSING CORPORATION II,4980 SOUTH 118TH STREET,,OMAHA,NE,68137,KRISTIN ROSSOW,VP OF ACCOUNTING,4028963884,,KRISTIN.ROSSOW@MOSAICINFO.ORG,11/18/2022 17:48:08,KRISTIN ROSSOW-PRESIDENT,EIDE BAILLY LLP,"18081 BURT STREET, SUITE 200",,OMAHA,NE,68022,RANDY HOFFMAN,"CPA, PARTNER",4023302660,,RHOFFMAN@EIDEBAILLY.COM,11/29/2022 19:13:04,,O,,U,N,N,N,N,U,750000,Y,,1096896,,N,N,N,N,N,N,,14,11/29/2022 00:00:00,12/04/2022 01:30:06,,N,903,1,x00,11/29/2022 00:00:00,,N,KRISTIN ROSSOW,PRESIDENT,11/29/2022 00:00:00,450250958,N,,N,N,,,,,Non-profit,UG,,,,,,07/01/2021 00:00:00,,JG95H1KKFAT6,N,US
1488076,1152122022,2022,115212,12/31/2022 00:00:00,S,A,,N,911557904,,N,020230876,"DOUGLAS, GRANT, LINCOLN, OKANOGAN CO HOSP #6 DBA COULEE MEDICAL CENTER",411 FORTURYN ROAD,,GRAND COULEE,WA,99133,KELLY HUGHES,CHIEF FINANCIAL OFFICER,5096336360,,HUGHESKJ@CMCCARES.ORG,06/08/2023 15:29:42,KELLY HUGHES-CHIEF FINANCIAL OFFICER,"DINGUS, ZARECOR & ASSOCIATES PLLC",12015 EAST MAIN AVENUE,,SPOKANE VALLEY,WA,99206,TOM DINGUS,OWNER,5092420874,,TDINGUS@DZACPA.COM,06/08/2023 14:21:13,,O,,U,N,Y,N,N,U,750000,N,,19535705,,N,N,N,N,Y,N,,14,06/08/2023 00:00:00,06/10/2023 01:30:04,,N,102,1,x00x93,06/08/2023 00:00:00,,N,KELLY HUGHES,CHIEF FINANCIAL OFFICER,06/08/2023 00:00:00,200079326,Y,,N,N,,,,,Local government,UG,,,,,,01/01/2022 00:00:00,,CZEJZPXYK633,N,US
1467892,2318632022,2022,231863,06/30/2022 00:00:00,S,A,,N,320109272,,N,,DARNALL CHARTER SCHOOL,6020 HUGHES STREET,,SAN DIEGO,CA,92115,TROY COX,ASSOCIATE DIRECTOR OF COMM. & OPER.,6195821822,,TCOX@DARNALLCHARTER.ORG,04/03/2023 09:07:58,TROY COX-AD COMM OPS,WILKINSON HADLEY KING & CO. LLP,218 W DOUGLAS AVE,,EL CAJON,CA,92020,KEVIN SPROUL,"PARTNER, CPA",6194476700,,KSPROUL@WHLLP.COM,03/31/2023 11:54:04,,O,,U,N,N,N,N,U,750000,Y,,1783971,,N,N,N,N,N,N,,84,04/03/2023 00:00:00,04/07/2023 01:30:06,,N,905,1,x00,04/03/2023 00:00:00,,N,TROY COX,AD COMM OPS,03/31/2023 00:00:00,522354566,N,,N,N,,,,,Local government,UG,,05/01/2023 11:02:51,05/04/2023 07:17:29,N,G,07/01/2021 00:00:00,,DQNHZ6KKEWQ9,N,US
1474067,2200132022,2022,220013,06/30/2022 00:00:00,S,A,,N,550709223,,N,,"CABIN CREEK HEALTH SYSTEMS, INC.",104 ALEX LANE,,CHARLESTON,WV,25304,ZHANNA CRABTREE,CONTROLLER,3047342040,,ZHANNA.CRABTREE@CCHCWV.COM,02/23/2023 12:08:07,ZHANNA CRABTREE-COMPTROLLER,"BAKER TILLY US, LLP",101 WASHINGTON STREET EAST,,CHARLESTON,WV,25329,JUSTIN SCHUMAKER,PARTNER,3042063312,,JUSTIN.SCHUMAKER@BAKERTILLY.COM,02/23/2023 09:42:04,,O,,U,N,N,N,N,U,750000,Y,,7112490,,N,N,N,N,N,N,,93,02/23/2023 00:00:00,02/25/2023 01:30:08,,N,908,1,x00,02/23/2023 00:00:00,,N,ZHANNA CRABTREE,COMPTROLLER,02/23/2023 00:00:00,390859910,N,,N,N,,,,,Non-profit,UG,,,,,,07/01/2021 00:00:00,,JL8GKB2LKVT6,N,US
1488634,1920362022,2022,192036,08/31/2022 00:00:00,S,A,,N,660434923,,N,187116843,"COSSMA, INC",PO BOX 1330,,CIDRA,PR,007390000,NORMA ANTTOMATEI,EXECUTIVE DIRECTOR,7877398182,,NORMA.ANTOMATTEI@COSSMA.ORG,05/25/2023 09:00:31,CLARIBEL LARA-FINANCE DIRECTOR,DIAZ & CANDELARIA CPA PSC,100 GRAND PASEO BULEVAR SUITE 112 ,,SAN JUAN ,PR,009265955,CPA CRISTINO ARIEL DIAZ ,PARTNER IN CHARGE,7877606263,,ARIELCAD@GMAIL.COM,05/25/2023 14:23:05,,O,,U,N,N,N,N,U,750000,Y,,10947158,,N,N,N,N,N,N,,93,05/25/2023 00:00:00,05/31/2023 01:30:05,,N,908,1,x00,05/25/2023 00:00:00,,N,CLARIBEL LARA,FINANCE DIRECTOR,05/25/2023 00:00:00,660561068,N,,N,N,,,,,Non-profit,UG,,,,,,09/01/2021 00:00:00,,EU8BJTBZ6AS5,N,US
1474168,2344152022,2022,234415,04/30/2022 00:00:00,S,A,,N,200375450,,N,,"TENSAS COMMUNITY HEALTH CENTER, INC.",PO BOX 46,,ST JOSEPH,LA,71366,JACKIE SCHAUF,EXECUTIVE DIRECTOR,3187661967,,JSCHAUF@TENSASHEALTH.ORG,02/17/2023 15:08:36,JACKIE SCHAUF-CEO,"HAWTHORN WAYMOUTH & CARROLL, LLP",8545 UNITED PLAZA BLVD,,BATON ROUGE,LA,70809,KEVIN RODRIGUEZ,CPA/PARTNER,2259233000,,KRODRIGUEZ@HWC-CPA.COM,02/17/2023 15:17:52,,O,,U,Y,N,N,N,U,750000,Y,,1638332,,Y,N,N,Y,Y,N,,93,02/17/2023 00:00:00,02/21/2023 01:30:06,,N,903,1,x93,02/17/2023 00:00:00,,N,JACKIE SCHAUF,CEO,02/17/2023 00:00:00,720464428,N,,Y,Y,,,,,Non-profit,UG,,,,,,05/01/2021 00:00:00,,WJUFKBDHUUT9,N,US
1455085,2479232022,2022,247923,06/30/2022 00:00:00,S,A,,N,201787299,,N,,ODYSSEY CHARTER SCHOOL INC,4319 LANCASTER PIKE,,WILMINGTON,DE,198051521,JEFF KOSS,BUSINESS MANAGER,3025168000,,JEFF.KOSS@ODYSSEY.K12.DE.US,12/07/2022 13:01:26,JEFFREY KOSS-CHIEF FINANCIAL OFFICER,BARBACANE THORNTON & COMPANY,"503 CARR ROAD, SUITE 100",,WILMINGTON,DE,19809,TIMOTHY SAWYER,PARTNER,3024788940,,TSAWYER@BTCPA.COM,11/11/2022 21:53:12,,O,,U,N,N,N,N,U,750000,Y,,2893676,,N,N,N,N,N,N,,84,12/07/2022 00:00:00,12/09/2022 01:30:08,,N,888,1,x00,12/07/2022 00:00:00,,N,JEFFREY KOSS,CHIEF FINANCIAL OFFICER,12/07/2022 00:00:00,510229493,N,,N,N,,,,,Non-profit,UG,,12/09/2022 13:59:58,12/15/2022 07:53:45,N,G,07/01/2021 00:00:00,,JK0DY1787299,N,US
1461092,1344372022,2022,134437,06/30/2022 00:00:00,S,A,,N,946033759,,Y,624511416,SONOMA COUNTY JUNIOR COLLEGE DISTRICT,1501 MENDOCINO AVENUE,,SANTA ROSA,CA,95401,KATE JOLLEY,"VP, FINANCE AND ADMINISTRATION",7075274413,,KJOLLEY@SANTAROSA.EDU,12/21/2022 08:31:27,"KATE JOLLEY-VICE PRESIDENT, FINANCE/ADMIN SVCS",GILBERT CPAS,"2880 GATEWAY OAKS DRIVE, SUITE 100",,SACRAMENTO,CA,95833,PEGGY A. VANDE VOOREN,SHAREHOLDER,9166466464,,PEGGY@GILBERTCPA.COM,12/22/2022 16:37:06,,O,,U,N,N,N,N,U,1089277,Y,,36309222,,N,N,N,N,N,N,,84,12/22/2022 00:00:00,12/28/2022 01:30:05,,N,504,1,x00,12/22/2022 00:00:00,,N,KATE JOLLEY,"VICE PRESIDENT, FINANCE/ADMIN SVCS",12/22/2022 00:00:00,680037990,N,,N,N,,,,,Institution of higher education (IHE),UG,00128700,01/10/2023 15:08:10,01/12/2023 10:08:23,N,B,07/01/2021 00:00:00,,QHWKMUHQ4B37,N,US
1482785,2510202022,2022,251020,06/30/2022 00:00:00,S,A,,N,680423149,,N,,COSUMNES COMMUNITY SERVICES DISTRICT,8820 ELK GROVE BLVD,,ELK GROVE,CA,95624,NOU VANG,FINANCE DIRECTOR,9164057161,,NOUVANG@YOURCSD.COM,03/30/2023 21:03:07,NOU VANG -NOU VANG,"RICHARDSON & COMPANY, LLP",550 HOWE AVE STE 210,,SACRAMENTO,CA,95825,BRIAN NASH,PARTNER,9165648727,,BNASH@RICHARDSONCPAS.COM,03/30/2023 20:55:15,,O,,U,Y,N,Y,N,U,750000,N,,4312343,,Y,N,N,Y,Y,N,,97,03/30/2023 00:00:00,04/01/2023 01:30:03,,N,888,1,x97,03/30/2023 00:00:00,,N,NOU VANG ,NOU VANG,03/30/2023 00:00:00,685577902,N,,Y,Y,,,,,Local government,UG,,,,,,07/01/2021 00:00:00,,GM27HGUL61B5,N,US
1480112,575752022,2022,57575,06/30/2022 00:00:00,S,A,,N,383071514,,N,063665980,CALVIN UNIVERSITY,3201 BURTON ST SE,,GRAND RAPIDS,MI,49546,RUTH WITTE,CONTROLLER,6165266130,,RW24@CALVIN.EDU,03/29/2023 12:55:51,RUTH WITTE-CONTROLLER,"PLANTE & MORAN, PLLC","750 TRADE CENTRE WAY, SUITE 300",,PORTAGE,MI,49002,VICKI VANDENBERG,PARTNER,2695674618,,PM.SINGLEAUDIT@PLANTEMORAN.COM,03/29/2023 12:52:34,,O,,U,N,N,N,N,U,750000,Y,,22988396,,Y,N,N,Y,N,N,,84,03/30/2023 00:00:00,04/01/2023 01:30:03,,N,904,1,x84x00,03/30/2023 00:00:00,,N,RUTH WITTE,CONTROLLER,03/30/2023 00:00:00,381357951,N,,N,Y,,,,,Institution of higher education (IHE),UG,00224100,04/19/2023 13:29:29,04/21/2023 10:36:42,G,B,07/01/2021 00:00:00,,NNLQK7LNGL93,N,US
1465404,2111082022,2022,211108,03/31/2022 00:00:00,S,A,,N,756003065,,N,140701579,HOUSING AUTHORITY OF CITY OF BORGER,903 PARKWAY STREET,,BORGER,TX,79007,CRISTI LAJEUNESSE,EXECUTIVE DIRECTOR,8062742612,,CRISTI@PHACONSULT.US,12/31/2022 10:25:28,CRISTI LAJEUNESSE-EXECUTIVE DIRECTOR,DAVID A BORING CPA,3711 20TH STREET SUITE A,,LUBBOCK,TX,79410,DAVID BORING,CPA,4326386347,,DAVID@DBORINGCO.COM,12/30/2022 17:41:48,,O,,U,N,Y,N,N,U,750000,N,,1775121,,N,Y,N,Y,Y,N,,14,12/31/2022 00:00:00,01/03/2023 01:30:07,,N,403,1,x14,12/31/2022 00:00:00,,N,CRISTI LAJEUNESSE,EXECUTIVE DIRECTOR,12/31/2022 00:00:00,800015131,Y,,N,N,,,,,Local government,UG,,,,,,04/01/2021 00:00:00,,HG74NDHEWUG3,N,US
1479398,1933542022,2022,193354,06/30/2022 00:00:00,S,A,,N,946000299,,N,076529924,CITY OF BERKELEY,2180 MILVIA STREET,,BERKELEY,CA,947041122,HENRY OYEKANMI,FINANCE DIRECTOR,5109817300,,HOYEKANMI@CITYOFBERKELEY.INFO,03/30/2023 19:44:10,HENRY OYEKANMI-DIRECTOR OF FINANCE,BADAWI AND ASSOCIATES,"2855 TELEGRAPH AVENUE, SUITE 312",,BERKELEY,CA,94705,MITESH DESAI,PRINCIPAL,5207688245,,MDESAI@B-ACPA.COM,03/30/2023 19:31:28,,C,14,U,N,N,N,N,U,1812954,Y,,60431804,,Y,N,N,Y,N,N,,,03/30/2023 00:00:00,04/01/2023 01:30:03,,N,200,1,x00,03/30/2023 00:00:00,,N,HENRY OYEKANMI,DIRECTOR OF FINANCE,03/30/2023 00:00:00,454555509,N,,N,Y,,,,,Local government,UG,,,,,,07/01/2021 00:00:00,,KC7DYLV9EF25,N,US
1449424,1500262022,2022,150026,06/30/2022 00:00:00,S,A,,N,386000544,,N,800169067,PINCONNING AREA SCHOOLS,605 W FIFTH ST,,PINCONNING,MI,48650,KRIS MCLAVY,BUSINESS DIRECTOR,9893080509,,MCLAVYK@PASD.ORG,10/26/2022 10:07:17,KRIS MCLAVY-BUSINESS DIRECTOR,QUAST JANKE & COMPANY,1010 N JOHNSON ST,,BAY CITY,MI,48708,ROBERT FRISKE,PARTNER,9898924549,,ROBF@QJC.COM,10/27/2022 07:57:46,,O,,U,N,N,N,N,U,750000,Y,,2227820,,N,N,N,N,N,N,,84,10/27/2022 00:00:00,11/01/2022 01:30:07,,N,505,1,x00,10/27/2022 00:00:00,,N,KRIS MCLAVY,BUSINESS DIRECTOR,10/27/2022 00:00:00,382963463,N,,N,N,,,,,Local government,UG,,11/02/2022 13:15:06,11/03/2022 07:43:14,N,G,07/01/2021 00:00:00,,M9EJK7YUJYJ8,N,US
1484165,2481662022,2022,248166,06/30/2022 00:00:00,S,A,,N,752986675,,N,965269488,CENTRAL NEIGHBORHOOD HEALTH FOUNDATION,2700 SOUTH GRAND AVENUE,,LOS ANGELES,CA,90007,CHUKWUKA CHIDI,CHIEF FINANCIAL OFFICER,3109954627,,CCHIDI@CNHFCLINICS.ORG,03/31/2023 23:44:26,CHUKA CHIDI-CFO,"VASQUEZ & COMPANY, LLP","655 N. CENTRAL AVENUE, SUITE 1550",,GLENDALE,CA,912031437,ROGER MARTINEZ,AUDIT PRACTICE LEADER,2138731700,,R_MARTINEZ@VASQUEZCPA.COM,03/31/2023 23:42:30,,O,,U,N,N,N,N,U,750000,Y,,2617137,,N,N,N,N,N,N,,93,03/31/2023 00:00:00,04/06/2023 01:30:05,,N,888,1,x00,03/31/2023 00:00:00,,N,CHUKA CHIDI,CFO,03/31/2023 00:00:00,330700332,N,,N,N,,,,,Non-Profit,UG,,,,,,07/01/2021 00:00:00,,GKJ4YWCHS2J5,N,US
1485172,2384022022,2022,238402,12/31/2022 00:00:00,S,A,,N,274202514,,N,046852631,"THE CREST AT LAKESHORE, LLC. DBA: THE CREST AT LAKESHORE",4004 LONDON ROAD ,,DULUTH ,MN,55804,SCOTT BJERKETVEDT,CHIEF FINANCIAL OFFICER ,6517664300,,SCOTTBJERKETVEDT@ECUMEN.ORG,04/26/2023 09:47:59,SCOTT BJERKETVEDT-CFO,CLIFTONLARSONALLEN LLP,PO BOX 1067,,ST CLOUD ,MN,56302,NICOLE FOLKERTS ,DIRECTOR,3202035500,,NICOLE.FOLKERTS@CLACONNECT.COM,04/26/2023 11:51:57,,O,,U,N,N,N,N,U,750000,Y,,16036524,,N,N,N,N,N,N,,14,04/26/2023 00:00:00,04/28/2023 01:30:06,,N,888,1,x00,04/26/2023 00:00:00,,N,SCOTT BJERKETVEDT,CFO,04/26/2023 00:00:00,410746749,N,,N,N,,,,,Non-profit,UG,,,,,,01/01/2022 00:00:00,,WU94A6841CY1,N,US
1485828,2201782022,2022,220178,06/30/2022 00:00:00,S,A,,N,366009010,,N,047461504,HOMER COMMUNITY CONSOLDIATED SCHOOL DISTRICT 33C,15733 SOUTH BELL ROAD,,HOMER GLEN,IL,60491,AL KIRKUS,ASST. SUPERINTENDENT FOR BUSINESS,7082267605,,AKIRKUS@HOMERSCHOOLS.ORG,05/09/2023 09:52:49,AL KIRKUS-ASSISTANT SUPERINTENDENT FOR BUSINESS,MUELLER & CO LLP DBA PKF MUELLER,15303 S 94TH AVE SUITE 200,,ORLAND PARK,IL,60462,JOHN FEDUS,PARTNER,3124455882,,JFEDUS@PKFMUELLER.COM,05/05/2023 10:50:10,,O,,U,Y,Y,N,N,U,750000,N,,3334085,,N,Y,N,Y,N,N,,84,05/09/2023 00:00:00,05/12/2023 01:30:08,,N,505,1,x00,11/15/2022 00:00:00,,N,AL KIRKUS,ASSISTANT SUPERINTENDENT FOR BUSINESS,11/15/2022 00:00:00,362658780,Y,,Y,N,,,,,Local government,UG,,11/20/2022 13:59:53,12/01/2022 08:03:46,N,G,07/01/2021 00:00:00,,GFFCKK962LG4,,
1454642,2559452022,2022,255945,06/30/2022 00:00:00,S,A,,N,453436465,,N,078664057,YOUNG WOMEN'S COLLEGE PREP CHARTER SCHOOL OF ROCHESTER (YWCP),133 HOOVER DRIVE ,,ROCHESTER,NY,14615,ROBERTA MCINNIS,DIRECTOR OF OPERATIONS,5852540320,,RMCINNIS@YOUNGWOMENSCOLLEGEPREP.ORG,11/15/2022 12:01:22,ROBERTA MCINNIS-DIRECTOR OF OPERATIONS,"BONADIO & CPO.,LLP",171 SULLY'S TRAIL,,PITTSFORD,NY,14534,KAREN HIGNETT,PRINCIPAL,5853811000,,KHIGNETT@BONADIO.COM,11/15/2022 12:05:26,,O,,U,N,N,N,N,U,750000,N,,1389118,,N,N,N,N,N,N,,84,11/15/2022 00:00:00,11/18/2022 01:30:09,,N,888,1,x00,11/15/2022 00:00:00,,N,ROBERTA MCINNIS,DIRECTOR OF OPERATIONS,11/15/2022 00:00:00,161131146,N,,N,N,,,,,Institution of higher education (IHE),UG,,11/20/2022 13:28:03,12/01/2022 08:03:46,N,G,07/01/2021 00:00:00,,WNWJU6MGU3P7,N,US
1466793,2043572022,2022,204357,06/30/2022 00:00:00,S,A,,N,953495175,,N,101805575,SU CASA ~ ENDING DOMESTIC VIOLENCE,"3750 E. ANAHEIM STREET, SUITE 100",,LONG BEACH,CA,90804,ALBERTO URIBE,EXECUTIVE DIRECTOR,5624216537,,AURIBE@SUCASADV.ORG,01/06/2023 20:57:53,ALBERTO URIBE-EXECUTIVE DIRECTOR,"WINDES, INC.","3780 KILROY AIRPORT WAY, SUITE 600",,LONG BEACH,CA,90806,TOM HUEY,PARTNER,5623041248,,THUEY@WINDES.COM,01/06/2023 18:57:25,,O,,U,N,N,N,N,U,750000,Y,,1328590,,N,N,N,N,N,N,,16,01/06/2023 00:00:00,01/10/2023 01:30:06,,N,908,1,x00,01/06/2023 00:00:00,,N,ALBERTO URIBE,EXECUTIVE DIRECTOR,01/06/2023 00:00:00,953001179,N,,N,N,,,,,Non-profit,UG,,,,,,07/01/2021 00:00:00,,RN1LQXJ2BU13,N,US
1466197,2321732022,2022,232173,08/31/2022 00:00:00,S,A,,N,751232125,,N,,UNION GROVE INDEPENDENT SCHOOL DISTRICT,11220 UNION GROVE RD,,GLADEWATER,TX,75647,LAURICE MARSHALL,BUSINESS MANAGER,9038443900,,MARSHALLL@UGISD.ORG,01/05/2023 11:13:31,LAURICE MARSHALL-BUSINESS MANAGER,"WILF & HENDERSON, P.C.",1810 GALLERIA OAKS,,TEXARKANA,TX,75503,LESLIE WINTON,SHAREHOLDER,9037935646,,LESLIE@WILHEN.COM,01/04/2023 15:31:30,,O,,U,N,N,N,N,U,750000,N,,1222170,,N,N,N,N,N,N,,84,01/05/2023 00:00:00,01/10/2023 01:30:06,,N,505,1,x00,01/04/2023 00:00:00,,N,LAURICE MARSHALL,BUSINESS MANAGER,01/04/2023 00:00:00,751726749,N,,N,N,,,,,Local government,UG,,01/20/2023 13:28:17,01/26/2023 10:15:23,N,G,09/01/2021 00:00:00,,VMPXN2J553B7,,
1475610,1812982022,2022,181298,06/30/2022 00:00:00,S,A,,N,226002140,,N,,NEWARK BOARD OF EDUCATION,756 BROAD STREET,,NEWARK,NJ,07102,VALERIE WILSON,BUSINESS ADMINISTRATOR,9737338467,,VWILSON@NPS.K12.NJ.US,03/28/2023 10:19:04,VALERIE WILSON-SCHOOL BUSINESS ADMINISTRATOR,PKF O'CONNOR DAVIES LLP,"20 COMMERCE DRIVE, SUITE 301",,CRANFORD,NJ,07067,SCOTT CLELLAND,PARTNER,9089560031,,SCLELLAND@PKFOD.COM,03/27/2023 10:59:21,,C,84,U,N,N,N,N,U,3000000,Y,,162690895,,N,N,N,N,N,N,,,03/28/2023 00:00:00,03/31/2023 01:30:04,,N,005,1,x00,03/28/2023 00:00:00,,N,VALERIE WILSON,SCHOOL BUSINESS ADMINISTRATOR,03/28/2023 00:00:00,271728945,N,,N,N,,,,,Local government,UG,,04/07/2023 12:05:11,04/13/2023 10:23:02,N,G,07/01/2021 00:00:00,,LM21E5RGZJL8,N,US
1461094,2500672022,2022,250067,06/30/2022 00:00:00,S,A,,N,954252143,,N,,CHILDREN'S LAW CENTER OF CALIFORNIA,101 CENTRE PLAZA DRIVE,,MONTEREY PARK,CA,91754,PANSY AU,CFO,3239801707,,AUP@CLCCAL.ORG,12/31/2022 02:10:51,PANSY AU-PANSY AU,"WINDES, INC.",3780 KILROY AIRPORT WAY SUITE 600,,LONG BEACH,CA,90806,MICHAEL BARLOEWEN,PARTNER,9492712607,,MBARLOEWEN@WINDES.COM,12/30/2022 13:41:59,,O,,U,N,N,N,N,U,750000,Y,,16872861,,N,N,N,N,N,N,,93,01/01/2023 00:00:00,01/05/2023 01:30:07,,N,888,1,x00,01/01/2023 00:00:00,,N,PANSY AU,PANSY AU,01/01/2023 00:00:00,953001179,N,,N,N,,,,,Non-profit,UG,,,,,,07/01/2021 00:00:00,,CBQCRK6RFEK3,N,US
1480516,2158882022,2022,215888,06/30/2022 00:00:00,S,A,,N,300135156,,N,162070077,"FINGER LAKES WORKFORCE INVESTMENT BOARD, INC.",30 ELM STREET,,GENEVA,NY,14456,LYNN FREID,EXECUTIVE DIRECTOR,3157893131,,LYNN@FINGERLAKESWORKS.COM,03/27/2023 09:50:42,LYNN FREID-EXECUTIVE DIRECTOR,"BONADIO & CO., LLP",171 SULLY'S TRAIL,,PITTSFORD,NY,14534,MARK WATERSTRAM,PRINCIPAL,5853811000,,MWATERSTRAM@BONADIO.COM,03/27/2023 09:46:58,,O,,U,N,N,N,N,U,750000,Y,,1774190,,N,N,N,N,N,N,,17,03/27/2023 00:00:00,03/29/2023 01:30:03,,N,908,1,x00,03/27/2023 00:00:00,,N,LYNN FREID,EXECUTIVE DIRECTOR,03/27/2023 00:00:00,161131146,N,,N,N,,,,,Non-profit,UG,,,,,,07/01/2021 00:00:00,,DH85EJLHNTR1,N,US
1489324,2483162022,2022,248316,12/31/2022 00:00:00,S,A,,N,526039142,,N,830367541,AMERICAN PHARMACISTS ASSOCIATION FOUNDATION,"2215 CONSTITUTION AVENUE, NW",,WASHINGTON,DC,20037,SHANNON MORRISON,SENIOR VICE PRESIDENT AND CFO,2024296302,,SMORRISON@APHANET.ORG,06/20/2023 12:43:41,SHANNON MORRISON-CHIEF FINANCIAL OFFICER,RSM US LLP,"1250 H STREET, NW SUITE 700",,WASHINGTON,DC,20005,JAMES KANUCH,SENIOR DIRECTOR,2022932200,,JAMES.KANUCH@RSMUS.COM,06/19/2023 12:11:25,,O,,U,N,N,N,N,U,750000,Y,,1974144,,N,N,N,N,N,N,,93,06/20/2023 00:00:00,06/22/2023 01:30:11,,N,888,1,x00,06/20/2023 00:00:00,,N,SHANNON MORRISON,CHIEF FINANCIAL OFFICER,06/20/2023 00:00:00,420714325,N,,N,N,,,,,Non-profit,UG,,,,,,01/01/2022 00:00:00,,EX6ARR56XC71,N,US
1451817,1202622022,2022,120262,06/30/2022 00:00:00,S,A,,N,942587378,,N,004200361,CATALYST DOMESTIC VIOLENCE SERVICES,PO BOX 4184,,CHICO,CA,95927,ANASTACIA SNYDER,EXECUTIVE DIRECTOR,5303437711,,ALS@CATALYSTDVSERVICES.ORG,10/21/2022 16:04:26,ANASTACIA SNYDER-EXECUTIVE DIRECTOR,"HOLLY B. PLADSON, CPA","70 DECLARATION DR., SUITE 202",,CHICO,CA,95973,HOLLY PLADSON,OWNER,5303424002,,HOLLY@HPLADSONCPA.COM,10/21/2022 20:38:20,,O,,U,N,N,N,N,U,750000,N,,1206728,,N,N,N,N,N,N,,16,10/21/2022 00:00:00,10/25/2022 01:30:04,,N,908,1,x00,10/21/2022 00:00:00,,N,ANASTACIA SNYDER,EXECUTIVE DIRECTOR,10/21/2022 00:00:00,271102219,N,,N,N,,,,,Non-profit,UG,,,,,,07/01/2021 00:00:00,,U4QQRTQ1NFL7,N,US
1470284,1324152022,2022,132415,06/30/2022 00:00:00,S,A,,N,946023144,,N,073955429,HOUSING AUTHORITY OF THE CITY OF LIVERMORE,3203 LEAHY WAY,,LIVERMORE,CA,94550,SARAH RAMLER,EXECUTIVE DIRECTOR,9254473600,,SARAH@LIVERMOREHA.ORG,01/27/2023 01:37:04,SARAH RAMLER-EXECUTIVE DIRECTOR,SMITH MARION & CO.,"1940 ORANGE TREE LANE, STE 100",,REDLANDS,CA,92374,DOUGLAS ENGLEHART,PRINCIPAL,9098384290,,DENGLEHART@SMCO.CPA,01/26/2023 15:11:20,,O,,U,Y,N,N,N,U,750000,Y,,10502132,,Y,N,N,Y,N,N,,14,01/27/2023 00:00:00,02/01/2023 01:30:07,,N,403,1,x14x00,01/27/2023 00:00:00,,N,SARAH RAMLER,EXECUTIVE DIRECTOR,01/27/2023 00:00:00,831445511,N,,Y,Y,,,,,Local government,UG,,,,,,07/01/2021 00:00:00,,NKQ8J5E7NCQ1,N,US
1489879,2176532022,2022,217653,12/31/2022 00:00:00,S,A,,Y,300002040,,N,,WISCONSIN HOUSING PRESERVATION CORP.,"150 EAST GILMAN STREET, SUITE 1500",,MADISON,WI,53703,JOSEPH CARPENTER,CFO,6088071718,,JCARPENTER@WHPC.COM,06/02/2023 12:19:23,JOSEPH CARPENTER-CFO,"SVA CERTIFIED PUBLIC ACCOUNTANTS, S.C.",1221 JOHN Q HAMMONS DRIVE,,MADISON,WI,53717,KIRSTEN HOUGHTON,PRINCIPAL,6088318181,,HOUGHTONK@SVA.COM,06/05/2023 10:46:06,,C,14,U,N,N,N,N,U,2507711,Y,,83590375,,N,N,N,N,N,N,,,06/05/2023 00:00:00,06/07/2023 01:30:09,,N,903,1,x00,06/05/2023 00:00:00,,N,JOSEPH CARPENTER,CFO,06/05/2023 00:00:00,391203191,N,,N,N,,,,,Non-profit,UG,,,,,,01/01/2022 00:00:00,,KVLYDC1KL4W7,Y,US
1462476,2569432022,2022,256943,06/30/2022 00:00:00,S,A,,N,366004371,,N,057400459,BURNHAM ELEMENTARY SCHOOL DISTRICT NO. 154.5,13945 GREENBAY ROAD,,BURNHAM,IL,60633,STEPHEN GERACI,SUPERINTENDENT,7088628636,,S.GERACI@D1545.ORG,02/08/2023 14:47:51,STEPHEN GERACI-SUPERINTENDENT,"JOHN KASPEREK CO., INC.",1471 RING ROAD,,CALUMET CITY,IL,60409,STEPHANIE BLANCO,PARTNER,7084870309,,SBLANCO@KASPEREKCPA.COM,01/19/2023 09:34:47,,O,,S,N,N,N,N,U,750000,N,,927619,,N,N,N,Y,N,N,,84,02/08/2023 00:00:00,02/10/2023 01:30:06,,N,888,1,x00,02/08/2023 00:00:00,,N,STEPHEN GERACI,SUPERINTENDENT,02/08/2023 00:00:00,364051858,N,,N,N,CASH,N,UQ,,Local government,UG,,02/15/2023 13:23:42,02/16/2023 06:12:37,G,G,07/01/2021 00:00:00,,QNNVJ3LNDD95,N,US
1465863,984342022,2022,98434,06/30/2022 00:00:00,S,A,,Y,720408911,,Y,795171297,CATHOLIC CHARITIES ARCHDIOCESE OF NEW ORLEANS,PO BOX 58009,,NEW ORLEANS,LA,701588009,CHERYL LABORDE,CFO,5045233755,,CDLABORDE@CCANO.ORG,01/23/2023 15:10:52,CHERYL LA BORDE-CFO,POSTLETHWAITE & NETTERVILLE,1 GALLERIA BLVD. SUITE 2100,,METAIRIE,LA,70001,BRANDY SMITH,DIRECTOR,5048375990,,BSMITH@PNCPA.COM,01/13/2023 15:31:11,,O,,U,N,N,N,N,U,750000,Y,,12917280,,N,N,N,N,N,N,,93,01/24/2023 00:00:00,01/27/2023 01:30:06,,N,908,1,x00,01/24/2023 00:00:00,,N,CHERYL LA BORDE,CFO,01/24/2023 00:00:00,721202445,N,,N,N,,,,,Non-profit,UG,,02/03/2023 13:34:05,02/09/2023 10:07:22,,N,07/01/2021 00:00:00,,HDR3BNE6UAZ5,N,US
