ELECAUDITHEADERID,ID,AUDITYEAR,DBKEY,FYENDDATE,AUDITTYPE,PERIODCOVERED,NUMBERMONTHS,MULTIPLEEINS,EIN,EINSUBCODE,MULTIPLEDUNS,DUNS,AUDITEENAME,STREET1,STREET2,CITY,STATE,ZIPCODE,AUDITEECONTACT,AUDITEETITLE,AUDITEEPHONE,AUDITEEFAX,AUDITEEEMAIL,AUDITEEDATESIGNED,AUDITEENAMETITLE,CPAFIRMNAME,CPASTREET1,CPASTREET2,CPACITY,CPASTATE,CPAZIPCODE,CPACONTACT,CPATITLE,CPAPHONE,CPAFAX,CPAEMAIL,CPADATESIGNED,CPANAMETITLE,COG_OVER,COGAGENCY,TYPEREPORT_FS,REPORTABLECONDITION,MATERIALWEAKNESS,MATERIALNONCOMPLIANCE,GOINGCONCERN,TYPEREPORT_MP,DOLLARTHRESHOLD,LOWRISK,REPORTREQUIRED,TOTFEDEXPEND,COPIES,REPORTABLECONDITION_MP,MATERIALWEAKNESS_MP,QCOSTS,CYFINDINGS,PYSCHEDULE,DUP_REPORTS,COG_AGENCY,OVERSIGHTAGENCY,DATERECEIVED,DATEFIREWALL,PREVIOUSDATEFIREWALL,FINDINGREFNUM,TYPEOFENTITY,IMAGE,AGENCYCFDA,INITIALDATE,DATERECEIVEDOTHER,MULTIPLE_CPAS,AUDITEECERTIFYNAME,AUDITEECERTIFYTITLE,FACACCEPTEDDATE,AUDITOR_EIN,SD_MATERIALWEAKNESS,SD_MATERIALWEAKNESS_MP,SIGNIFICANTDEFICIENCY,SIGNIFICANTDEFICIENCY_MP,SP_FRAMEWORK,SP_FRAMEWORK_REQUIRED,TYPEREPORT_SP_FRAMEWORK,SUPPRESSION_CODE,ENTITY_TYPE,TYPEAUDIT_CODE,OPEID,DATETOED,DATEFINISHED,TYPEFINDING,TYPEFUNDING,FYSTARTDATE,CPAFOREIGN,UEI,MULTIPLEUEIS,CPACOUNTRY
1377898,1138142020,2020,113814,06/30/2020 00:00:00,S,A,,N,910617727,,N,009051897,WALLA WALLA UNIVERSITY,204 SOUTH COLLEGE PLACE,,WALLA WALLA,WA,993241198,ERIC JAMES,CONTROLLER,5095272104,,ERIC.JAMES@WALLAWALLA.EDU,05/19/2021 16:29:14,KEN VYHMEISTER-AVP FINANCIAL ADMINISTRATION,"BKD, LLP",200 EAST MAIN STREET ,,FORT WAYNE,IN,468021900,ADAM SMITH,PARTNER,2604604000,,ASMITH@BKD.COM,05/05/2021 15:47:12,,O,,U,N,N,N,N,U,750000,Y,,19829857,,N,N,N,N,N,N,,84,05/19/2021 00:00:00,05/21/2021 01:30:03,,N,904,1,x00,05/19/2021 00:00:00,,N,KEN VYHMEISTER,AVP FINANCIAL ADMINISTRATION,05/19/2021 00:00:00,440160260,N,,N,N,,,,,Institution of higher education (IHE),UG,00379900,05/21/2021 10:45:22,05/27/2021 07:14:14,N,B,07/01/2019 00:00:00,,,,US
1363576,2130652020,2020,213065,06/30/2020 00:00:00,S,A,,N,232963763,,N,158797717,"MATHEMATICS, SCIENCE AND TECHNOLOGY COMMUNITY CHARTER SCHOOL",1800 EAST BYBERRY ROAD,,PHILADELPHIA,PA,191163012,MICHAEL THOMSON,CONTROLLER,8565051300,,MTHOMSON@S-TMAIL.COM,01/13/2021 16:32:58,MICHAEL C THOMSON-CONTROLLER,CANTOR NOVAK BEAVER & PIKE PC,"41 UNIVERSITY DRIVE, SUITE 401",,NEWTOWN,PA,18940,"DANIEL D. PIKE, CPA",SHAREHOLDER,2155502952,,DPIKE@CNBPCPAS.COM,01/15/2021 14:44:51,,O,,U,N,N,N,N,U,750000,Y,,1776934,,N,N,N,N,N,N,,84,01/15/2021 00:00:00,01/22/2021 01:30:03,,N,505,1,x00,01/15/2021 00:00:00,,N,MICHAEL C THOMSON,CONTROLLER,01/15/2021 00:00:00,270710060,N,,N,N,,,,,Non-profit,UG,,01/23/2021 14:53:23,01/28/2021 15:12:07,,N,07/01/2019 00:00:00,,,,US
1434503,2509342020,2020,250934,12/31/2020 00:00:00,S,A,,N,352166123,,N,962004565,"SER FAMILIA, INC",1000 COBB PLACE BLVD SUITE 170,,KENNESAW,GA,30144,BELISA URBINA,CEO,6783633079,,BELISA@SERFAM.ORG,06/15/2022 17:26:18,BELISA URBINA-CEO,"XTRATEGIST FINANCIAL, LLC",1165 NORTHCHASE PKWY SE #180,,MARIETTA,GA,30067,SALVADOR ALVARADO,MANAGING PARTNER,4047208283,,SAL.ALVARADO@XTRATEGIST.COM,06/06/2022 17:50:46,,O,,U,N,N,N,N,U,750000,Y,,2173221,,N,N,N,N,N,N,,16,06/15/2022 00:00:00,06/17/2022 01:30:04,,N,888,1,x00,08/13/2021 00:00:00,,N,BELISA URBINA,CEO,08/13/2021 00:00:00,814140276,N,,N,N,,,,,Non-profit,UG,,,,,,01/01/2020 00:00:00,,,,
1371263,2325822020,2020,232582,12/31/2020 00:00:00,S,A,,N,261415209,,N,831334375,CREATIVE HOUSING INC. VI,2233 CITYGATE DRIVE,,COLUMBUS,OH,43219,RANDY MILLER,CFO,6144187725,,RMILLER@CREATIVEHOUSING.ORG,03/03/2021 11:39:14,RANDY MILLER-CFO,"STEMEN, MERTENS, STICKLER, CPAS & ASSOCIATES","370 S 5TH STREET, SUITE 1",,COLUMBUS,OH,43215,JOSH SMITH,AUDIT PARTNER,6142240955,,JSMITH@SMS-CPAS.COM,03/03/2021 11:29:41,,O,,U,N,N,N,N,U,750000,Y,,1027776,,N,N,N,N,N,N,,14,03/03/2021 00:00:00,03/05/2021 01:30:03,,N,903,1,x00,03/03/2021 00:00:00,,N,RANDY MILLER,CFO,03/03/2021 00:00:00,205511881,N,,N,N,,,,,Non-profit,UG,,,,,,01/01/2020 00:00:00,,,,US
1393672,2306002020,2020,230600,12/31/2020 00:00:00,S,A,,N,352379093,,N,092809505,"ANITA MOREAU ""FOOD PROGRAM SPECIALIST""",17150 NORTHCREST CIRCLE,,NEW CANEY,TX,77357,JAMES MOREAU,EXECUTIVE DIRECTOR,2814336181,,ANITAMOREAU4@GMAIL.COM,09/29/2021 15:01:57,JUANITA MOREAU-FINANCE,MILLER MUSMAR,"12353 SUNRISE VALLEY DR., SUITE A",,RESTON,VA,20191,STEVEN BRILLION,CPA,7034378877,,STEVENB@MILLERMUSMAR.COM,09/29/2021 15:22:08,,O,,U,N,N,N,N,U,750000,N,,4566424,,N,N,N,N,N,N,,10,09/29/2021 00:00:00,10/01/2021 01:30:03,,N,908,1,x00,09/29/2021 00:00:00,,N,JUANITA MOREAU,FINANCE,09/29/2021 00:00:00,522010201,N,,N,N,,,,,Non-profit,UG,,,,,,01/01/2020 00:00:00,,,,US
1353286,2307302020,2020,230730,03/31/2020 00:00:00,S,A,,N,030274412,,N,606012599,"NORTHEAST EMPLOYMENT AND TRAINING ORGANIZATION, INC.",PO BOX 584,,NEWPORT,VT,05855,JAMES RYAN,EXECUTIVE DIRECTOR,8023347378,,JIM.RYAN@VTNETO.ORG,11/11/2020 13:53:50,JAMES RYAN-EXECUTIVE DIRECTOR,"LEONE, MCDONNELL & ROBERTS, P.A.",61 SOUTH MAIN STREET,,WOLFEBORO,NH,03894,EVAN J STOWELL,SHAREHOLDER,6035691953,,ESTOWELL@LMRPA.COM,11/11/2020 13:35:11,,O,,U,N,N,N,N,U,750000,Y,,1152232,,N,N,N,N,N,N,,10,11/11/2020 00:00:00,11/17/2020 01:30:07,,N,908,1,x00,11/11/2020 00:00:00,,N,JAMES RYAN,EXECUTIVE DIRECTOR,11/11/2020 00:00:00,020417217,N,,N,N,,,,,Non-profit,UG,,,,,,04/01/2019 00:00:00,,,,US
1348112,2271892020,2020,227189,06/30/2020 00:00:00,S,A,,N,510399911,,N,,KUUMBA ACADEMY CHARTER SCHOOL,1200 N. FRENCH STREET,,WILMINGTON,DE,19801,SALLY MALDONADO,HEAD OF SCHOOL,3024726452,,SMALDONADO@KUUMBA.K12.DE.US,11/16/2020 14:56:52,SALLY MALDONADO-HEAD OF SCHOOL,"MAILLIE, LLP",624 WILLOWBROOK LANE,,WEST CHESTER,PA,19380,EDWARD FRONCZKOWSKI,PARTNER,4847856031,,EFRONCZKOWSKI@MAILLIE.COM,11/11/2020 11:30:12,,O,,U,N,N,N,N,U,750000,Y,,1272680,,N,N,N,N,N,N,,84,11/16/2020 00:00:00,11/19/2020 01:30:03,,N,905,1,x00,11/16/2020 00:00:00,,N,SALLY MALDONADO,HEAD OF SCHOOL,11/16/2020 00:00:00,231518888,N,,N,N,,,,,Local government,UG,,11/30/2020 10:13:34,12/03/2020 08:54:33,N,G,07/01/2019 00:00:00,,,,US
1353563,2420212020,2020,242021,06/30/2020 00:00:00,S,A,,N,205298861,,N,830186487,"SUCCESS ACADEMY CHARTER SCHOOLS, INC.",95 PINE STREET,,NEW YORK,NY,10005,PETER WANNER,CONTROLLER,9173401319,,PETER.WANNER@SUCCESSACADEMIES.ORG,11/13/2020 13:17:01,PETER WANNER-CONTROLLER,"BDO USA, LLP",622 THIRD AVE,,NEW YORK,NY,10017,ADAM COLE,PARTNER,2128858327,,ACOLE@BDO.COM,11/13/2020 10:49:58,,O,,U,N,N,N,N,U,750000,Y,,1841985,,N,N,N,N,N,N,,84,11/13/2020 00:00:00,11/18/2020 01:30:04,,N,888,1,x00,11/13/2020 00:00:00,,N,PETER WANNER,CONTROLLER,11/13/2020 00:00:00,135381590,N,,N,N,,,,,Non-profit,UG,,11/18/2020 09:55:08,11/19/2020 08:29:55,N,G,07/01/2019 00:00:00,,,,US
1366402,2501222020,2020,250122,08/31/2020 00:00:00,S,A,,N,741697210,,N,091947200,GULF COAST WATER AUTHORITY,3630 FM1765,,"TEXAS CITY, ",TX,77591,DAVID DAVIS,ASSISTANT GENERAL MANAGER,4097974938,,DDAVIS@GCWATER.ORG,01/28/2021 14:32:21,DAVID DAVIS-ASSISTANT GENERAL MANAGER,WHITLEY PENN LLP,"3737 BUFFALO SPEEDWAY, SUITE 1600",,HOUSTON,TX,77098,CHRISTOPHER BREAUX,AUDIT PARTNER,7133861119,,CHRISTOPHER.BREAUX@WHITLEYPENN.COM,01/28/2021 17:31:45,,O,,U,N,N,N,N,U,750000,N,,1805130,,N,N,N,N,N,N,,97,02/01/2021 00:00:00,02/06/2021 01:30:05,,N,888,1,x00,02/01/2021 00:00:00,,N,DAVID DAVIS,ASSISTANT GENERAL MANAGER,02/01/2021 00:00:00,752393478,N,,N,N,,,,,Local government,UG,,,,,,09/01/2019 00:00:00,,,,US
1447100,2285332020,2020,228533,12/31/2020 00:00:00,S,A,,N,743177454,,N,791073674,RICHMOND UNIVERSITY MEDICAL CENTER,355 BARD AVENUE,,STATEN ISLAND,NY,10310,DAVE MURRAY,CFO,7188183295,,DMURRAY@RUMCSI.ORG,09/29/2022 07:42:48,DAVE MURRAY-CHIEF FINANCIAL OFFICER,BAKER TILLY,99 WOOD AVENUE SOUTH,,ISELIN,NJ,08830,HEATHER WEBER,PARTNER,2678866617,,HEATHER.WEBER@BAKERTILLY.COM,09/28/2022 19:49:13,,O,,U,Y,N,N,N,U,750000,Y,,10343998,,N,N,N,N,N,N,,97,09/29/2022 00:00:00,10/06/2022 01:30:14,,N,902,1,x00,09/30/2021 00:00:00,,N,DAVE MURRAY,CHIEF FINANCIAL OFFICER,09/30/2021 00:00:00,390859910,N,,Y,N,,,,,Non-profit,UG,,,,,,01/01/2020 00:00:00,,,,
1393319,1660252020,2020,166025,06/30/2020 00:00:00,S,A,,N,936002288,,N,,COLUMBIA COUNTY,230 STRAND ST,,ST HELENS,OR,97051,LOUISE KALSTROM,FINANCE DIRECTOR,5033977252,,LOUISE.KALLSTROM@COLUMBIACOUNTYOR.GOV,02/09/2022 16:39:52,LOUISE KALLSTROM-FINANCE DIRECTOR,"PAULY ROGERS, CPAS",12700 SW 72ND ST,,TIGARD,OR,97223,TRACY JONES,SENIOR ASSOCIATE,5036202632,,TRACYJ@RASCPAS.COM,09/14/2021 14:35:00,,O,,U,N,N,N,N,U,750000,Y,,3707216,,N,N,N,N,N,N,,15,02/09/2022 00:00:00,02/11/2022 01:30:04,,N,100,1,x00,02/09/2022 00:00:00,,N,LOUISE KALLSTROM,FINANCE DIRECTOR,02/09/2022 00:00:00,930936123,N,,N,N,,,,,State,UG,,,,,,07/01/2019 00:00:00,,,,US
1365475,1760632020,2020,176063,06/30/2020 00:00:00,S,A,,Y,546001290,,Y,069372647,"COUNTY OF FREDERICK, VIRGINIA",107 NORTH KENT STREET,,WINCHESTER,VA,22601,CHERYL SHIFFLER,FINANCIAL DIRECTOR,5406655610,,CSHIFFLE@FCVA.US,02/02/2021 10:37:01,CHERYL SHIFFLER-FINANCE DIRECTOR,"ROBINSON, FARMER, COX ASSOCIATES",PO BOX 6580,,CHARLOTTESVILLE,VA,22906,DAVID FOLEY,MEMBER,4349738314,,DFOLEY@RFCA.COM,02/02/2021 09:19:07,,O,,U,N,N,N,N,U,750000,Y,,16583847,,N,N,N,N,N,N,,93,02/02/2021 00:00:00,02/04/2021 01:30:04,,N,100,1,x00,02/02/2021 00:00:00,,N,CHERYL SHIFFLER,FINANCE DIRECTOR,02/02/2021 00:00:00,541896113,N,,N,N,,,,,Local government,UG,,02/07/2021 11:50:41,02/11/2021 10:35:11,N,G,07/01/2019 00:00:00,,,,US
1353569,1616012020,2020,161601,06/30/2020 00:00:00,S,A,,N,566001163,,N,079056420,CITY OF ALBEMARLE,144 NORTH SECOND STREET,,ALBEMARLE,NC,28001,COLLEEN CONROY,FINANCE DIRECTOR,7049849446,,CCONROY@CI.ALBEMARLE.NC.US,12/18/2020 16:21:58,COLLEEN CONROY-DIRECTOR OF FINANCE,"MARTIN STARNES & ASSOCIATES, CPAS, P.A.",730 13TH AVENUE DRIVE SE,,HICKORY,NC,28602,ERICA BROWN,PARTNER,8283272727,,JALLEN@MARTINSTARNES.COM,12/17/2020 14:57:08,,O,,U,N,N,N,N,U,750000,Y,,7316603,,N,N,N,N,N,N,,14,12/18/2020 00:00:00,12/27/2020 01:30:04,,N,200,1,x00,12/18/2020 00:00:00,,N,COLLEEN CONROY,DIRECTOR OF FINANCE,12/18/2020 00:00:00,561761202,N,,N,N,,,,,Local government,UG,,,,,,07/01/2019 00:00:00,,,,US
1375778,113082020,2020,11308,08/31/2020 00:00:00,S,A,,N,131916574,,N,078606324,NEW YORK CHIROPRACTIC COLLEGE,2360 STATE ROUTE 89,,SENECA FALLS,NY,13148,SEAN ANGLIM,VP FINANCE & ADMINISTRATIVE SERVICES,3155683092,,SANGLIM@NYCC.EDU,04/08/2021 13:12:34,SEAN ANGLIM-VP FINANCE,CLIFTONLARSONALLEN LLP,"610 W. GERMANTOWN PIKE, SUITE 400",,PLYMOUTH MEETING,PA,19462,"DAVID JACOBSON, CPA",PRINCIPAL,2156433900,,DAVID.JACOBSON@CLACONNECT.COM,04/08/2021 12:58:18,,O,,U,N,N,N,N,U,750000,Y,,26039121,,Y,N,N,Y,N,N,,84,04/08/2021 00:00:00,04/14/2021 01:30:04,,N,904,1,x84x00,04/08/2021 00:00:00,,N,SEAN ANGLIM,VP FINANCE,04/08/2021 00:00:00,410746749,N,,N,Y,,,,,Institution of higher education (IHE),UG,01227700,04/16/2021 12:57:53,04/22/2021 07:01:25,S,B,09/01/2019 00:00:00,,,,US
1356256,591252020,2020,59125,09/30/2020 00:00:00,S,A,,N,391043639,,N,,NORTHPORT APARTMENTS CORPORATION,3744 W. GREENTREE ROAD,,MILWAUKEE,WI,53209,COLLEEN KUMROW,ACCOUNTANT,4143527142,,KUMROWC@EXECPC.COM,01/06/2021 16:14:26,COLLEEN KUMROW-ACCOUNTANT,"CLIFTONLARSONALLEN, LLP","10401 W INNOVATION DRIVE, SUITE 300",,WAUWATOSA,WI,53226,JAKE LENELL,PRINCIPAL,4144761880,,JAKE.LENELL@CLACONNECT.COM,01/06/2021 15:44:29,,O,,U,N,N,N,N,U,750000,Y,,1311053,,N,N,N,N,N,N,,14,01/06/2021 00:00:00,01/08/2021 01:30:03,,N,903,1,x00,01/06/2021 00:00:00,,N,COLLEEN KUMROW,ACCOUNTANT,01/06/2021 00:00:00,410746749,N,,N,N,,,,,State,UG,,01/17/2021 11:31:38,01/21/2021 10:42:36,,N,10/01/2019 00:00:00,,,,US
1385976,2510062020,2020,251006,12/31/2020 00:00:00,S,A,,N,316402784,,N,130756708,GENOA TOWNSHIP,5111 S. OLD 3C HIGHWAY,,WESTERVILLE,OH,43082,PATRICK MYERS,FISCAL OFFICER,6148951126,,PMYERS@GENOATWP.COM,09/01/2021 12:04:39,PATRICK MYERS-FISCAL OFFICER,"JULIAN & GRUBE, INC.",333 COUNTY LINE ROAD WEST,,WESTERVILLE,OH,43082,"NICHOLAS CHISEK, CPA",PARTNER,6148461899,,NCHISEK@JGINC.BIZ,08/25/2021 14:12:09,,O,,S,Y,N,N,N,U,750000,N,,1003979,,N,N,N,N,N,N,,93,09/01/2021 00:00:00,09/03/2021 01:30:04,,N,888,1,x00,09/01/2021 00:00:00,,N,PATRICK MYERS,FISCAL OFFICER,09/01/2021 00:00:00,311440367,N,,Y,N,REGULATORY,N,U,,Local government,UG,,,,,,01/01/2020 00:00:00,,,,US
1394496,2511742020,2020,251174,06/30/2020 00:00:00,S,A,,N,455307975,,N,081167503,PORTLAND RECOVERY COMMUNITY CENTER,102 BISHOP STREET,,PORTLAND,ME,04103,LESLIE CLARK,EXECUTIVE DIRECTOR,2075532575,,LESLIE@PORTLANDRECOVERY.ORG,09/29/2021 11:15:43,LESLIE CLARK-LESLIE CLARK,THE SWANSON GROUP LLC,838 MAIN STREET,,WESTBROOK,ME,04038,TABITHA SWANSON,CEO,2073703490,,TABITHA@YOURMAINECPA.COM,09/29/2021 07:51:49,,O,,U,N,N,N,N,U,750000,N,,814559,,N,N,N,N,N,N,,16,09/29/2021 00:00:00,10/05/2021 01:30:03,,N,888,1,x00,09/29/2021 00:00:00,,N,LESLIE CLARK,LESLIE CLARK,09/29/2021 00:00:00,461374001,N,,N,N,,,,,Non-profit,UG,,,,,,07/01/2019 00:00:00,,,,US
1368293,1170652020,2020,117065,09/30/2020 00:00:00,S,A,,N,930806295,,N,107957516,IRCO (IMMIGRANT AND REFUGEE COMMUNITY ORGANIZATION),10301 N.E. GLISAN STREET,,PORTLAND,OR,97220,TONG LEE,FISCAL DIRECTOR,5032341541,,TONGL@IRCO.ORG,06/15/2021 14:05:47,TONG LEE-CFO,GARY MCGEE & CO. LLP,"1000 S.W. BROADWAY, SUITE 1200",,PORTLAND,OR,97205,GARY MCGEE,MANAGING PARTNER,5032222515,,,06/09/2021 10:26:13,,O,,U,Y,N,N,N,U,750000,Y,,4042820,,N,N,N,Y,N,N,,93,06/15/2021 00:00:00,06/19/2021 01:30:05,,N,908,1,x00,06/15/2021 00:00:00,,N,TONG LEE,CFO,06/15/2021 00:00:00,274363029,N,,Y,N,,,,,Non-profit,UG,,06/19/2021 11:16:23,06/24/2021 07:07:04,N,G,10/01/2019 00:00:00,,,,US
1365437,1925872020,2020,192587,06/30/2020 00:00:00,S,A,,N,942864814,,N,082913567,EAST SIDE UNION HIGH SCHOOL DISTRICT,830 NORTH CAPITAL AVENUE,,SAN JOSE,CA,95133,SILVIA PELAYO,DIRECTOR OF FINANCE,4083475220,,PELAYOS@ESUHSD.ORG,02/18/2021 15:11:54,SILVIA PELAYO-DIRECTOR OF FINANCE,EIDE BAILLY LLP,4040 CAMPBELL AVENUE STE 200,,MENLO PARK,CA,940251053,AHMAD GHARAIBEH,PARTNER,6505223400,,AGHARAIBEH@EIDEBAILLY.COM,02/18/2021 23:54:52,,O,,U,N,N,N,N,U,750000,Y,,16732181,,N,N,N,N,N,N,,12,02/18/2021 00:00:00,02/20/2021 01:30:03,,N,505,1,x00,02/18/2021 00:00:00,,N,SILVIA PELAYO,DIRECTOR OF FINANCE,02/18/2021 00:00:00,450250958,N,,N,N,,,,,Local government,UG,,02/24/2021 11:59:49,02/25/2021 10:30:46,N,G,07/01/2019 00:00:00,,,,US
1361307,472212020,2020,47221,06/30/2020 00:00:00,S,A,,N,356005615,,N,094580537,"CARDINAL SERVICES, INC. OF INDIANA",504 N BAY DRIVE,,WARSAW,IN,46580,LEANNE FORD,CFO,5743711360,,LEANNE.FORD@CARDINALSERVICES.ORG,12/28/2020 08:55:44,LEANNE FORD-CHIEF FINANCIAL OFFICER,"BLUE & CO., LLC","500 N. MERIDIAN STREET, SUITE 200",,INDIANAPOLIS,IN,46204,ALAN PARKS,DIRECTOR,3177137938,,APARKS@BLUEANDCO.COM,12/22/2020 18:10:37,,O,,U,Y,N,N,N,U,750000,Y,,2691999,,N,N,N,N,N,N,,93,12/28/2020 00:00:00,12/31/2020 01:30:04,,N,908,1,x00,12/28/2020 00:00:00,,N,LEANNE FORD,CHIEF FINANCIAL OFFICER,12/28/2020 00:00:00,351178661,N,,Y,N,,,,,Non-profit,UG,,,,,,07/01/2019 00:00:00,,,,US
1366346,1304772020,2020,130477,06/30/2020 00:00:00,S,A,,N,860287804,,N,070259874,MOHAVE COUNTY COMMUNITY COLLEGE DISTRICT,1971 JAGERSON AVE.,,KINGMAN,AZ,86409,DEBBY FRAIN,CONTROLLER,9286923084,,DFRAIN@MOHAVE.EDU,01/27/2021 10:13:40,DEBBY FRAIN-CONTROLLER,"CWDL, CERTIFIED PUBLIC ACCOUNTANTS","5151 MURPHY CANYON RD., STE135",,SAN DIEGO,CA,92123,JOHN DOMINGUEZ,PARTNER,8555652700,,JDOMINGUEZ@CWDLCPA.COM,02/03/2021 10:10:56,,O,,U,N,N,N,N,U,750000,N,,12461641,,N,N,N,N,N,N,,84,02/03/2021 00:00:00,02/06/2021 01:30:05,,N,504,1,x00,02/03/2021 00:00:00,,N,DEBBY FRAIN,CONTROLLER,02/03/2021 00:00:00,900916070,N,,N,N,,,,,Local government,UG,01186400,02/03/2021 15:32:31,02/04/2021 12:38:36,N,B,07/01/2019 00:00:00,,,,US
1371921,2296102020,2020,229610,06/30/2020 00:00:00,S,A,,N,223241609,,N,,"MERRIMACK VALLEY FOOD BANK, INC.",735 BROADWAY STREET ,,LOWELL,MA,01854,AMY PESSIA ,EXECUTIVE DIRECTOR ,9784547272,,APESSIA@MVFB.ORG,03/18/2021 02:27:59,SUSAN HANNIGAN-CHAIR FINANCE COMMITTEE,"TONNESON & COMPANY, PC",401 EDGEWATER PLACE,,WAKEFIELD ,MA,01880,KEVIN COSTELLO,AUDIT DIRECTOR ,7812459999,,KEVIN.COSTELLO@TONNESON.COM,03/10/2021 08:32:47,,O,,U,N,N,N,N,U,750000,N,,1326206,,N,N,N,N,N,N,,10,03/18/2021 00:00:00,03/20/2021 01:30:05,,N,908,1,x00,03/18/2021 00:00:00,,N,SUSAN HANNIGAN,CHAIR FINANCE COMMITTEE,03/18/2021 00:00:00,042943536,N,,N,N,,,,,Non-profit,UG,,,,,,07/01/2019 00:00:00,,,,US
1372997,2134002020,2020,213400,08/31/2020 00:00:00,S,A,,N,911008438,,N,606810877,RIVERSIDE SCHOOL DISTRICT NO. 416,34515 N NEWPORT HWY,,CHATTAROY,WA,990039734,RON THOMPSON,BUSINESS MANAGER,5094648202,,RON.THOMPSON@RSDMAIL.ORG,05/06/2021 19:07:40,RON THOMPSON-BUSINESS MANAGER,WASHINGTON STATE AUDITOR'S OFFICE,316 W BOONE AVE STE 680,,SPOKANE,WA,99201,BRAD WHITE,AUDIT MANAGER,5099190240,,BRADLEY.D.WHITE@SAO.WA.GOV,05/06/2021 18:38:55,,O,,AS,N,N,N,N,U,750000,Y,,1437273,,N,N,N,N,N,N,,84,05/06/2021 00:00:00,05/08/2021 01:30:04,,N,505,1,x00,05/06/2021 00:00:00,,N,RON THOMPSON,BUSINESS MANAGER,05/06/2021 00:00:00,916001098,N,,N,N,REGULATORY,Y,U,,Local government,UG,,05/07/2021 13:55:27,05/13/2021 07:22:02,N,G,09/01/2019 00:00:00,,,,US
1426269,2475542020,2020,247554,12/31/2020 00:00:00,S,A,,N,237102789,,N,967917415,PROBLEMS ANONYMOUS ACTION GROUP INCORPORATED,2748 ADAMS AVENUE,,OGDEN,UT,844030106,RHETT POTTER,EXECUTIVE DIRECTOR,8015294629,,RHETTPOTTERANDASSOCIATES@GMAIL.COM,03/31/2022 14:59:11,RHETT POTTER-EXECUTIVE DIRECTOR,"SHAW & CO., P.C.","1564 SOUTH 500 WEST, SUITE 201",,BOUNTIFUL,UT,840107400,SHALAUN HOWELL,PARTNER,8012943155,,SHALAUN@SHAW-CPA.COM,03/31/2022 01:46:33,,O,,U,Y,Y,N,N,U,750000,N,,1602834,,Y,Y,N,Y,Y,N,,14,03/31/2022 00:00:00,04/11/2022 01:30:04,,N,888,1,x14,03/31/2022 00:00:00,,N,RHETT POTTER,EXECUTIVE DIRECTOR,03/31/2022 00:00:00,460952065,Y,,Y,Y,,,,,Non-profit,UG,,,,,,01/01/2020 00:00:00,,,,US
1348854,2290962020,2020,229096,06/30/2020 00:00:00,S,A,,N,743162136,,N,788244916,HYDE LEADERSHIP CHARTER SCHOOL,"730 BRYANT AVENUE, ROOM 435",,BRONX,NY,10474,LESLIE RICH,CONTROLLER,7189915500,,LRICH@HYDEBRONXNY.ORG,10/29/2020 10:48:19,LESLIE RICH-CONTROLLER,MARKS PANETH LLP,685 THIRD AVE,,NEW YORK,NY,10017,MATTHEW ESTERSOHN,PARTNER,2122013145,,MESTERSOHN@MARKSPANETH.COM,10/29/2020 10:51:11,,O,,U,N,N,N,N,U,750000,Y,,916281,,N,N,N,N,N,N,,84,10/29/2020 00:00:00,10/31/2020 01:30:03,,N,905,1,x00,10/29/2020 00:00:00,,N,LESLIE RICH,CONTROLLER,10/29/2020 00:00:00,133518842,N,,N,N,,,,,Non-profit,UG,,11/03/2020 10:16:49,11/05/2020 08:21:55,,N,07/01/2019 00:00:00,,,,US
1387283,1298892020,2020,129889,12/31/2020 00:00:00,S,A,,N,926000194,,N,037411071,"CITY OF PALMER, ALASKA",231 WEST EVERGREEN AVENUE,,PALMER,AK,99645,GINA DAVIS,FINANCE DIRECTOR,9077611314,,GDAVIS@PALMERAK.ORG,08/31/2021 13:51:00,GINA DAVIS-FINANCE DIRECTOR,"BDO USA, LLP","3601 C STREET, SUITE 600",,ANCHORAGE,AK,99503,JOY MERRINER,PARTNER,9072788878,,JMERRINER@BDO.COM,08/31/2021 15:28:38,,O,,U,N,N,N,N,U,750000,N,,7138662,,N,N,N,N,N,N,,20,08/31/2021 00:00:00,09/03/2021 01:30:04,,N,200,1,x00,08/31/2021 00:00:00,,N,GINA DAVIS,FINANCE DIRECTOR,08/31/2021 00:00:00,135381590,N,,N,N,,,,,Local government,UG,,,,,,01/01/2020 00:00:00,,,,US
1359522,2052802020,2020,205280,06/30/2020 00:00:00,S,A,,N,156002524,,N,075826586,SENECA FALLS CENTRAL SCHOOL DISTRICT,"P.O. BOX 268, 98 CLINTON STREET",,SENECA FALLS,NY,13148,JAMES BRUNI,BUSINESS MANAGER,3155393839,,JBRUNI@SENECAFALLSCSD.ORG,01/07/2021 15:23:30,JAMES BRUNI-ADMINISTRATOR OF BUSINESS AND OPERATIONS,"MENGEL METZGER BARR & CO., LLP","100 CHESTNUT STREET, SUITE 1200",,ROCHESTER,NY,14604,THOMAS ZUBER,PARTNER,5854231860,,JNOBLES@MMB-CO.COM,01/08/2021 10:31:30,,O,,U,N,N,N,N,U,750000,Y,,1127317,,N,N,N,N,N,N,,84,01/08/2021 00:00:00,01/10/2021 01:30:03,,N,505,1,x00,01/08/2021 00:00:00,,N,JAMES BRUNI,ADMINISTRATOR OF BUSINESS AND OPERATIONS,01/08/2021 00:00:00,161092347,N,,N,N,,,,,State,UG,,01/17/2021 13:04:55,01/21/2021 10:42:36,,N,07/01/2019 00:00:00,,,,US
1360438,1517372020,2020,151737,06/30/2020 00:00:00,S,A,,N,411762002,,N,838292431,INDEPENDENT SCHOOL DISTRICT NO. 2144,29678 KARMEL AVENUE,,CHISAGO CITY ,MN,55013,ROBYN VOSBERG-TORGERSON,DIRECTOR OF BUSINESS SERVICES,6512132901,,RVOSBERG-TORGERSON@ISD2144.ORG,12/21/2020 14:58:53,ROBYN VOSBERG-TORGERSON-DIRECTOR OF BUSINESS SERVICES,ABDO EICK & MEYERS,"5201 EDEN AVE, SUITE 250",,EDINA,MN,55436,BRAD FALTEYSEK,GOVERNMENTAL PARTNER ,9527153004,,BRAD.FALTEYSEK@AEMCPAS.COM,12/21/2020 14:23:19,,O,,U,Y,N,N,N,U,750000,Y,,994500,,N,N,N,N,N,N,,10,12/21/2020 00:00:00,12/28/2020 01:30:04,,N,505,1,x00,12/21/2020 00:00:00,,N,ROBYN VOSBERG-TORGERSON,DIRECTOR OF BUSINESS SERVICES,12/21/2020 00:00:00,411397419,N,,Y,N,,,,,Local government,UG,,01/06/2021 10:04:12,01/07/2021 11:13:13,,N,07/01/2019 00:00:00,,,,US
1346455,1700382020,2020,170038,06/30/2020 00:00:00,S,A,,N,236050689,,N,,METHACTON SCHOOL DISTRICT,1000 KRIEBEL MILL ROAD,,NORRISTOWN,PA,19403,TIMOTHY BRICKER,ASSISTANT DIRECTOR OF BUSINESS SERVICES,6104895000,,TBRICKER@METHACTON.ORG,11/16/2020 09:54:40,DANIELLE PENZA-ASSISTANT DIRECTOR OF BUSINESS SERVICES,MAILLIE LLP,500 NORTH LEWIS ROAD,,LIMERICK,PA,19468,DONALD J. PIERCE,PARTNER,6109351420,,DPIERCE@MAILLIE.COM,11/17/2020 17:01:21,,O,,U,N,N,N,N,U,750000,Y,,1671373,,N,N,N,N,N,N,,84,11/23/2020 00:00:00,12/03/2020 01:30:05,,N,505,1,x00,11/23/2020 00:00:00,,N,DANIELLE PENZA,ASSISTANT DIRECTOR OF BUSINESS SERVICES,11/23/2020 00:00:00,231518888,N,,N,N,,,,,Local government,UG,,12/04/2020 09:36:05,12/10/2020 08:08:40,,N,07/01/2019 00:00:00,,,,US
1421973,1629232020,2020,162923,12/31/2020 00:00:00,S,A,,N,316400233,,N,071640015,CITY OF MARION,233 W CENTER STREET,,MARION,OH,43302,MIRANDA MEGINNESS,CITY AUDITOR,7403835337,,MMEGINNESS@MARIONOHIO.ORG,06/02/2022 11:09:25,MIRANDA MEGINNESS-CITY AUDITOR,AUDITOR OF STATE OF OHIO,"88 E. BROAD ST, 5TH FLOOR",,COLUMBUS,OH,43215,JUSTIN LEU,SENIOR AUDIT MANAGE,6147287162,,JCLEU@OHIOAUDITOR.GOV,06/02/2022 07:47:37,,O,,U,N,Y,Y,N,U,750000,Y,,4586603,,N,N,N,N,N,N,,21,06/02/2022 00:00:00,06/04/2022 01:30:03,,N,200,1,x00,06/02/2022 00:00:00,,N,MIRANDA MEGINNESS,CITY AUDITOR,06/02/2022 00:00:00,311334820,Y,,N,N,,,,,Local government,UG,,,,,,01/01/2020 00:00:00,,,,US
1401128,2038072020,2020,203807,12/31/2020 00:00:00,S,A,,N,586014661,,N,956076996,HOUSING AUTHORITY OF THE CITY OF ALMA,P.O. BOX 190,,ALMA,GA,31510,KRISTY TAYLOR,EXECUTIVE DIRECTOR,9126324298,,KTAYLOR@ALMAHOUSINGAUTHORITY.COM,11/03/2021 10:35:53,KRISTY TAYLOR-EXECUTIVE DIRECTOR,"HENDERSON & PILLITERI, LLC","200 CHASE PARK SOUTH, SUITE 220",,BIRMINGHAM,AL,35244,ROY W. HENDERSON JR.,MEMBER,2059820992,,RHENDERSON@HENDERSONCPA.COM,11/03/2021 09:30:26,,O,,U,N,N,N,N,U,750000,Y,,1490328,,N,N,N,N,N,N,,14,11/03/2021 00:00:00,11/05/2021 01:30:04,,N,403,1,x00,11/03/2021 00:00:00,,N,KRISTY TAYLOR,EXECUTIVE DIRECTOR,11/03/2021 00:00:00,263957106,N,,N,N,,,,,Local government,UG,,,,,,01/01/2020 00:00:00,,,,US
1367604,9042020,2020,904,06/30/2020 00:00:00,S,A,,N,020271139,,N,138050331,NEW HAMPSHIRE COLLEGE & UNIVERSITY COUNCIL,3 BARRELL COURT SUITE 200,,CONCORD,NH,033018543,DEBORAH SCIRE,PRESIDENT & CEO,6032232301,,SCIRE@COMPACTNH.ORG,02/16/2021 16:30:34,DEBORAH SCIRE-PRESIDENT,"HESSION & PARE, PC",62 STARK STREET,,MANCHESTER,NH,031011970,THOMAS PARE,PARTNER,6036695477,,TPARE@HESSION-PARE.COM,02/04/2021 09:41:56,,O,,U,N,N,N,N,U,750000,N,,1761937,,N,N,N,N,N,N,,84,02/16/2021 00:00:00,02/18/2021 01:30:03,,N,909,1,x00,02/16/2021 00:00:00,,N,DEBORAH SCIRE,PRESIDENT,02/16/2021 00:00:00,020428003,N,,N,N,,,,,Non-profit,UG,,02/22/2021 11:32:34,02/25/2021 10:30:46,N,G,07/01/2019 00:00:00,,,,US
1366289,2421772020,2020,242177,06/30/2020 00:00:00,S,A,,N,366007289,,N,126871490,GENOA-KINGSTON COMMUNITY UNIT SCHOOL DISTRICT NO. 424,980 PARK AVENUE,,GENOA,IL,60135,BRAD SHORTRIDGE,ASSISTANT SUPERINTENDENT,8157846222,,BSHORTRI@GKSCHOOLS.ORG,04/07/2021 11:54:33,BRAD SHORTRIDGE-ASSISTANT SUPERINTENDENT/CSBO,WIPFLI LLP,3957 75TH STREET,,AURORA,IL,60504,"ANDY MACE, CPA",PARTNER,6308985578,,ANDY.MACE@WIPFLI.COM,02/01/2021 14:53:28,,O,,S,N,N,N,N,U,750000,N,,983524,,N,N,N,N,N,N,,84,04/07/2021 00:00:00,04/09/2021 01:30:04,,N,888,1,x00,04/07/2021 00:00:00,,N,BRAD SHORTRIDGE,ASSISTANT SUPERINTENDENT/CSBO,04/07/2021 00:00:00,390758449,N,,N,N,CASH,N,U,,Local government,UG,,04/12/2021 15:51:16,04/15/2021 07:25:14,,N,07/01/2019 00:00:00,,,,US
1380034,1452432020,2020,145243,12/31/2020 00:00:00,S,A,,N,486028701,,N,108604976,"CITY OF TOPEKA, KANSAS",215 SE 7TH STREET,,TOPEKA,KS,66603,JESSICA LAMENDOLA,DIRECTOR OF FINANCIAL SERVICES,7853683970,,JLAMENDOLA@TOPEKA.ORG,06/17/2021 15:39:08,JESSICA LAMENDOLA-DIRECTOR OF ADMINISTRATIVE AND FINANCIAL SERVICES,RSM US LLP,4622 PENNSYLVANIA AVE,,KANSAS CITY,MO,64112,KRISTEN HUGHES,SENIOR MANAGER,8167514004,,KRISTEN.HUGHES@RSMUS.COM,06/04/2021 09:41:10,,O,,U,Y,N,N,N,U,750000,N,,14428478,,N,N,N,N,N,Y,,14,06/17/2021 00:00:00,06/20/2021 01:30:04,,N,200,1,x00,06/17/2021 00:00:00,,N,JESSICA LAMENDOLA,DIRECTOR OF ADMINISTRATIVE AND FINANCIAL SERVICES,06/17/2021 00:00:00,420714325,N,,Y,N,,,,,Local government,UG,,,,,,01/01/2020 00:00:00,,,,US
1346266,395862020,2020,39586,07/31/2020 00:00:00,S,A,,N,311132676,,N,602416369,"NCR OF VICTOR HDFC, INC. DBA AUTUMN GROVE",2335 NORTH BANK DRIVE,,COLUMBUS,OH,43220,JULIA FRATIANNE,TREASURER,6144512151,,NCRAUDITTEAM@NATIONALCHURCHRESIDENCES.ORG,09/22/2020 11:04:15,JULIE FRATIANNE-TREASURER,"PLANTE & MORAN, PLLC","250 SOUTH HIGH STREET, SUITE 100",,COLUMBUS,OH,43215,KELLY PERLMAN,PARTNER,6148493000,,PM.SINGLEAUDIT@PLANTEMORAN.COM,09/21/2020 16:47:32,,O,,U,N,N,N,N,U,750000,Y,,2680613,,N,N,N,N,N,N,,14,09/22/2020 00:00:00,09/25/2020 01:30:04,,N,903,1,x00,09/22/2020 00:00:00,,N,JULIE FRATIANNE,TREASURER,09/22/2020 00:00:00,381357951,N,,N,N,,,,,Non-profit,UG,,,,,,08/01/2019 00:00:00,,,,US
1421704,1381852020,2020,138185,09/30/2020 00:00:00,S,A,,N,826000223,,Y,198922611,"CITY OF MCCALL, IDAHO",216 E PARK STREET,,MCCALL,ID,83638,LINDA STOKES,TREASURER,2086342103,,LSTOKES@MCCALL.ID.US,03/23/2022 18:37:20,LINDA STOKES-TREASURER,EIDE BAILLY LLP,"877 W MAIN STREET, SUITE 800",,BOISE,ID,83702,BOBBY LAWRENCE,PARTNER,2083834742,,BLAWRENCE@EIDEBAILLY.COM,03/23/2022 15:44:00,,O,,U,N,Y,N,N,U,750000,Y,,6074322,,N,N,N,N,N,N,,20,03/23/2022 00:00:00,03/25/2022 01:30:02,,N,200,1,x00,03/23/2022 00:00:00,,N,LINDA STOKES,TREASURER,03/23/2022 00:00:00,450250958,Y,,N,N,,,,,Local government,UG,,,,,,10/01/2019 00:00:00,,,,US
1382825,625902020,2020,62590,12/31/2020 00:00:00,S,A,,N,411386986,,N,,"COMUNIDADES LATINAS UNIDAS EN SERVICIO, INC.",797 EAST SEVENTH STREET,,ST PAUL,MN,55106,DOMINIC KORBEL,VP OF ADMINISTRATION,6513794259,,DKORBEL@CLUES.ORG,06/09/2021 10:33:23,DOMINIC KORBEL-VP OF ADMINISTRATION,CLIFTONLARSONALLEN LLP,"220 SOUTH SIXTH STREET, SUITE 300",,MINNEAPOLIS,MN,55402,"SARAH REICHLING, CPA",PRINCIPAL,6123973066,,SARAH.REICHLING@CLACONNECT.COM,06/08/2021 16:11:15,,O,,U,Y,Y,N,N,U,750000,N,,4887871,,N,N,N,N,N,N,,21,06/09/2021 00:00:00,06/11/2021 01:30:06,,N,908,1,x00,06/09/2021 00:00:00,,N,DOMINIC KORBEL,VP OF ADMINISTRATION,06/09/2021 00:00:00,410746749,Y,,Y,N,,,,,Non-profit,UG,,,,,,01/01/2020 00:00:00,,,,US
1357011,2052922020,2020,205292,06/30/2020 00:00:00,S,A,,N,226002100,,N,,TOWNSHIP OF MONTGOMERY SCHOOL DISTRICT,1014 ROUTE 601,,SKILLMAN,NJ,08558,ALICIA SCHAUER,BUSINESS ADMINISTRATOR,6094667601,,ASCHAUER@MTSD.US,01/06/2021 11:16:12,ALICIA SCHAUER-SCHOOL BUSINESS ADMINISTRATOR/BOARD SECRETARY,"SUPLEE, CLOONEY AND COMPANY",308 EAST BROAD STREET,,WESTFIELD,NJ,07090,ROBERT SWISHER,PARTNER,9087899300,,RSWISHER@SCNCO.COM,01/06/2021 13:06:18,,O,,U,N,N,N,N,U,750000,Y,,1312845,,N,N,N,N,N,N,,84,01/06/2021 00:00:00,01/10/2021 01:30:03,,N,505,1,x00,01/06/2021 00:00:00,,N,ALICIA SCHAUER,SCHOOL BUSINESS ADMINISTRATOR/BOARD SECRETARY,01/06/2021 00:00:00,221427684,N,,N,N,,,,,Local government,UG,,01/17/2021 10:45:18,01/21/2021 10:42:36,,N,07/01/2019 00:00:00,,,,US
1374578,1696532020,2020,169653,06/30/2020 00:00:00,S,A,,N,251216173,,N,118293752,BEAVER VALLEY INTERMEDIATE UNIT,147 POPLAR AVENUE ,,MONACA ,PA,15061,CONNIE HARMOTTO ,BUSINESS MANAGER ,7247747800,,CLH@BVIU.ORG,03/24/2021 15:00:15,CONNIE HARMOTTO-BUSINESS MANAGER,MARK C TURNLEY CPA ,1000 3RD AVENUE ,,NEW BRIGHTON ,PA,15066,MARK TURNLEY ,OWNER ,7243841081,,MARK@MCTURNLEYCPA.COM,03/24/2021 14:21:10,,O,,U,N,N,N,N,U,750000,Y,,6808713,,N,N,N,N,N,N,,84,03/24/2021 00:00:00,03/26/2021 01:30:04,,N,505,1,x00,03/24/2021 00:00:00,,N,CONNIE HARMOTTO,BUSINESS MANAGER,03/24/2021 00:00:00,251570881,N,,N,N,,,,,Local government,UG,,03/27/2021 11:01:55,04/01/2021 07:14:26,,N,07/01/2019 00:00:00,,,,US
1369089,2457382020,2020,245738,12/31/2020 00:00:00,S,A,,N,264826876,,N,833154342,"SANDYWOODS HOME, INC.",50 WASHINGTON SQUARE,,NEWPORT,RI,02840,CHRISTIAN BELDEN,EXECUTIVE DIRECTOR,4018465114,,CBELDEN@CCHCNEWPORT.ORG,03/01/2021 11:43:25,CHRISTIAN BELDEN-EXECUTIVE DIRECTOR,D'AMBRA CPA,531 HARRIS AVENUE,,WOONSOCKET,RI,02895,CRAIG D'AMBRA,OWNER,4014742300,,CRAIGSDAMBRA@GMAIL.COM,02/27/2021 10:52:24,,O,,U,N,N,N,Y,U,750000,N,,4083859,,N,N,N,N,N,N,,14,03/03/2021 00:00:00,03/05/2021 01:30:03,,N,888,1,x00,03/03/2021 00:00:00,,N,CHRISTIAN BELDEN,EXECUTIVE DIRECTOR,03/03/2021 00:00:00,050503395,N,,N,N,,,,,Non-profit,UG,,,,,,01/01/2020 00:00:00,,,,US
1392898,2010662020,2020,201066,12/31/2020 00:00:00,S,A,,N,226002151,,N,,TOWNSHIP OF NORTH BERGEN,4233 KENNEDY BLVD,,NORTH BERGEN,NJ,07047,ROBERT PITTFIELD ,CFO ,2013302629,,RPITTFIELD@NORTHBERGEN.ORG,10/28/2021 11:29:10,ROBERT PITTFIELD-CFO,PKF O'CONNOR DAVIES ,20 COMMERCE DRIVE SUITE 301,,CRANFORD,NJ,07016,DAVID GANNON,PARTNER,9089676855,,DGANNON@PKFOD.COM,10/25/2021 15:09:58,,O,,S,N,N,N,N,U,750000,Y,,4233923,,N,N,N,N,N,N,,21,10/28/2021 00:00:00,11/01/2021 01:30:03,,N,300,1,x00,10/28/2021 00:00:00,,N,ROBERT PITTFIELD,CFO,10/28/2021 00:00:00,271728945,N,,N,N,REGULATORY,Y,U,,Local government,UG,,,,,,01/01/2020 00:00:00,,,,US
1376766,1719062020,2020,171906,06/30/2020 00:00:00,S,A,,N,626002610,,N,043008143,LEBANON HOUSING AUTHORITY,49 UPTON HEIGHTS,,LEBANON,TN,37087,PATRICK JOHNSON,EXECUTIVE DIRECTOR,6154441872,,PJOHNSON@LHATN.ORG,01/24/2023 15:47:41,PATRICK JOHNSON-EXECUTIVE DIRECTOR,"CHANG & COMPANY, P.C.",4360 CHAMBLEE DUNWOODY RD SUITE 206,,ATLANTA,GA,30341,SPENCER CHANG,CPA,6782810450,,SPENCERGA@GMAIL.COM,03/31/2021 22:49:17,,O,,U,N,N,N,N,U,750000,N,,2268344,,N,N,N,N,N,N,,14,01/24/2023 00:00:00,01/28/2023 01:30:06,,N,403,1,x00,01/24/2023 00:00:00,,N,PATRICK JOHNSON,EXECUTIVE DIRECTOR,01/24/2023 00:00:00,581792580,N,,N,N,,,,,Non-profit,UG,,,,,,07/01/2019 00:00:00,,,,US
1411002,1697632020,2020,169763,06/30/2020 00:00:00,S,A,,N,231671313,,N,,AVON GROVE SCHOOL DISTRICT,375 SOUTH JENNERSVILLE ROAD,,WEST GROVE,PA,193908401,DANIEL CARSLEY,BUSINESS MANAGER,6108692441,,DCARSLEY@AVONGROVE.ORG,01/03/2022 09:34:07,DANIEL CARSLEY-BUSINESS MANAGER,"BARBACANE, THORNTON & COMPANY LLP","3411 SILVERSIDE ROAD, 200 SPRINGER BUILDING",,WILMINGTON,DE,19810,"JEFFREY A. KOWALCZYK, CPA",PARTNER,3024684036,,JKOWALCZYK@BTCPA.COM,01/03/2022 08:42:00,,O,,U,N,N,N,N,U,750000,Y,,1886246,,N,N,N,N,N,N,,10,01/03/2022 00:00:00,01/05/2022 01:30:05,,N,505,1,x00,11/18/2020 00:00:00,,N,DANIEL CARSLEY,BUSINESS MANAGER,11/18/2020 00:00:00,510229493,N,,N,N,,,,,Local government,UG,,11/30/2020 11:16:56,12/03/2020 08:54:33,,N,07/01/2019 00:00:00,,,,
1368170,834512020,2020,83451,06/30/2020 00:00:00,S,A,,N,570329786,,N,078050846,VOORHEES COLLEGE,1141 VOORHEES ROAD,,DENMARK,SC,29042,V. DIANE O'BERRY,VP FOR FISCAL AFFAIRS,8037801149,,DOBERRY@VOORHEES.EDU,02/07/2021 19:51:29,V. DIANE O'BERRY-V. DIANE O'BERRY,"J. W. HUNT AND COMPANY, LLP",1607 ST. JULIAN PLACE,,COLUMBIA,SC,29204,WILLIAM T. POUNCEY,PARTNER,8037288655,,WTP@JWHUNT.COM,02/07/2021 10:48:12,,O,,U,N,N,N,N,U,750000,Y,,10627252,,N,N,N,N,N,N,,84,02/08/2021 00:00:00,02/10/2021 01:30:03,,N,904,1,x00,02/08/2021 00:00:00,,N,V. DIANE O'BERRY,V. DIANE O'BERRY,02/08/2021 00:00:00,570138290,N,,N,N,,,,,Institution of higher education (IHE),UG,00345500,02/16/2021 10:13:02,02/18/2021 09:52:14,N,B,07/01/2019 00:00:00,,,,US
1392346,32052020,2020,3205,09/30/2020 00:00:00,S,A,,N,042442944,,N,020673778,"BERKSHIRE HEALTH SYSTEMS, INC. AND AFFILATES",725 NORTH STREET,,PITTSFIELD,MA,01201,PAULA BUSH,DIRECTOR GENERAL ACCOUNTING,4134472508,,PBUSH@BHS1.ORG,09/03/2021 14:37:12,DARLENE RODOWICZ-EXECUTIVE VICE PRESIDENT,"GRANT THORNTON, LLP",186 WOOD AVENUE SOUTH 4TH FLOOR,,ISELIN,NJ,08830,CRISPIN HILDEBRAND,DIRECTOR,2158144055,,CRISPIN.HILDEBRAND@US.GT.COM,09/03/2021 15:00:21,,O,,U,N,N,N,N,U,750000,Y,,1355096,,N,N,N,N,N,Y,,10,09/03/2021 00:00:00,09/08/2021 01:30:05,,N,908,1,x00,09/03/2021 00:00:00,,N,DARLENE RODOWICZ,EXECUTIVE VICE PRESIDENT,09/03/2021 00:00:00,366055558,N,,N,N,,,,,Non-profit,UG,,,,,,10/01/2019 00:00:00,,,,US
1388224,1347962020,2020,134796,12/31/2020 00:00:00,S,A,,N,846006924,,N,088448345,CITY OF COMMERCE CITY,7887 EAST 60TH AVENUE,,COMMERCE CITY,CO,80022,SU CHONG MYUNG,ACCOUNTING SUPERVISOR,3032893727,,SMYUNG@C3GOV.COM,08/04/2021 17:41:02,SHERYL L. CARSTENS-DIRECTOR OF FINANCE,EIDE BAILLY LLP,"7001 E. BELLEVIEW AVE., STE. 700",,DENVER,CO,802372733,PAUL KANE,AUDIT PARTNER,3034596758,,PKANE@EIDEBAILLY.COM,08/14/2021 13:07:44,,O,,U,N,Y,N,N,U,750000,N,,6156188,,N,N,N,N,N,N,,14,08/16/2021 00:00:00,08/18/2021 01:30:04,,N,200,1,x00,08/16/2021 00:00:00,,N,SHERYL L. CARSTENS,DIRECTOR OF FINANCE,08/16/2021 00:00:00,450250958,Y,,N,N,,,,,Local government,UG,,,,,,01/01/2020 00:00:00,,,,US
1361483,1541972020,2020,154197,06/30/2020 00:00:00,S,A,,N,436001506,,N,088705934,GREENVILLE R-II SCHOOL DISTRICT,P.O. BOX 320,,GREENVILLE,MO,639440320,RICK CLUBB,SUPERINTENDENT,5732243844,,RCLUBB@BEARS.K12.MO.US,01/04/2021 10:40:31,RICK CLUBB-SUPERINTENDENT,"CATLETT & ASSOCIATES, LLC","6209 MID RIVERS MALL DRIVE, #117",,SAINT PETERS,MO,63304,MICHAEL CATLETT,MEMBER,6369227540,,MIKEJPMLLC@ATT.NET,12/23/2020 15:04:52,,O,,S,N,N,N,N,U,750000,N,,1317204,,N,N,N,N,N,N,,84,01/04/2021 00:00:00,01/06/2021 01:30:05,,N,505,1,x00,01/04/2021 00:00:00,,N,RICK CLUBB,SUPERINTENDENT,01/04/2021 00:00:00,262651464,N,,N,N,CASH,N,U,,Local government,UG,,01/12/2021 13:08:37,01/14/2021 06:24:59,N,G,07/01/2019 00:00:00,,,,US
1358418,1520332020,2020,152033,06/30/2020 00:00:00,S,A,,N,416003818,,N,095958187,INDEPENDENT SCHOOL DISTRICT NO.728,11500 193RD AVENUE NW,,ELK RIVER,MN,55330,JOSEPH PRIMUS,ASSISTANT DIRECTOR OF FINANCE,7632413437,,JOSEPH.PRIMUS@ISD728.ORG,12/14/2020 09:23:28,JOSEPH PRIMUS-ASSISTANT DIRECTOR OF FINANCE,"MALLOY, MONTAGUE, KARNOWSKI, RASOSEVICH, & CO., P.A.","5353 WAYZATA BLVD, SUITE #410",,MINNEAPOLIS,MN,55416,WILLIAM LAUER,PRINCIPAL,9525450424,,BLAUER@MMKR.COM,12/13/2020 14:21:11,,O,,U,N,N,N,N,U,750000,Y,,6132518,,N,N,N,N,N,N,,84,12/14/2020 00:00:00,12/22/2020 01:30:04,,N,505,1,x00,12/14/2020 00:00:00,,N,JOSEPH PRIMUS,ASSISTANT DIRECTOR OF FINANCE,12/14/2020 00:00:00,411690382,N,,N,N,,,,,Local government,UG,,01/01/2021 16:24:31,01/07/2021 11:13:13,N,G,07/01/2019 00:00:00,,,,US
1379676,2029102020,2020,202910,12/31/2020 00:00:00,S,A,,N,346001861,,N,095330635,CITY OF MENTOR,8500 CIVIC CENTER BOULEVARD,,MENTOR,OH,44060,DAVID MALINOWSKI,DIRECTOR OF FINANCE,4402551100,,MALINOWSKI@CITYOFMENTOR.COM,07/13/2021 09:46:49,DAVE MALINOWSKI-DIRECTOR OF FINANCE,OHIO AUDITOR OF STATE KEITH FABER,88 EAST BROAD STREET,,COLUMBUS,OH,43215,ANDREA ZAPACH,SENIOR AUDIT MANAGER,2167873665,,ALZAPACH@OHIOAUDITOR.GOV,07/13/2021 07:27:05,,O,,U,N,N,N,N,U,750000,N,,7019832,,N,N,N,N,N,N,,14,07/13/2021 00:00:00,07/15/2021 01:30:05,,N,200,1,x00,07/13/2021 00:00:00,,N,DAVE MALINOWSKI,DIRECTOR OF FINANCE,07/13/2021 00:00:00,311334820,N,,N,N,,,,,Local government,UG,,,,,,01/01/2020 00:00:00,,,,US
1354641,1297992020,2020,129799,06/30/2020 00:00:00,S,A,,N,920057727,,N,047945373,CHUGACH SCHOOL DISTRICT,9321 VAN GUARD SUITE 100,,ANCHORAGE,AK,99507,AMANDA TRANGMOE,CONTRACT ACCOUNTANT,9075227400,,ATRANGMOE@CHUGACHSCHOOLS.COM,11/16/2020 14:48:50,AMANDA TRANGMOE-CFO,"ALTMAN, ROGERS & CO.","3000 C ST. N., SUITE 201",,ANCHORAGE,AK,99503,DONALD L. HANNI,PRINCIPAL,9072742992,,FEDCENSUS@ALTROGCO.COM,11/13/2020 21:39:54,,O,,U,N,N,N,N,U,750000,N,,1670276,,N,N,N,N,N,N,,84,11/16/2020 00:00:00,11/18/2020 01:30:04,,N,005,1,x00,11/16/2020 00:00:00,,N,AMANDA TRANGMOE,CFO,11/16/2020 00:00:00,920143182,N,,N,N,,,,,Local government,UG,,11/18/2020 10:10:25,11/19/2020 08:29:55,N,G,07/01/2019 00:00:00,,,,US
1366721,2113842020,2020,211384,06/30/2020 00:00:00,S,A,,N,133149200,,N,623219698,"NEW YORK CITY GAY AND LESBIAN ANTI-VIOLENCE PROJECT, INC.","116 NASSAU STREET, 3RD FLOOR",,NEW YORK,NY,10038,ANDREW SHOFFNER ,INTERIM DIRECTOR OF FINANCE,2127141184,,ASHOFFNER@AVP.ORG,02/15/2021 10:32:32,ANDREW SHOFFNER-INTERIM DIRETOR OF FINANCE,"GRASSI & CO., CPAS, PC","2 WESTCHESTER PARK DRIVE, SUITE 200",,WHITE PLAINS,NY,10604,DEREK FLANAGAN,AUDIT PARTNER ,9148490331,,DFLANAGAN@GRASSICPAS.COM,02/12/2021 14:49:22,,O,,U,N,N,N,N,U,750000,Y,,1094604,,N,N,N,N,N,N,,16,02/15/2021 00:00:00,02/18/2021 01:30:03,,N,908,1,x00,02/15/2021 00:00:00,,N,ANDREW SHOFFNER,INTERIM DIRETOR OF FINANCE,02/15/2021 00:00:00,113266576,N,,N,N,,,,,State,UG,,,,,,07/01/2019 00:00:00,,,,US
1388835,1018212020,2020,101821,12/31/2020 00:00:00,S,A,,N,741678795,,N,,"CHILD CARE COUNCIL OF GREATER HOUSTON, INC.","6220 WESTPARK, SUITE 150",,HOUSTON,TX,77057,FARZANEH SMITH,CFO,7132666045,,FSMITH@CCCGHI.COM,07/28/2021 08:48:31,FARZANEH SMITH-CFO,EARL E ALLEN JR PC,5330 GRIGGS RD SUITE A115,,HOUSTON,TX,77021,EARL E ALLEN JR,AUDITOR,7137215365,,EARLALLENJRPC@GMAIL.COM,07/27/2021 18:55:02,,O,,U,N,N,N,N,U,750000,Y,,2991067,,N,N,N,N,N,N,,14,07/28/2021 00:00:00,07/30/2021 01:30:07,,N,908,1,x00,07/28/2021 00:00:00,,N,FARZANEH SMITH,CFO,07/28/2021 00:00:00,020692321,N,,N,N,,,,,Non-profit,UG,,,,,,01/01/2020 00:00:00,,,,US
1364587,1575932020,2020,157593,06/30/2020 00:00:00,S,A,,N,216000158,,N,,MIDDLE TOWNSHIP BOARD OF EDUCATION,216 S. MAIN ST.,,CAPE MAY COURT HOUSE,NJ,082102273,DIANE FOX,BUSINESS ADMINISTRATOR,6094651800,,FOXD@MIDDLETWP.K12.NJ.US,01/22/2021 11:40:46,DIANE FOX-SCHOOL BUSINESS ADMINISTRATOR,"FORD-SCOTT & ASSOCIATES, LLC",1535 HAVEN AVE,,OCEAN CITY,NJ,082263158,LEON COSTELLO,CPA,6093996333,,LCOSTELLO@FORD-SCOTT.COM,01/21/2021 12:49:47,,O,,U,N,N,N,N,U,750000,Y,,2228318,,N,N,N,N,N,N,,84,01/22/2021 00:00:00,01/26/2021 01:30:04,,N,505,1,x00,01/22/2021 00:00:00,,N,DIANE FOX,SCHOOL BUSINESS ADMINISTRATOR,01/22/2021 00:00:00,222087086,N,,N,N,,,,,Local government,UG,,01/30/2021 11:35:58,02/04/2021 12:38:36,N,G,07/01/2019 00:00:00,,,,US
1381910,1080912020,2020,108091,09/30/2020 00:00:00,S,A,,N,810295613,,N,023480189,"ACTION, INC.",25 WEST SILVER STREET,,BUTTE,MT,59701,DON FOLEY,CFO,4065336855,,DFOLEY@ACTION-INC.ORG,06/14/2021 14:27:46,DON FOLEY-CFO,"ANDERSON ZURMUEHLEN & CO., P.C.","129 W. PARK STREET, STE. 300",,BUTTE,MT,59701,ANNETTE HILL,"CPA, SHAREHOLDER",4067820451,,AHILL@AZWORLD.COM,06/29/2021 13:43:36,,O,,U,N,N,N,N,U,750000,Y,,4070614,,N,N,N,N,N,N,,93,06/29/2021 00:00:00,07/02/2021 01:30:03,,N,909,1,x00,06/29/2021 00:00:00,,N,DON FOLEY,CFO,06/29/2021 00:00:00,810385940,N,,N,N,,,,,Non-profit,UG,,,,,,10/01/2019 00:00:00,,,,US
1369945,329852020,2020,32985,06/30/2020 00:00:00,S,A,,N,237304163,,N,076574375,"SOUTHWEST BOSTON SENIOR SERVICES, INC., D/B/A ETHOS",555 AMORY ST.,,JAMAICA PLAIN,MA,02130,RICHARD KRUZEL,CHIEF FINANCIAL OFFICER,6175726700,,RKRUZEL@ETHOCARE.ORG,02/24/2021 10:44:23,RICHARD KRUZEL-CHIEF FINANCIAL OFFICER,"BRUCE D. NORLING, CPA, P.C.",410 BOSTON PAGE ROAD,,SUDBURY,MA,01776,BRUCE D. NORLING,PRESIDENT,9784439114,,BRUCE@NORLINGCPA.COM,02/24/2021 10:34:56,,O,,U,N,N,N,N,U,750000,Y,,2526576,,N,N,N,N,N,N,,93,02/24/2021 00:00:00,02/26/2021 01:30:04,,N,908,1,x00,02/24/2021 00:00:00,,N,RICHARD KRUZEL,CHIEF FINANCIAL OFFICER,02/24/2021 00:00:00,043147371,N,,N,N,,,,,Non-profit,UG,,,,,,07/01/2019 00:00:00,,,,US
1366361,1819592020,2020,181959,12/31/2020 00:00:00,S,A,,N,311358130,,N,964189211,"UCR OF GOSHEN, INDIANA, INC. D/B/A MAPLE LEAF COMMONS",170 EAST CENTER STREET P.O. BOX 1806,,MARION,OH,43301,JULIE REED,HOUSING ACCOUNTING MANAGER,7403824885,,JREED@UCHINC.ORG,03/29/2021 15:09:04,JULIE REED-HOUSING ACCOUNTING MANAGER,"PLANTE & MORAN, PLLC",250 SOUTH HIGH STREET SUITE 100,,COLUMBUS,OH,43215,JASON REES,PARTNER,6148493000,,PM.SINGLEAUDIT@PLANTEMORAN.COM,03/25/2021 10:21:16,,O,,U,N,N,N,N,U,750000,Y,,2046514,,N,N,N,N,N,N,,14,03/30/2021 00:00:00,04/01/2021 01:30:04,,N,903,1,x00,03/30/2021 00:00:00,,N,JULIE REED,HOUSING ACCOUNTING MANAGER,03/30/2021 00:00:00,381357951,N,,N,N,,,,,Non-profit,UG,,,,,,01/01/2020 00:00:00,,,,US
1383230,2473652020,2020,247365,12/31/2020 00:00:00,S,A,,N,463274093,,N,079273032,WINDING WATERS MEDICAL CLINIC,603 MEDICAL PARKWAY,,ENTERPRISE,OR,97828,LYNN EDISON,CFO,5414264502,,LYNN.EDISON@WINDINGWATERS.ORG,06/04/2021 13:44:53,LYNN EDISON-CFO,EIDE BAILLY LLP,"877 W MAIN STREET, SUITE 800",,BOISE,ID,83702,KRISTIN O'CONNOR,SENIOR MANAGER,2084243501,,KLOCONNOR@EIDEBAILLY.COM,06/04/2021 13:47:52,,O,,U,N,N,N,N,U,750000,N,,1681238,,N,N,N,N,N,N,,93,06/04/2021 00:00:00,06/09/2021 01:30:09,,N,888,1,x00,06/04/2021 00:00:00,,N,LYNN EDISON,CFO,06/04/2021 00:00:00,450250958,N,,N,N,,,,,Non-profit,UG,,,,,,01/01/2020 00:00:00,,,,US
1384216,1945512020,2020,194551,12/31/2020 00:00:00,S,A,,N,216000547,,N,,TOWNSHIP OF EGG HARBOR,3515 BARGAINTOWN ROAD,,EGG HARBOR TOWNSHIP,NJ,08234,JENNIFER MCIVER,CFO,6099264094,,JMCIVER@EHTGOV.ORG,06/30/2021 15:52:42,JENNIFER MCIVER-CHIEF FINANCIAL OFFICER,"FORD, SCOTT & ASSOCIATES, L.L.C.",1535 HAVEN AVENUE,,OCEAN CITY,NJ,08226,"HARVEY C. COCOZZA, JR.",CPA,6093996333,,HCOCOZZA@FORD-SCOTT.COM,06/22/2021 10:02:56,,O,,S,N,N,N,N,U,750000,N,,2544511,,N,N,N,N,N,N,,20,07/01/2021 00:00:00,07/07/2021 01:30:04,,N,300,1,x00,07/01/2021 00:00:00,,N,JENNIFER MCIVER,CHIEF FINANCIAL OFFICER,07/01/2021 00:00:00,222087086,N,,N,N,REGULATORY,Y,U,,Local government,UG,,,,,,01/01/2020 00:00:00,,,,US
1380423,1823362020,2020,182336,06/30/2020 00:00:00,S,A,,N,870498473,,N,,HOUSING AUTHORITY OF SOUTHEASTERN UTAH,321 EAST CENTER STREET,,MOAB,UT,84532,BEN RILEY,EXECUTIVE DIRECTOR,4352594938,,BENRILEY@FRONTIER.COM,05/12/2021 12:24:20,BENJAMIN RILEY-BENJAMIN RILEY,"FJ & ASSOCIATES, PLLC","612 N KAYS DRIVE, SUITE 120",,KAYSVILLE,UT,84037,SCOTT FARNES,PARTNER,8019271337,,SCOTT@CPAONE.NET,05/11/2021 18:20:41,,O,,U,N,N,Y,N,U,750000,Y,,855405,,N,N,N,N,N,N,,10,05/14/2021 00:00:00,05/18/2021 01:30:03,,N,403,1,x00,05/14/2021 00:00:00,,N,BENJAMIN RILEY,BENJAMIN RILEY,05/14/2021 00:00:00,460592475,N,,N,N,,,,,Local government,UG,,,,,,07/01/2019 00:00:00,,,,US
1350606,1417132020,2020,141713,06/30/2020 00:00:00,S,A,,N,376003668,,N,046993903,LINCOLN ELEMENTARY SCHOOL DISTRICT #27,304 EIGHTH STREET,,LINCOLN,IL,62656,KENT FROEBE,SUPERINTENDENT,2177322522,,KFROEBE@LINCOLN27.NET,10/27/2020 11:01:27,KENT FROEBE-SUPERINTENDENT,"J.M. ABBOTT & ASSOCIATES, LTD.",207 S MCLEAN ST.,,LINCOLN,IL,62656,DEBBIE LAST,AUDIT MANAGER,2177351576,,DEBBIE@JMABBOTT.COM,10/26/2020 14:18:02,,O,,AS,N,N,N,N,U,750000,N,,1796048,,N,N,N,N,N,N,,84,10/27/2020 00:00:00,10/29/2020 01:30:06,,N,505,1,x00,10/27/2020 00:00:00,,N,KENT FROEBE,SUPERINTENDENT,10/27/2020 00:00:00,371188139,N,,N,N,CASH,N,U,,Local government,UG,,10/30/2020 12:00:24,11/05/2020 08:21:55,N,G,07/01/2019 00:00:00,,,,US
1393549,1921732020,2020,192173,06/30/2020 00:00:00,S,B,,N,356006839,,N,074323957,LAPORTE COMMUNITY SCHOOL CORPORATION,1000 HARRISON ST.,,LAPORTE,IN,46350,M. GREGORY HUNT,CHIEF FINANCIAL OFFICER,2193627056,,GHUNT@LPCSC.K12.IN.US,01/04/2022 10:40:53,M. GREG HUNT-ASSISTANT SUPERINTENDENT OF BUSINESS & OPERATIONS,INDIANA STATE BOARD OF ACCOUNTS,"302 W. WASHINGTON ST., ROOM E418",,INDIANAPOLIS,IN,462042769,"PAUL D. JOYCE, CPA",STATE EXAMINER,3172322513,,FEDDATA@SBOA.IN.GOV,01/04/2022 09:33:16,,O,,AS,N,Y,Y,N,Q,750000,N,,11316192,,N,Y,N,Y,N,N,,84,01/04/2022 00:00:00,01/08/2022 01:30:06,,N,505,1,x00,01/04/2022 00:00:00,,N,M. GREG HUNT,ASSISTANT SUPERINTENDENT OF BUSINESS & OPERATIONS,01/04/2022 00:00:00,356000158,Y,,N,N,REGULATORY,N,D,,Local government,UG,,01/12/2022 13:52:09,01/13/2022 10:51:06,,N,07/01/2018 00:00:00,,,,US
1342971,2044532020,2020,204453,03/31/2020 00:00:00,S,A,,N,911639742,,N,,AUSTEN MANOR,PO BOX 2253,,SPOKANE,WA,99210,GLORI HOUSTON,"DIRECTOR OF HOUSING, CATHOLIC CHARITIES",5094596181,,GHOUSTON@CCSPOKANE.ORG,08/10/2020 13:29:13,GLORI HOUSTON-HOUSING DIRECTOR,"SCHOEDEL & SCHOEDEL CPAS, PLLC",422 W RIVERSIDE AVE #1420,,SPOKANE,WA,99201,DARCY SKJOTHAUG,CPA,5097472158,,DSKJOTHAUG@SCHOEDEL.COM,07/08/2020 17:47:08,,O,,U,N,N,N,N,U,750000,Y,,1865146,,N,N,N,N,N,N,,14,08/10/2020 00:00:00,08/12/2020 01:30:03,,N,903,1,X,08/10/2020 00:00:00,,N,GLORI HOUSTON,HOUSING DIRECTOR,08/10/2020 00:00:00,910614823,N,,N,N,,,,,Non-profit,UG,,,,,,04/01/2019 00:00:00,,,,US
1372421,1929132020,2020,192913,06/30/2020 00:00:00,S,A,,N,646001101,,N,073543639,MISSISSIPPI DELTA COMMUNITY COLLEGE,P.O. BOX 668,,MOORHEAD,MS,387610668,MARSHA LEE,VICE PRESIDENT FOR BUSINESS SERVICES,6622466314,,MLEE@MSDELTA.EDU,04/21/2021 10:41:27,MARSHA LEE-VICE PRESIDENT OF BUSINESS SERVICES,J. E. VANCE & COMPANY P.A.,P.O. BOX 1280,,TUPELO,MS,388021280,"DANIEL FREY, CPA, CFE",SENIOR AUDITOR,6628422123,,DANIEL_FREY@JEVANCE.COM,04/20/2021 16:01:11,,O,,U,N,N,N,N,U,750000,Y,,12407888,,N,N,N,N,N,N,,84,04/22/2021 00:00:00,04/24/2021 01:30:03,,N,504,1,x00,04/22/2021 00:00:00,,N,MARSHA LEE,VICE PRESIDENT OF BUSINESS SERVICES,04/22/2021 00:00:00,640789840,N,,N,N,,,,,Institution of higher education (IHE),UG,00241600,04/27/2021 12:09:23,04/29/2021 06:47:34,N,B,07/01/2019 00:00:00,,,,US
1407292,2237342020,2020,223734,12/31/2020 00:00:00,S,A,,N,431862498,,N,141817283,FUTURE LEADERS OUTREACH NETWORK,"650 MINNESOTA AVE, SUITE 210",,KANSAS CITY,KS,661012806,DIANA E. CLEMONS,EXECUTIVE DIRECTOR,8169851338,,DCLEMONS@FLON.ORG,12/22/2021 14:46:58,DIANA CLEMMONS-EXECUTIVE DIRECTOR,"MCAULEY & CRANDALL, PA","7200 WEST 132ND STREET, SUITE 160",,OVERLAND PARK,KS,662130000,"REBECCA V. CRANDALL, CPA","CPA, PARTNER",9132399130,,BECKY@MCCPAS.COM,12/22/2021 15:26:52,,O,,U,N,N,N,N,U,750000,N,,1198336,,N,N,N,N,N,N,,93,12/22/2021 00:00:00,12/28/2021 01:30:03,,N,908,1,x00,12/22/2021 00:00:00,,N,DIANA CLEMMONS,EXECUTIVE DIRECTOR,12/22/2021 00:00:00,431910817,N,,N,N,,,,,Non-profit,UG,,,,,,01/01/2020 00:00:00,,,,US
1352940,1822172020,2020,182217,06/30/2020 00:00:00,S,A,,N,480800585,,N,067933390,TOPEKA METROPOLITAN TRANSIT AUTHORITY,201 N. KANSAS AVENUE,,TOPEKA,KS,66603,CHIP FALLDINE,CFO,7852332011,,CFALLDINE@TOPEKAMETRO.ORG,11/11/2020 09:55:39,CHIP FALLDINE-CFO,"BT&CO., P.A.",4301 SW HUNTOON STREET,,TOPEKA,KS,66604,STACEY HAMMOND,DIRECTOR,7852343427,,SHAMMOND@BTANDCOCPA.COM,11/11/2020 09:56:39,,O,,U,N,N,N,N,U,750000,Y,,4708010,,N,N,N,N,N,N,,20,11/11/2020 00:00:00,11/17/2020 01:30:07,,N,406,1,x00,11/11/2020 00:00:00,,N,CHIP FALLDINE,CFO,11/11/2020 00:00:00,481066439,N,,N,N,,,,,Local government,UG,,,,,,07/01/2019 00:00:00,,,,US
1359151,1829842020,2020,182984,06/30/2020 00:00:00,S,A,,N,386027814,,N,060977998,GREAT LAKES COMMISSION,1300 VICTORS WAY,,ANN ARBOR,MI,48108,ERIKA JENSEN,EXECUTIVE DIRECTOR,7349719135,,EJENSEN@GLC.ORG,01/04/2021 08:55:22,ERIKA JENSEN-INTERIM EXECUTIVE DIRECTOR,REHMANN ROBSON,555 BRIARWOOD CIRCLE SUITE 300,,ANN ARBOR,MI,48108,JENNIE LAMBERT,PRINCIPAL,4198658118,,JENNIE.LAMBERT@REHMANN.COM,12/31/2020 09:02:39,,O,,U,N,N,N,N,U,750000,Y,,5168050,,N,N,N,N,Y,N,,11,01/04/2021 00:00:00,01/08/2021 01:30:03,,N,909,1,x11x00,01/04/2021 00:00:00,,N,ERIKA JENSEN,INTERIM EXECUTIVE DIRECTOR,01/04/2021 00:00:00,383635706,N,,N,N,,,,,Local government,UG,,,,,,07/01/2019 00:00:00,,,,US
1365035,1836262020,2020,183626,06/30/2020 00:00:00,S,A,,N,046004304,,N,021718283,"VOLUNTEERS OF AMERICA OF MASSACHUSETTS, INC.",441 CENTRE STREET,,JAMAICA PLAIN,MA,02130,NABIL ABDOU,CHIEF FINANCIAL OFFICER,6175228086,,NABDOU@VOAMASS.ORG,01/20/2021 08:41:27,NABIL ABDOU-CFO,DAVISKELLY LLP,"4238 WASHINGTON ST., STE. 307",,BOSTON,MA,02131,RANDALL S. DAVIS,PARTNER,9787648966,,RDAVIS@RSDCPAS.COM,01/18/2021 17:55:20,,O,,U,N,N,N,N,U,750000,Y,,3041774,,N,N,N,N,N,Y,,64,01/20/2021 00:00:00,01/23/2021 01:30:04,,N,908,1,x00,01/20/2021 00:00:00,,N,NABIL ABDOU,CFO,01/20/2021 00:00:00,463169148,N,,N,N,,,,,Non-profit,UG,,,,,,07/01/2019 00:00:00,,,,US
1366833,1575482020,2020,157548,06/30/2020 00:00:00,S,A,,N,216007489,,N,069045772,NORTHERN BURLINGTON COUNTY REGIONAL SCHOOL DISTRICT,190 MANSFIELD ROAD EAST,,COLUMBUS,NJ,08022,RICHARD KAZ,BUSINESS ADMINISTRATOR,6092983154,,RKAZ@NBURLINGTON.COM,02/05/2021 14:13:21,RICHARD KAZ-SCHOOL BUSINESS ADMINISTRATOR,"HOLT MCNALLY & ASSOCIATES, INC. ",618 STOKES ROAD,,MEDFORD,NJ,08055,DAVID MCNALLY,VICE PRESIDENT / PARTNER,6099530612,,DMCNALLY@HMACPAINC.COM,02/05/2021 14:02:58,,O,,U,N,N,N,N,U,750000,Y,,3383118,,N,N,N,N,N,N,,84,02/05/2021 00:00:00,02/09/2021 01:30:03,,N,505,1,x00,02/05/2021 00:00:00,,N,RICHARD KAZ,SCHOOL BUSINESS ADMINISTRATOR,02/05/2021 00:00:00,843882656,N,,N,N,,,,,Local government,UG,,02/10/2021 15:30:21,02/11/2021 10:35:11,N,G,07/01/2019 00:00:00,,,,US
1393323,1565152020,2020,156515,12/31/2020 00:00:00,S,A,,N,226002430,,N,,BERGEN COUNTY BOARD OF SOCIAL SERVICES,218 ROUTE 17,,NORTH ROCHELLE PARK,NJ,07662,SCOTT MODERY,FISCAL OFFICER,2013684293,,SMODERY@BCBSS.COM,09/29/2021 14:21:00,SCOTT MODERY-FISCAL OFFICER,WIELKOTZ & COMPANY LLC,401 WANAQUE AVENUE,,POMPTON LAKES,NJ,07442,STEVEN WIELKOTZ,MEMBER,9738357900,,SDW@W-CPA.COM,09/29/2021 12:00:13,,O,,S,N,N,N,N,U,750000,Y,,18067877,,N,N,N,N,N,Y,,93,09/29/2021 00:00:00,10/05/2021 01:30:03,,N,109,1,x00,09/29/2021 00:00:00,,N,SCOTT MODERY,FISCAL OFFICER,09/29/2021 00:00:00,842022071,N,,N,N,REGULATORY,Y,U,,Local government,UG,,,,,,01/01/2020 00:00:00,,,,US
1360962,2367942020,2020,236794,06/30/2020 00:00:00,S,A,,N,610654603,,N,108354051,IRVINE MUNICIPAL UTILITIES,238 BROADWAY STREET,,IRVINE,KY,403361164,BILLY WILLIAMS,OPERATIONAL MANAGER,6067232197,,IRVINEWATER@IRVINEONLINE.NET,01/07/2021 14:03:40,BILLY WILLIAMS-OPERATIONAL MANAGER,"BESTEN & DIERUF, PLLC",190 MARKET STREET,,LEXINGTON,KY,40507,ANDREW DIERUF,PARTNER,8592544427,,ADIERUF@BANDDCPA.COM,01/07/2021 13:53:18,,O,,U,N,N,N,N,U,750000,N,,2480701,,N,N,N,N,N,N,,66,01/07/2021 00:00:00,01/12/2021 01:30:07,,N,407,1,x00,01/07/2021 00:00:00,,N,BILLY WILLIAMS,OPERATIONAL MANAGER,01/07/2021 00:00:00,453048812,N,,N,N,,,,,Local government,UG,,,,,,07/01/2019 00:00:00,,,,US
1390729,423552020,2020,42355,06/30/2020 00:00:00,S,A,,N,340714629,,N,,BALDWIN WALLACE UNIVERSITY,275 EASTLAND ROAD,,BEREA,OH,44017,WILLIAM RENIFF,VP FINANCE/ADMINISTRATION,4408268100,,BRENIFF@BW.EDU,09/30/2021 12:48:06,WILLIAM RENIFF-VP FINANCE & ADMINISTRATION,KPMG LLP,"1375 EAST NINTH STREET, SUITE 2600",,CLEVELAND,OH,44114,RONALD MARCIN,PARTNER,2168758057,,RMARCIN@KPMG.COM,09/30/2021 12:39:25,,O,,U,N,N,N,N,U,750000,Y,,40876510,,N,N,N,N,N,N,,84,09/30/2021 00:00:00,10/07/2021 01:30:03,,N,904,1,x00,09/30/2021 00:00:00,,N,WILLIAM RENIFF,VP FINANCE & ADMINISTRATION,09/30/2021 00:00:00,125556520,N,,N,N,,,,,Institution of higher education (IHE),UG,00301400,10/08/2021 11:48:10,10/14/2021 07:29:22,N,B,07/01/2019 00:00:00,,,,US
1359532,2288362020,2020,228836,06/30/2020 00:00:00,S,A,,N,480724326,,N,017492968,EUDORA UNIFIED SCHOOL DISTRICT #491,1310 WINCHESTER RD.,,EUDORA,KS,660250500,JASON OEHLERT,FINANCE DIRECTOR,7855424910,,JASONOEHLERT@EUDORASCHOOLS.ORG,12/14/2020 17:30:35,JASON OEHLERT-FINANCE DIRECTOR,GORDON CPA LLC,2500 W. 31ST ST. STE. G-1B,,LAWRENCE,KS,66047,SEAN GORDON,PRINCIPAL,7853714847,,SGORDON@CPAGORDON.COM,12/14/2020 17:28:35,,O,,S,N,N,N,N,U,750000,N,,1305778,,N,N,N,N,N,N,,84,12/14/2020 00:00:00,12/22/2020 01:30:04,,N,505,1,x00,12/14/2020 00:00:00,,N,JASON OEHLERT,FINANCE DIRECTOR,12/14/2020 00:00:00,842259778,N,,N,N,REGULATORY,N,U,,Local government,UG,,01/02/2021 13:18:58,01/07/2021 11:13:13,,N,07/01/2019 00:00:00,,,,US
1358390,2439362020,2020,243936,06/30/2020 00:00:00,S,A,,N,566001294,,N,781479639,"TOWN OF MOUNT GILEAD, NC",PO BOX 325,,MOUNT GILEAD,NC,27306,AMY ROBERTS,FINANCE OFFICER,9104395111,,AROBERTS@MTGILEADNC.COM,01/11/2021 15:31:00,AMY ROBERTS-TOWN CLERK/FINANCE OFFICER,"J.B. WATSON & CO., PLLC",PO BOX 341,,WADESBORO,NC,28170,DENEAL BENNETT,MEMBER,7046945174,,DBENNETT@JBWANDCO.COM,01/07/2021 10:07:52,,O,,U,N,Y,N,N,U,750000,N,,2513192,,N,N,N,N,N,N,,66,01/12/2021 00:00:00,01/15/2021 01:30:03,,N,888,1,x00,01/12/2021 00:00:00,,N,AMY ROBERTS,TOWN CLERK/FINANCE OFFICER,01/12/2021 00:00:00,562113042,Y,,N,N,,,,,Local government,UG,,,,,,07/01/2019 00:00:00,,,,US
1380793,1923412020,2020,192341,06/30/2020 00:00:00,S,A,,N,946003997,,N,004952453,CITY OF CAMPBELL,70 NORTH FIRST STREET,,CAMPBELL,CA,950081436,NORITE VONG,FINANCE MANAGER,4088662112,,NORITEV@CAMPBELLCA.GOV,05/14/2021 19:17:14,NORITE VONG-FINANCE MANAGER,EIDE BAILLY LLP,"4040 CAMPBELL AVE, STE200",,MENLO PARK,CA,940251053,AHMAD GHARAIBEH,PARTNER,6505223400,,AGHARAIBEH@EIDEBAILLY.COM,05/14/2021 19:38:21,,O,,U,N,N,N,N,U,750000,N,,1246935,,N,N,N,N,N,N,,16,05/14/2021 00:00:00,05/18/2021 01:30:03,,N,200,1,x00,05/14/2021 00:00:00,,N,NORITE VONG,FINANCE MANAGER,05/14/2021 00:00:00,450250958,N,,N,N,,,,,Local government,UG,,,,,,07/01/2019 00:00:00,,,,US
1392243,2239462020,2020,223946,09/30/2020 00:00:00,S,A,,N,586000840,,N,010127611,"HART COUNTY, GEORGIA",800 CHANDLER STREET,,HARTWELL,GA,306431117,TERRELL PARTAIN,COUNTY ADMINISTRATOR,7063762024,,TPARTAIN@HARTCOUNTYGA.GOV,09/03/2021 08:22:43,TERRELL PARTAIN-COUNTY ADMINISTRATOR,"BURCH, CROOMS & COMPANY, LLP",25 CHANDLER CENTER,,HARTWELL,GA,30643,ALESIA B. BURCH,ENGAGEMENT PARTNER,7063763168,,ABURCH@BURCHCROOMS.COM,09/02/2021 18:30:12,,O,,U,N,N,N,N,U,750000,N,,1657274,,N,N,N,N,N,N,,15,09/03/2021 00:00:00,09/08/2021 01:30:05,,N,100,1,x00,09/03/2021 00:00:00,,N,TERRELL PARTAIN,COUNTY ADMINISTRATOR,09/03/2021 00:00:00,261582736,N,,N,N,,,,,Local government,UG,,,,,,10/01/2019 00:00:00,,,,US
1421458,2526692020,2020,252669,12/31/2020 00:00:00,S,A,,N,640655566,,N,,"STEWPOT COMMUNITY SERVICES, INC.",1100 W CAPITOL ST,,JACKSON,MS,39203,JILL BUCKLEY,CHIEF EXECUTIVE OFFICER,6013532759,,JBUCKLEY@STEWPOT.ORG,03/28/2022 12:38:50,JILL BUCKLEY-EXECUTIVE DIRECTOR,GRANTHAMPOOLE PLLC,1062 HIGHLAND COLONY PKWY STE 201,,RIDGELAND,MS,39157,KAREN WAGNER,PARTNER,6014992400,,KKAY@GRANTHAMPOOLE.COM,03/25/2022 12:45:54,,O,,U,N,N,N,N,U,750000,N,,778620,,Y,N,Y,Y,N,N,,14,03/28/2022 00:00:00,04/08/2022 01:30:03,,N,888,1,x00,03/28/2022 00:00:00,,N,JILL BUCKLEY,EXECUTIVE DIRECTOR,03/28/2022 00:00:00,640903390,N,,N,Y,,,,,Non-profit,UG,,,,,,01/01/2020 00:00:00,,,,US
1382012,269652020,2020,26965,12/31/2020 00:00:00,S,A,,N,232142507,,N,847535051,CARLISLE SENIOR HOUSING ASSOCIATES,114 NORTH HANOVER STREET,,CARLISLE,PA,17013,PEBBY S. BOWER,FINANCE DIRECTOR,7172490789,,PBOWER@CCHRA.COM,05/24/2021 09:52:49,PEGGY S. BOWER-FINANCE DIRECTOR,"SMITH ELLIOTT KEARNS & COMPANY, LLC","19 BROOKWOOD AVENUE, SUITE 101",,CARLISLE,PA,17015,GREGORY P. HALL,MEMBER OF THE FIRM,7172499104,,GHALL@SEK.COM,05/24/2021 09:11:12,,O,,U,N,N,N,N,U,750000,N,,881442,,N,N,N,N,N,N,,14,05/24/2021 00:00:00,05/26/2021 01:30:06,,N,903,1,x00,05/24/2021 00:00:00,,N,PEGGY S. BOWER,FINANCE DIRECTOR,05/24/2021 00:00:00,520783935,N,,N,N,,,,,Non-profit,UG,,,,,,01/01/2020 00:00:00,,,,US
1367421,2501292020,2020,250129,06/30/2020 00:00:00,S,A,,N,823036207,,N,,"URBAN ACT ACADEMY, INC.",1250 E. MARKET STREET,,INDIANAPOLIS,IN,46202,NIGENA LIVINGSTON,HEAD OF SCHOOL,3172264214,,NLIVINGSTON@URBANACT.ORG,02/02/2021 14:00:51,NIGENA LIVINGSTON-HEAD OF SCHOOL,DONOVAN P.C.,"9292 N. MERIDIAN ST., SUITE 150",,INDIANAPOLIS,IN,46260,BJ LIPPERT,PARTNER,3178448300,,BLIPPERT@CPADONOVAN.COM,02/04/2021 08:42:14,,O,,U,N,N,N,N,U,750000,N,,1070585,,Y,N,N,Y,N,N,,84,02/04/2021 00:00:00,02/06/2021 01:30:05,,N,888,1,x00,02/04/2021 00:00:00,,N,NIGENA LIVINGSTON,HEAD OF SCHOOL,02/04/2021 00:00:00,351356555,N,,N,Y,,,,,Non-profit,UG,,02/07/2021 13:23:44,02/11/2021 10:35:11,N,G,07/01/2019 00:00:00,,,,US
1438425,1648772020,2020,164877,06/30/2020 00:00:00,S,A,,N,736006384,,N,010309052,LEFLORE COUNTY,100 SOUTH BROADWAY,,POTEAU,OK,74953,KELLI FORD,COUNTY CLERK,9186472527,,CNTYCLERK@GMAIL.COM,07/11/2022 11:28:31,KELLI FORD-COUNTY CLERK,OKLAHOMA STATE AUDITOR & INSPECTOR'S OFFICE,PO BOX 1201,,ADA,OK,74821,MELISSA A LAFFOON,COUNTY AUDIT SUPERVISOR,5803323845,,MLAFFOON@SAI.OK.GOV,07/05/2022 13:09:23,,O,,S,N,Y,N,N,U,750000,N,,883471,,N,Y,N,Y,Y,N,,15,07/11/2022 00:00:00,07/13/2022 01:30:04,,N,100,1,x10x00,07/11/2022 00:00:00,,N,KELLI FORD,COUNTY CLERK,07/11/2022 00:00:00,736017987,Y,,N,N,REGULATORY,N,U,,Local government,UG,,,,,,07/01/2019 00:00:00,,,,US
1381147,2471682020,2020,247168,09/30/2020 00:00:00,S,A,,N,591096726,,N,079738512,NORTH COLLIER FIRE CONTROL AND RESCUE DISTRICT,1885 VETERANS PARK DRIVE,,NAPLES,FL,341090492,BEN VAN KLINGEREN,CHIEF FINANCIAL OFFICER,2395973222,,BVANKLINGEREN@NORTHCOLLIERFIRE.COM,06/24/2021 13:06:44,BEN VAN KLINGEREN-CHIEF FINANCIAL OFFICER,TUSCAN & COMPANY,12621 WORLD PLAZA LANE #55,,FORT MYERS,FL,33907,JEFFREY TUSCAN,PARTNER,2393332090,,JTUSCAN@TUSCANCPA.COM,06/24/2021 13:10:09,,O,,U,N,N,N,N,U,750000,N,,1419464,,N,N,N,N,N,N,,97,06/24/2021 00:00:00,06/27/2021 01:30:03,,N,888,1,x00,06/24/2021 00:00:00,,N,BEN VAN KLINGEREN,CHIEF FINANCIAL OFFICER,06/24/2021 00:00:00,260254161,N,,N,N,,,,,Local government,UG,,,,,,10/01/2019 00:00:00,,,,US
1381732,1583922020,2020,158392,08/31/2020 00:00:00,S,A,,N,076004242,,N,076684059,ORANGE COUNTY COMMUNITY COLLEGE,115 SOUTH STREET,,MIDDLETOWN,NY,109406441,AGNES WAGNER,COMPTROLLER,8453414904,,AGNES.WAGNER@SUNYORANGE.EDU,05/25/2021 10:34:40,AGNES WAGNER-COMPTROLLER,THE BONADIO GROUP,6 WEMBLEY COURT,,ALBANY,NY,12205,JOSEPH HEROUX,PRINCIPAL,5184644080,,JHEROUX@BONADIO.COM,05/25/2021 10:26:07,,O,,U,N,N,N,N,U,750000,Y,,15747075,,N,N,N,N,N,N,,84,05/25/2021 00:00:00,05/27/2021 01:30:04,,N,104,1,x00,05/25/2021 00:00:00,,N,AGNES WAGNER,COMPTROLLER,05/25/2021 00:00:00,161131146,N,,N,N,,,,,Local government,UG,00287600,05/26/2021 13:37:40,05/27/2021 07:14:14,N,B,09/01/2019 00:00:00,,,,US
1391099,1847872020,2020,184787,12/31/2020 00:00:00,S,A,,N,391423051,,N,166747126,MILWAUKEE HELLENIC ELDERLY HOUSING CORPORATION - GREEK ORTHODOX MANOR,9440 W CONGRESS ST,,WAUSATOSA,WI,53225,DAN MCGINLEY,PRESIDENT,4144636944,,JUNELALLISON@AOL.COM,09/27/2021 13:20:28,JUNE LALLISON-MANAGING AGENT,JANKINS JABLONSKI LLC,6220A S 108TH ST,,HALES CORNERS,WI,531302527,JOSEPH J JABLONSKI,MEMBER,4148582282,,LINDA@JJ-CPA.NET,09/30/2021 12:45:18,,O,,U,N,N,N,N,U,750000,Y,,1703175,,N,N,N,N,N,N,,14,09/30/2021 00:00:00,10/07/2021 01:30:03,,N,903,1,x00,09/30/2021 00:00:00,,N,JUNE LALLISON,MANAGING AGENT,09/30/2021 00:00:00,464382120,N,,N,N,,,,,Non-profit,UG,,,,,,01/01/2020 00:00:00,,,,US
1411927,2387972020,2020,238797,12/31/2020 00:00:00,S,A,,N,112442377,,N,,"THE SAFE CENTER LI, INC.",15 GRUMMAN ROAD WEST #1000,,BETHPAGE,NY,11714,VICTOR BELGIORNO,COMPTROLLER,5164654749,,VBELGIORNO@TSCLI.ORG,01/11/2022 13:02:10,VICTOR C. BELGIORNO-COMPTROLLER,NAWROCKI SMITH LLP,"100 MOTOR PARKWAY, SUITE 580",,HAUPPAUGE,NY,11788,CRAIG HAUSER,MANAGER,6317569500,,CHAUSER@NSLLPCPA.COM,01/07/2022 11:23:43,,O,,U,N,N,N,N,U,750000,Y,,2892787,,N,N,N,N,N,Y,,14,01/11/2022 00:00:00,01/15/2022 01:30:03,,N,888,1,x00,01/11/2022 00:00:00,,N,VICTOR C. BELGIORNO,COMPTROLLER,01/11/2022 00:00:00,743216978,N,,N,N,,,,,Non-profit,UG,,,,,,01/01/2020 00:00:00,,,,US
1377516,898192020,2020,89819,09/30/2020 00:00:00,S,A,,N,592113799,,N,046753901,"CENTRAL FLORIDA COMMUNITY ACTION AGENCY, INC.","411 N MAIN STREET, SUITE 210",,GAINESVILLE,FL,32601,KANNIKA TORRES,CFO,3523785892,,KTORRES@CFCAA.ORG,04/12/2021 14:47:46,KANNIKA TORRES-CHIEF FINANCIAL OFFICER,WIPFLI LLP,PO BOX 8700,,MADISON,WI,537088700,"DENES TOBIE, CPA",PARTNER,6082741980,,DTOBIE@WIPFLI.COM,04/13/2021 09:42:49,,O,,U,Y,N,N,N,U,750000,N,,3802845,,N,N,N,N,N,N,,93,04/13/2021 00:00:00,04/16/2021 01:30:04,,N,908,1,x00,04/13/2021 00:00:00,,N,KANNIKA TORRES,CHIEF FINANCIAL OFFICER,04/13/2021 00:00:00,390758449,N,,Y,N,,,,,Non-profit,UG,,,,,,10/01/2019 00:00:00,,,,US
1409333,735372020,2020,73537,12/31/2020 00:00:00,S,A,,N,520897780,,N,,ANACOSTIA ECONOMIC DEVELOPMENT CORPORATION,"1800 MARTIN LUTHER KING, JR. AVE. SE",,WASHINGTON,DC,20020,CRYSTAL JOHNSON,CONTROLLER,2028895100,,CRYSTAL@AEDC.NET,03/31/2022 10:57:31,CRYSTAL JOHNSON-CRYSTAL JOHNSON,F. S. TAYLOR & ASSOCIATES,1420 N STREET NW,,WASHINGTON,DC,20005,RACHEL LOCUS,PARTNER,2028980008,,RACHEL@FSTAYLOR.COM,03/31/2022 10:53:24,,O,,U,N,N,N,N,U,750000,Y,,1274833,,N,N,N,N,N,N,,14,03/31/2022 00:00:00,04/10/2022 01:30:04,,N,909,1,x00,03/31/2022 00:00:00,,N,CRYSTAL JOHNSON,CRYSTAL JOHNSON,03/31/2022 00:00:00,521196225,N,,N,N,,,,,Non-profit,UG,,,,,,01/01/2020 00:00:00,,,,US
1385144,1706852020,2020,170685,09/30/2020 00:00:00,S,A,,N,570478846,,N,402339338,HOUSING AUTHORITY OF MARION,PO BOX 214,,MARION,SC,29571,ANNE BURROUGHS,EXECUTIVE DIRECTOR,8434235242,,ANNEBURR42@AOL.COM,06/23/2021 12:32:37,ANNE BURROUGHS-EXECUTIVE DIRECTOR,PHILLIP C JARRELL LLC,43 N. TALLAHASSEE ST.,,HAZLEHURST,GA,31539,PHILLIP C JARRELL,SOLE MEMBER,9123074555,,PJARRELL@PCJLLC.NET,06/22/2021 15:28:11,,O,,U,N,N,N,N,Q,750000,Y,,1996342,,N,Y,N,Y,N,N,,14,06/23/2021 00:00:00,06/25/2021 01:30:05,,N,403,1,x00x14,06/23/2021 00:00:00,,N,ANNE BURROUGHS,EXECUTIVE DIRECTOR,06/23/2021 00:00:00,272046386,N,,N,N,,,,,Local government,UG,,,,,,10/01/2019 00:00:00,,,,US
1358194,1296432020,2020,129643,09/30/2020 00:00:00,S,A,,N,636000750,,N,003305059,BALDWIN COUNTY BOARD OF EDUCATION,2600-A NORTH HAND AVENUE,,BAY MINETTE,AL,36507,JOHN WILSON,CHIEF SCHOOL FINANCIAL OFFICER,2519370312,,JWILSON@BCBE.ORG,06/24/2021 10:26:12,JOHN WILSON-JOHN WILSON,STATE OF ALABAMA DEPARTMENT OF EXAMINERS OF PUBLIC ACCOUNTS,401 ADAMS AVENUE SUITE 280,,MONTGOMERY ,AL,36104,ASHLI PAGE,ASSISTANT DIVISION DIRECTOR,3342429200,,ASHLI.PAGE@EXAMINERS.ALABAMA.GOV,06/24/2021 10:31:09,,O,,U,N,N,N,N,U,929466,Y,,30982190,,N,N,N,N,N,N,,12,06/24/2021 00:00:00,06/27/2021 01:30:03,,N,505,1,x00,06/24/2021 00:00:00,,N,JOHN WILSON,JOHN WILSON,06/24/2021 00:00:00,636000619,N,,N,N,,,,,Local government,UG,,06/28/2021 10:51:46,07/01/2021 10:07:43,N,G,10/01/2019 00:00:00,,,,US
1372908,2026552020,2020,202655,09/30/2020 00:00:00,S,A,,N,636000897,,N,186414025,GADSDEN CITY BOARD OF EDUCATION,1026 CHESTNUT STREET,,GADSDEN,AL,35902,CORY SKELTON,CHIEF SCHOOL FINANCE OFFICER,2565492905,,CSKELTON@GADSDENCITYSCHOOLS.ORG,03/16/2021 10:31:47,CORY SKELTON-CSFO,"RICHARD, HARRIS, INGRAM AND BOZEMAN, P.C.",7029 HALCYON PARK DRIVE,,MONTGOMERY,AL,36117,SCOTT LEE,SHAREHOLDER,3342778135,,SLEE@RHIBCPA.COM,03/17/2021 07:12:00,,O,,U,Y,N,N,N,U,750000,N,,9553819,,N,N,N,N,N,N,,12,03/17/2021 00:00:00,03/19/2021 01:30:03,,N,505,1,x00,03/17/2021 00:00:00,,N,CORY SKELTON,CSFO,03/17/2021 00:00:00,631019880,N,,Y,N,,,,,Local government,UG,,03/19/2021 13:06:55,03/25/2021 10:58:57,N,G,10/01/2019 00:00:00,,,,US
1347090,1502452020,2020,150245,06/30/2020 00:00:00,S,A,,N,381710621,,N,040585333,JACKSON COUNTY INTERMEDIATE SCHOOL DISTRICT,6700 BROWNS LAKE ROAD,,JACKSON,MI,49201,ROGER AUWERS,FINANCE DIRECTOR,5177685148,,ROGER.AUWERS@JCISD.ORG,11/05/2020 14:07:21,ROGER AUWERS-DIRECTOR OF FINANCE & OPERATIONS,REHMANN ROBSON LLC,675 ROBINSON RD,,JACKSON,MI,49201,"NATHAN C. BALDERMANN, CPA, CGFM",PRINCIPAL,5177876503,,NATHAN.BALDERMANN@REHMANN.COM,11/05/2020 12:17:52,,O,,U,N,N,N,N,U,750000,Y,,7507511,,N,N,N,N,N,N,,84,11/05/2020 00:00:00,11/17/2020 01:30:07,,N,505,1,x00,11/05/2020 00:00:00,,N,ROGER AUWERS,DIRECTOR OF FINANCE & OPERATIONS,11/05/2020 00:00:00,383635706,N,,N,N,,,,,Local government,UG,,11/17/2020 09:12:23,11/19/2020 08:29:55,N,G,07/01/2019 00:00:00,,,,US
1386755,1532062020,2020,153206,12/31/2020 00:00:00,S,A,,N,436016041,,N,049594328,"CITY OF BRIDGETON, MISSOURI",12355 NATURAL BRIDGE ROAD,,BRIDGETON,MO,630442040,CHRISTINE BODUS,FINANCE OFFICER,3147397500,,CBODUS@BRIDGETONMO.COM,07/02/2021 16:00:40,CHRISTINE BODUS-FINANCE OFFICER,SIKICH LLP,"15450 SOUTH OUTER FORTY ROAD, SUITE 135",,CHESTERFIELD,MO,630172066,"MICHAEL D. WILLIAMS, CPA",PARTNER,6365329525,,MIKE.WILLIAMS@SIKICH.COM,07/02/2021 15:32:35,,O,,U,N,N,N,N,U,750000,N,,939984,,N,N,N,N,N,N,,16,07/02/2021 00:00:00,07/07/2021 01:30:04,,N,200,1,x00,07/02/2021 00:00:00,,N,CHRISTINE BODUS,FINANCE OFFICER,07/02/2021 00:00:00,363168081,N,,N,N,,,,,Local government,UG,,,,,,01/01/2020 00:00:00,,,,US
1432140,1700432020,2020,170043,06/30/2020 00:00:00,S,A,,N,246002230,,N,075988097,DANVILLE AREA SCHOOL DISTRICT,600 WALNUT STREET,,DANVILLE,PA,17821,BOBBI ELY,BUSINESS MANAGER,5702713268,,BELY@DANVILLESD.ORG,05/23/2022 10:41:13,BOBBI ELY-BUSINESS MANAGER,"WAGNER, DREESE, ELSASSER & ASSOCIATES, P.C.","1372 NORTH SUSQUEHANNA TRAIL, SUITE 210",,SELINSGROVE,PA,17870,"KENNETH L. WAGNER, JR., CPA",CPA/PARTNER,5707432030,,KWAGNER@WDEAPC.COM,05/24/2022 09:01:15,,O,,U,N,N,N,N,U,750000,Y,,2414252,,N,N,N,N,N,N,,93,05/24/2022 00:00:00,05/26/2022 01:30:04,,N,505,1,x00,03/08/2021 00:00:00,,N,BOBBI ELY,BUSINESS MANAGER,03/08/2021 00:00:00,455012510,N,,N,N,,,,,Local government,UG,,03/09/2021 14:06:00,03/11/2021 10:15:21,,N,07/01/2019 00:00:00,,,,
1431583,1827652020,2020,182765,10/31/2020 00:00:00,S,A,,N,810307232,,N,055923866,BUTTE LOCAL DEVELOPMENT CORPORATION,65 E. BROADWAY,,BUTTE,MT,59701,JOSEPH WILLAUER,EXECUTIVE DIRECTOR,4067234349,,JWILLAUER@BLDC.NET,06/15/2022 13:34:00,JOSEPH WILLAUER-EXECUTIVE DIRECTOR,NEWLAND AND COMPANY PC,PO BOX 3006,,BUTTE,MT,59701,PATRICK J. BURT,CPA,4064944754,,PBURT@NEWLANDPC.COM,06/20/2022 15:51:21,,O,,U,N,N,N,N,U,750000,Y,,5289300,,N,N,N,N,N,N,,11,06/20/2022 00:00:00,06/24/2022 01:30:11,,N,909,1,x00,06/20/2022 00:00:00,,N,JOSEPH WILLAUER,EXECUTIVE DIRECTOR,06/20/2022 00:00:00,810333198,N,,N,N,,,,,Non-profit,UG,,,,,,11/01/2019 00:00:00,,,,US
1369433,2289032020,2020,228903,06/30/2020 00:00:00,S,A,,N,330971162,,N,031628279,CITY OF ALISO VIEJO,"12 JOURNEY, SUITE 100",,ALISO VIEJO,CA,926565335,GINA THARANI,DIRECTOR OF FINANCIAL SERVICES,9494252500,,GTHARANI@AVCITY.ORG,02/18/2021 13:12:25,GINA THARANI-DIRECTOR OF FINANCIAL SERVICES/CITY TREASURER,"ROGERS, ANDERSON, MALODY, & SCOTT, LLP","735 E. CARNEGIE DR.,SUITE 100",,SAN BERNARDINO,CA,92408,TERRY SHEA,PARTNER,9098890871,,TERRY@RAMSCPA.NET,02/18/2021 13:37:35,,O,,U,N,N,N,N,U,750000,N,,787838,,N,N,N,N,N,N,,14,02/18/2021 00:00:00,02/20/2021 01:30:03,,N,200,1,x00,02/18/2021 00:00:00,,N,GINA THARANI,DIRECTOR OF FINANCIAL SERVICES/CITY TREASURER,02/18/2021 00:00:00,952662063,N,,N,N,,,,,Local government,UG,,,,,,07/01/2019 00:00:00,,,,US
1367181,2256012020,2020,225601,08/31/2020 00:00:00,S,A,,N,222926788,,N,797480536,"DELTA DEVELOPMENT OF WESTERN NEW YORK, INC. AND SUBSIDIARIES",525 WASHINGTON STREET,,BUFFALO,NY,14203,JAMES LONERGAN,INTERIM EXECUTIVE DIRECTOR,7168471635,,J.LONERGAN@CCWNY.ORG,02/03/2021 15:13:02,JAMES LONERGAN-INTERIM EXECUTIVE DIRECTOR,"EFPR GROUP CPA'S, PLLC","6390 MAIN STREET, SUITE 200",,WILLIAMSVILLE,NY,14221,"DOUGLAS E. ZIMMERMAN, CPA",PARTNER,7166340700,,SFSAC@EFPRGROUP.COM,02/08/2021 10:30:37,,O,,U,N,N,N,N,U,750000,N,,1045199,,N,N,N,N,N,N,,14,02/08/2021 00:00:00,02/10/2021 01:30:03,,N,909,1,x00,02/08/2021 00:00:00,,N,JAMES LONERGAN,INTERIM EXECUTIVE DIRECTOR,02/08/2021 00:00:00,474526160,N,,N,N,,,,,Non-profit,UG,,,,,,09/01/2019 00:00:00,,,,US
1347956,2477072020,2020,247707,06/30/2020 00:00:00,S,A,,N,455106534,,N,080088742,"MIDDLETOWN HOMES, INC.",1262 WHITEHORSE HAMILTON SQUARE ROAD,,HAMILTON,NJ,08690,RICHARD MANALL,CHIEF FINANCIAL OFFICER,6096890136,,RMANALL@ALLIESNJ.ORG,10/12/2020 14:47:52,RICHARD MANALL-CFO,MERCADIEN P.C. CERTIFIED PUBLIC ACCOUNTANTS,3625 QUAKERBRIDGE ROAD,,HAMILTON,NJ,08619,LOVEPREET BUTTAR,PRINCIPAL,6096899700,,LBUTTAR@MERCADIEN.COM,10/12/2020 12:11:53,,O,,U,N,N,N,N,U,750000,Y,,1006832,,N,N,N,N,N,N,,14,10/12/2020 00:00:00,10/16/2020 01:30:05,,N,888,1,x00,10/12/2020 00:00:00,,N,RICHARD MANALL,CFO,10/12/2020 00:00:00,223271712,N,,N,N,,,,,Non-profit,UG,,,,,,07/01/2019 00:00:00,,,,US
1367360,2501152020,2020,250115,06/30/2020 00:00:00,S,A,,N,726001259,,N,179383737,ST. LANDRY PARISH SHERIFF,1592 E. PRUDHOMME ST,,OPELOUSAS,LA,70570,LISA CORMIER,CHIEF FINANCE OFFICER,3379486516,,LCORMIER@SLPSHERIFF.COM,02/02/2021 10:49:56,LISA CORMIER-CHIEF FINANCIAL OFFICER,KOLDER SLAVEN & COMPANY,183 S BEADLE ROAD,,LAFAYETTE,LA,70508,BRAD KOLDER,PARTNER,3372324141,,BRADK@KCSRCPAS.COM,02/02/2021 11:02:33,,O,,Q,N,Y,Y,N,Q,750000,N,,2398320,,N,Y,Y,Y,N,N,,16,02/02/2021 00:00:00,02/06/2021 01:30:05,,N,888,1,x00,02/02/2021 00:00:00,,N,LISA CORMIER,CHIEF FINANCIAL OFFICER,02/02/2021 00:00:00,721369868,Y,,N,N,,,,,Local government,UG,,,,,,07/01/2019 00:00:00,,,,US
1345287,1996172020,2020,199617,06/30/2020 00:00:00,S,A,,N,436015069,,N,159255223,PUXICO R-VIII SCHOOL DISTRICT,481 N BEDFORD ST,,PUXICO,MO,63960,CINDY CRABB,SUPERINTENDENT,5732223762,,CCRABB@PUXICO.K12.MO.US,10/22/2020 16:40:07,CINDY CRABB-SUPERINTENDENT,"KRAFT, MILES & TATUM, LLC",1650 W HARPER ST,,POPLAR BLUFF,MO,63901,STEVEN AUSTIN,PARTNER,5737856438,,SAUSTIN@KMTCPAS.COM,10/20/2020 13:59:25,,O,,S,N,N,N,N,U,750000,N,,1063174,,N,N,N,N,N,N,,84,10/22/2020 00:00:00,10/25/2020 01:30:04,,N,505,1,x00,10/22/2020 00:00:00,,N,CINDY CRABB,SUPERINTENDENT,10/22/2020 00:00:00,430661705,N,,N,N,CASH,N,U,,Local government,UG,,10/23/2020 13:03:59,10/29/2020 15:28:20,N,G,07/01/2019 00:00:00,,,,US
1379968,2097322020,2020,209732,03/31/2020 00:00:00,S,A,,N,616017021,,N,136954893,HOUSIN AUTHORITY OF PAINTSVILLE,700 SIXTH ST,,PAINTSVILLE,KY,41240,MIKE SPRADLIN,EXECUTIVE DIRECTOR,6067891782,,PAINTSVILLE_PHA@BELLSOUTH.NET,04/30/2021 15:08:36,MIKE SPRADLIN-EXECUTIVE DIRECTOR,JOHN T LANE & ASSOCIATES LLC,PO BOX 449,,MT STERLING ,KY,40353,JOHN T LANE,CPA,8594989915,,JR@THELANECPA.COM,04/30/2021 14:59:53,,O,,U,N,N,N,N,U,750000,Y,,1780312,,N,N,N,N,N,N,,14,04/30/2021 00:00:00,05/03/2021 01:30:03,,N,403,1,x00,04/30/2021 00:00:00,,N,MIKE SPRADLIN,EXECUTIVE DIRECTOR,04/30/2021 00:00:00,320165587,N,,N,N,,,,,Local government,UG,,,,,,04/01/2019 00:00:00,,,,US
1391276,2509752020,2020,250975,12/31/2020 00:00:00,S,A,,N,926002175,,N,082500885,"BLOOD BANK OF ALASKA, INC.",1215 AIRPORT HEIGHTS DR.,,ANCHORAGE,AK,99508,ROBERT SCANLON,CHIEF EXECUTIVE OFFICER,9072225602,,RSCANLON@BBAK.ORG,08/25/2021 17:23:51,ROBERT SCANLON-CEO,"BDO USA, LLP","3601 C STREET, SUITE 600",,ANCHORAGE,AK,99503,JAMES DOUGHTY,PARTNER,9072788878,,JDOUGHTY@BDO.COM,08/25/2021 17:25:46,,O,,U,N,N,N,N,U,750000,N,,1394573,,N,N,N,N,N,N,,21,08/25/2021 00:00:00,08/27/2021 01:30:05,,N,888,1,x00,08/25/2021 00:00:00,,N,ROBERT SCANLON,CEO,08/25/2021 00:00:00,135381590,N,,N,N,,,,,Non-profit,UG,,,,,,01/01/2020 00:00:00,,,,US
1412447,1069202020,2020,106920,12/31/2020 00:00:00,S,A,,N,760226835,,N,609896378,"TRIANGLE AREA NETWORK, INC.",1495 N 7TH STREET,,BEAUMONT,TX,77702,DENA HUGHES,CHIEF EXECUTIVE DIRECTOR,4098328338,,DHUGHES@TANHEALTHCARE.ORG,01/06/2022 17:04:09,DENA HUGHES-CHIEF EXECUTIVE OFFICER,"CHARLES E. REED & ASSOCIATES, P.C.",3636 PROFESSIONAL DRIVE,,PORT ARTHUR,TX,77642,CHARLES G. REED,PRINCIPAL,4099833277,,REEDCPAS@GTBIZCLASS.COM,01/06/2022 12:50:04,,O,,U,N,N,N,N,U,750000,N,,1644881,,N,N,N,N,Y,N,,93,01/06/2022 00:00:00,01/08/2022 01:30:06,,N,908,1,x93x00,01/06/2022 00:00:00,,N,DENA HUGHES,CHIEF EXECUTIVE OFFICER,01/06/2022 00:00:00,742061519,N,,N,N,,,,,Non-profit,UG,,,,,,01/01/2020 00:00:00,,,,US
1388368,1583892020,2020,158389,12/31/2020 00:00:00,S,A,,N,166002565,,N,,"COUNTY OF ONTARIO, NEW YORK",3019 COUNTY COMPLEX DRIVE,,CANANDAIGUA,NY,14424,MARY GATES,DIRECTOR OF FINANCE,5853964428,,MARY.GATES@CO.ONTARIO.NY.US,09/20/2021 15:50:18,MARY GATES-DIRECTOR OF FINANCE,"MENGEL METZGER BARR & CO., LLP","100 CHESTNUT STREET, SUITE 1200",,ROCHESTER,NY,14604,THOMAS ZUBER,PARTNER,5854231860,,JNOBLES@MMB-CO.COM,09/21/2021 07:31:02,,O,,U,N,N,N,N,U,750000,Y,,23244650,,N,N,N,N,N,N,,21,09/21/2021 00:00:00,09/24/2021 01:30:03,,N,100,1,x00,09/21/2021 00:00:00,,N,MARY GATES,DIRECTOR OF FINANCE,09/21/2021 00:00:00,161092347,N,,N,N,,,,,State,UG,,09/26/2021 11:44:03,09/30/2021 09:17:26,,N,01/01/2020 00:00:00,,,,US
1359718,1073172020,2020,107317,06/30/2020 00:00:00,S,A,,N,770003788,,N,,DEAF AND HARD OF HEARING SERVICE CENTER INC,5430 N FRESNO STREET,,FRESNO,CA,93710,"JARIBU NELSON, CPA",CPA,5592253323,,JARIBUCPA@GMAIL.COM,12/28/2020 16:49:23,"JARIBU NELSON, CPA-ACCOUNTANT","BRYANT L. JOLLEY, CPA","901 ""N"" ST STE 104",,FIREBAUGH,CA,93622,"BRYANT L. JOLLEY, CPA",PARTNER,5596593045,,JOLLMANN@SBCGLOBAL.NET,12/28/2020 16:38:31,,O,,U,N,N,N,N,U,750000,Y,,1187017,,N,N,N,N,N,N,,93,12/28/2020 00:00:00,12/30/2020 01:30:04,,N,908,1,x00,12/28/2020 00:00:00,,N,"JARIBU NELSON, CPA",ACCOUNTANT,12/28/2020 00:00:00,942706107,N,,N,N,,,,,Local government,UG,,,,,,07/01/2019 00:00:00,,,,US
1374473,1918622020,2020,191862,06/30/2020 00:00:00,S,A,,N,430836672,,N,,DALLAS COUNTY PUBLIC HOUSING AGENCY,215 S. BARNES,,SPRINGFIELD,MO,65802,KEN WAUGH,FISCAL OFFICER,4178624314,,KWAUGH@OAC.AC,03/24/2021 11:21:36,KENNETH WAUGH-FISCAL OFFICER,"ROBERTS, MCKENZIE, MANGAN & CUMMINGS",4035 S. FREMONT,,SPRINGFIELD,MO,65804,ROBERT REBMANN,PARTNER,4178835348,,RWR@RMMC-CPA.COM,03/24/2021 17:12:59,,O,,U,Y,N,N,N,U,750000,N,,2642107,,Y,N,N,Y,N,Y,,14,03/24/2021 00:00:00,03/30/2021 01:30:03,,N,103,1,x00x14,03/24/2021 00:00:00,,N,KENNETH WAUGH,FISCAL OFFICER,03/24/2021 00:00:00,431244312,N,,Y,Y,,,,,Non-profit,UG,,,,,,07/01/2019 00:00:00,,,,US
1417529,1768762020,2020,176876,12/31/2020 00:00:00,S,A,,N,910829400,,N,,HOUSING AUTHORITY OF KITTITAS COUNTY,107 W 11TH AVENUE,,ELLENSBURG,WA,98926,JENNIFER ELLIS,EXECUTIVE DIRECTOR,5099629006,,JENNIFERE@HAKITTITAS.ORG,02/07/2022 17:48:42,JENNIFER ELLIS-AUDITEE CERTIFIER,NOVOGRADAC & COMPANY LLP,"1433 HOOPER AVENUE, SUITE 329",,TOMS RIVER,NJ,08753,RICH LARSEN,PARTNER,7326237003,,RICH.LARSEN@NOVOCO.COM,02/28/2022 11:18:36,,O,,U,N,N,N,N,U,750000,N,,1150021,,Y,N,Y,Y,N,N,,10,02/28/2022 00:00:00,03/02/2022 01:30:04,,N,403,1,x00x10,02/28/2022 00:00:00,,N,JENNIFER ELLIS,AUDITEE CERTIFIER,02/28/2022 00:00:00,943108253,N,,N,Y,,,,,Local government,UG,,,,,,01/01/2020 00:00:00,,,,US
1391259,1703362020,2020,170336,12/31/2020 00:00:00,S,A,,N,050309474,,N,042338298,TOWN OF JOHNSTON HOUSING AUTHORITY,8 FORAND CIRCLE,,JOHNSTON,RI,02919,DAVID ARUSSO,EXECUTIVE DIRECTOR,4012312007,,JOHNSTONHOUSING@YAHOO.COM,08/25/2021 11:01:26,DAVID M. ARUSSO-EXECUTIVE DIRECTOR,MARCUM LLP,53 STATE STREET 17TH FLOOR,,BOSTON,MA,02109,MICHAEL GUYDER,PARTNER,6178075350,,MICHAEL.GUYDER@MARCUMLLP.COM,08/25/2021 10:56:43,,O,,Q,N,N,N,N,U,750000,N,,2642001,,N,N,N,N,N,N,,14,08/25/2021 00:00:00,08/27/2021 01:30:05,,N,403,1,x00,08/25/2021 00:00:00,,N,DAVID M. ARUSSO,EXECUTIVE DIRECTOR,08/25/2021 00:00:00,111986323,N,,N,N,,,,,Local government,UG,,,,,,01/01/2020 00:00:00,,,,US
1393586,1522942020,2020,152294,09/30/2020 00:00:00,S,A,,N,646000139,,N,617361613,"CITY OF BAY ST. LOUIS, MISSISSIPPI",P.O. BOX 2550,,BAY ST. LOUIS,MS,395212550,SISSY GONZALES,CITY CLERK,2284665450,,SGONZALES@BAYSTLOUIS-MS.GOV,09/16/2021 14:19:57,SISSY GONZALES-CITY CLERK/COMPTROLLER,WRIGHT WARD HATTEN & GUEL,P.O. BOX 129,,GULFPORT,MS,39502,SANDE HENTGES,CPA,2288636501,,SANDE@WWHGCPA.COM,09/16/2021 12:33:05,,O,,U,Y,N,N,N,U,750000,N,,1233533,,N,N,N,N,N,N,,95,09/16/2021 00:00:00,09/18/2021 01:30:03,,N,200,1,x00,09/16/2021 00:00:00,,N,SISSY GONZALES,CITY CLERK/COMPTROLLER,09/16/2021 00:00:00,770619263,N,,Y,N,,,,,Local government,UG,,,,,,10/01/2019 00:00:00,,,,US
1357333,1975152020,2020,197515,06/30/2020 00:00:00,S,A,,N,383423648,,N,876992343,VOYAGEUR ACADEMY,4321 MILITARY STREET,,DETROIT,MI,48210,JOHN WEIER,CHIEF FINANCIAL OFFICER,5867315300,,JOHNW@TRGSCHOOLS.COM,12/02/2020 11:26:16,JOHN WEIER-CFO,"CROSKEY LANNI, P.C.","345 DIVERSION ST, STE 400",,ROCHESTER,MI,48307,PATRICK M. SWEENEY,CPA,2486595300,,PSWEENEY@CROSKEYLANNI.COM,12/11/2020 09:54:10,,O,,U,N,N,N,N,U,750000,N,,1447306,,N,N,N,N,N,N,,84,12/11/2020 00:00:00,12/19/2020 01:30:04,,N,005,1,x00,12/11/2020 00:00:00,,N,JOHN WEIER,CFO,12/11/2020 00:00:00,382777985,N,,N,N,,,,,Local government,UG,,01/01/2021 15:50:16,01/07/2021 11:13:13,,N,07/01/2019 00:00:00,,,,US
1379607,1831732020,2020,183173,06/30/2020 00:00:00,S,A,,N,237011243,,N,074819046,PRINCE GEORGE'S COMMUNITY COLLEGE,301 LARGO ROAD,,LARGO,MD,20774,DWIGHT WASHINGTON,CONTROLLER,3015460019,,WASHINDX@PGCC.EDU,04/28/2021 16:05:56,DWIGHT WASHINGTON-CONTROLLER,CLIFTONLARSONALLEN,"1966 GREENSPRING DRIVE, SUITE 300",,TIMONIUM,MD,21093,CHRISTINA BOWMAN,PRINCIPAL,4103088064,,CHRISTINA.BOWMAN@CLACONNECT.COM,04/28/2021 14:56:27,,O,,U,Y,N,N,N,U,1134672,N,,37822403,,Y,N,N,Y,Y,N,,84,04/28/2021 00:00:00,04/30/2021 01:30:03,,N,104,1,x84,04/19/2021 00:00:00,,N,DWIGHT WASHINGTON,CONTROLLER,04/28/2021 00:00:00,410746749,N,,Y,Y,,,,,Institution of higher education (IHE),UG,00208900,04/30/2021 10:36:24,05/06/2021 06:44:25,S,B,07/01/2019 00:00:00,,,,
1364639,1886322020,2020,188632,06/30/2020 00:00:00,S,A,,N,566001290,,N,030504328,"TOWN OF MOORESVILLE, NORTH CAROLINA",413 MAIN STREET,,MOORESVILLE,NC,28115,DEBORAH HOCKETT,FINANCE DIRECTOR,7046638278,,DHOCKETT@MOORESVILLENC.GOV,01/29/2021 15:51:50,DEBORAH HOCKETT-CHIEF FINANCIAL OFFICER,"POTTER & COMPANY, PA",106 WELTON WAY,,MOORESVILLE,NC,28117,ROBERT TAYLOR,PARTNER,7046623146,,BTAYLOR@GOTOPOTTER.COM,01/20/2021 16:25:47,,O,,U,N,N,N,N,U,750000,Y,,2593686,,N,N,N,N,N,N,,20,01/29/2021 00:00:00,02/04/2021 01:30:04,,N,200,1,x00,01/29/2021 00:00:00,,N,DEBORAH HOCKETT,CHIEF FINANCIAL OFFICER,01/29/2021 00:00:00,561220683,N,,N,N,,,,,Local government,UG,,,,,,07/01/2019 00:00:00,,,,US
1376098,2117812020,2020,211781,06/30/2020 00:00:00,S,A,,N,570967350,,N,111310249,SOUTH CAROLINA RESEARCH FOUNDATION,"901 SUMTER STREET, SUITE 208",,COLUMBIA,SC,29208,KELLY EPTING,CFO,8037778411,,EPTINGK@MAILBOX.SC.EDU,04/01/2021 08:52:31,KELLY EPTING-CFO,"BDO USA, LLP","421 FAYETTEVILLE STREET, SUITE 300",,RALEIGH,NC,27601,LASHAUN KING,ASSURANCE DIRECTOR,9192781952,,LKING@BDO.COM,03/31/2021 17:51:38,,O,,U,N,N,N,N,U,750000,N,,1086803,,Y,N,N,Y,Y,N,,93,04/01/2021 00:00:00,04/08/2021 01:30:05,,N,909,1,x99x93x84x81x43x12x10x47,04/01/2021 00:00:00,,N,KELLY EPTING,CFO,04/01/2021 00:00:00,155381590,N,,N,Y,,,,,Non-profit,UG,,04/09/2021 13:51:53,04/15/2021 07:25:14,G,G,07/01/2019 00:00:00,,,,US
1376299,1899282020,2020,189928,06/30/2020 00:00:00,S,A,,N,953389063,,N,120959952,"CITY OF ATASCADERO, CALIFORNIA",6500 PALMA AVENUE,,ATASCADERO,CA,93422,JERI RANGEL,DIRECTOR OF ADMINISTRATIVE SERVICES,8054703428,,JRANGEL@ATASCADERO.ORG,05/20/2021 21:29:21,JERI RANGEL-DIRECTOR OF ADMINISTRATIVE SERVICES,"MOSS, LEVY & HARTZHEIM LLP","2400 PROFESSIONAL PARKWAY, STE 205",,SANTA MARIA,CA,93455,ADAM GUISE,"PARTNER, CPA",8059252579,,AGUISE@MLHCPAS.COM,04/27/2021 18:45:27,,O,,U,N,N,N,N,U,750000,N,,983604,,N,N,N,N,N,N,,21,05/20/2021 00:00:00,05/22/2021 01:30:03,,N,200,1,x00,05/20/2021 00:00:00,,N,JERI RANGEL,DIRECTOR OF ADMINISTRATIVE SERVICES,05/20/2021 00:00:00,753194011,N,,N,N,,,,,Local government,UG,,,,,,07/01/2019 00:00:00,,,,US
1370942,463122020,2020,46312,06/30/2020 00:00:00,S,A,,N,351362298,,N,078901576,FOUR COUNTY -FOUR COUNTY COUSELING CTR.,1015 MICHIGAN AVENUE,,LOGANSPORT,IN,46947,JASON CADWELL,CHIEF FINANCIAL OFFICER,5747225151,,JCADWELL@FOURCOUNTY.ORG,03/09/2021 12:02:21,JASON CADWELL-CFO/CAO,"BLUE & CO., LLC","500 N. MERIDIAN STREET, SUITE 200",,INDIANAPOLIS,IN,46204,SCOTT PRENTICE,DIRECTOR,3172757406,,SPRENTICE@BLUEANDCO.COM,03/03/2021 13:27:06,,O,,U,N,N,N,N,U,750000,Y,,1229731,,N,N,N,N,N,Y,,93,03/09/2021 00:00:00,03/12/2021 01:30:04,,N,908,1,x00,03/09/2021 00:00:00,,N,JASON CADWELL,CFO/CAO,03/09/2021 00:00:00,351178661,N,,N,N,,,,,Non-profit,UG,,,,,,07/01/2019 00:00:00,,,,US
1385022,2507152020,2020,250715,12/31/2020 00:00:00,S,A,,N,430652622,,N,093000933,CHILDREN'S HOME SOCIETY OF MISSOURI,3309 S KINGSHIGHWAY BLVD,,SAINT LOUIS,MO,63139,ROBERT AHRENS,CFO,3145349350,,ROBERT.AHRENS@FAMILYFORWARDMO.ORG,06/24/2021 14:57:09,ROBERT AHRENS-CHIEF FINANCIAL OFFICER,UHY LLP,15 SUNNEN DRIVE - SUITE 108,,SAINT LOUIS,MO,63143,PATRICK ROHRKASTE,PARTNER,3146151301,,PROHRKASTE@UHY-US.COM,06/25/2021 15:13:49,,O,,U,N,N,N,N,U,750000,N,,912432,,N,N,N,N,N,N,,16,06/25/2021 00:00:00,06/27/2021 01:30:03,,N,888,1,x00,06/25/2021 00:00:00,,N,ROBERT AHRENS,CHIEF FINANCIAL OFFICER,06/25/2021 00:00:00,200694403,N,,N,N,,,,,Non-profit,UG,,,,,,01/01/2020 00:00:00,,,,US
1353439,2421122020,2020,242112,06/30/2020 00:00:00,S,A,,N,300717988,,N,,KIPP NYC PUBLIC CHARTER SCHOOLS,"1501 BROADWAY, 10TH FLOOR, SUITE 1000",,NEW YORK,NY,10036,BRIAN ZIED,CHIEF FINANCIAL OFFICER,2129912610,,BZIED@KIPPNYC.ORG,11/24/2020 13:19:03,BRIAN ZIED-CHIEF FINANCIAL OFFICER,"CLIFTONLARSONALLEN, LLP","610 W. GERMANTOWN PIKE, SUITE 400",,PLYMOUTH MEETING,PA,19462,DAVID SEKERAK,DIRECTOR,2156433900,,DAVID.SEKERAK@CLACONNECT.COM,11/24/2020 13:14:44,,O,,U,N,N,N,N,U,750000,Y,,3018365,,N,N,N,N,N,N,,84,11/24/2020 00:00:00,12/01/2020 01:30:04,,N,888,1,x00,11/24/2020 00:00:00,,N,BRIAN ZIED,CHIEF FINANCIAL OFFICER,11/24/2020 00:00:00,410746749,N,,N,N,,,,,Non-profit,UG,,12/02/2020 13:31:43,12/03/2020 08:54:33,,N,07/01/2019 00:00:00,,,,US
1366555,1611412020,2020,161141,06/30/2020 00:00:00,S,A,,N,566001097,,N,100664580,PITT COUNTY BOARD OF EDUCATION,1717 WEST FIFTH STREET,,GREENVILLE,NC,27834,DEBRA BAGGETT,CHIEF FINANCE OFFICER,2528304276,,DBAGGETT@PITT.K12.NC.US,02/02/2021 09:31:45,DEBRA BAGGETT-CHIEF FINANCIAL OFFICER,"CARR, RIGGS & INGRAM, LLC",PO BOX 10588,,GOLDSBORO,NC,275320588,MICHAEL JORDAN,PARTNER,9197518297,,MJORDAN@CRICPA.COM,02/02/2021 09:50:07,,O,,U,N,N,N,N,U,1027670,Y,,34255653,,N,N,N,N,N,N,,84,02/02/2021 00:00:00,02/04/2021 01:30:04,,N,105,1,x00,02/02/2021 00:00:00,,N,DEBRA BAGGETT,CHIEF FINANCIAL OFFICER,02/02/2021 00:00:00,721396621,N,,N,N,,,,,Local Government,UG,,02/07/2021 11:55:40,02/11/2021 10:35:11,N,G,07/01/2019 00:00:00,,,,US
1384481,2411532020,2020,241153,09/30/2020 00:00:00,S,A,,N,112622003,,N,614925527,"THE COMMITTEE FOR HISPANIC CHILDREN AND FAMILIES, INC.","75 BROAD STREET, RM 620",,NEW YORK,NY,10004,RAMON PEGUERO,PRESIDENT & CHIEF EXECUTIVE OFFICER,2122061090,,RPEGUERO@CHCFINC.ORG,06/18/2021 14:44:01,RAMON PEGUERO-PRESIDENT & CEO,MARKS PANETH LLP,685 THIRD AVENUE,,NEW YORK,NY,10017,JOSEPH KANJAMALA,PARTNER,2125038952,,JKANJAMALA@MARKSPANETH.COM,06/18/2021 14:46:22,,O,,U,N,N,N,N,U,750000,Y,,3498588,,N,N,N,N,N,N,,93,06/21/2021 00:00:00,06/23/2021 01:30:04,,N,888,1,x00,06/21/2021 00:00:00,,N,RAMON PEGUERO,PRESIDENT & CEO,06/21/2021 00:00:00,113518842,N,,N,N,,,,,Non-profit,UG,,,,,,10/01/2019 00:00:00,,,,US
1382445,1813742020,2020,181374,08/31/2020 00:00:00,S,A,,N,146012314,,N,084070952,DUTCHESS COMMUNITY COLLEGE,53 PENDELL ROAD,,POUGHKEEPSIE,NY,12601,DONNA ROCAP,ASSOCIATE VICE PRESIDENT OF ADMINISTRATI,8454318066,,ROCAP@SUNYDUTCHESS.EDU,05/28/2021 11:48:00,DONNA ROCAP-ASSOCIATE VICE PRESIDENT,"BONADIO & CO., LLP",6 WEMBLEY COURT,,ALBANY,NY,12206,ALAN WALTHER,PARTNER,5184644080,,AWALTHER@BONADIO.COM,05/28/2021 09:32:07,,O,,U,N,N,N,N,U,750000,Y,,16457245,,Y,N,N,Y,Y,N,,84,05/28/2021 00:00:00,06/02/2021 01:30:04,,N,104,1,x84,05/24/2021 00:00:00,,N,DONNA ROCAP,ASSOCIATE VICE PRESIDENT,05/28/2021 00:00:00,161131146,N,,N,Y,,,,,Local government,UG,00286400,06/01/2021 12:49:17,06/03/2021 07:45:22,S,B,09/01/2019 00:00:00,,,,
1394561,2242562020,2020,224256,12/31/2020 00:00:00,S,A,,N,522265888,,N,844280243,NATIONAL ASSN. FOR PUBLIC HEALTH STATISTICS AND INFORMATION SYSTEMS,8705B COLESVILLE ROAD NO 348,,SILVER SPRING,MD,20910,SHAWNA WEBSTER,EXECUTIVE DIRECTOR,3015636001,,SWEBSTER@NAPHSIS.ORG,10/04/2021 10:36:43,SHAWNA WEBSTER-EXECUTIVE DIRECTOR,"DEMBO JONES, P.C.","6116 EXECUTIVE BLVD, SUITE 500",,NORTH BETHESDA,MD,20852,"BERT SWAIN, CPA",DIRECTOR,3017705100,,BSWAIN@DEMBOJONES.COM,09/30/2021 16:33:34,,O,,U,N,N,N,N,U,750000,N,,775514,,N,N,N,N,N,N,,93,10/04/2021 00:00:00,10/08/2021 01:30:03,,N,909,1,x00,10/04/2021 00:00:00,,N,SHAWNA WEBSTER,EXECUTIVE DIRECTOR,10/04/2021 00:00:00,521073331,N,,N,N,,,,,Non-profit,UG,,,,,,01/01/2020 00:00:00,,,,US
1406967,2486272020,2020,248627,12/31/2020 00:00:00,S,A,,N,581698233,,N,785629429,"WOMEN MOVING ON, INC.",115 E MAPLE STREET,,DECATUR,GA,300303315,JEAN DOUGLAS,EXECUTIVE DIRECTOR,4043707670,,JEAN@WRCDV.ORG,12/13/2021 14:33:23,JEAN DOUGLAS-JEAN DOUGLAS,"PJC GROUP, LLC","260 PEACHTREE STREET NW, STE 2302",,ATLANTA,GA,30303,JOHN H. JORDAN,PRINCIPAL,4046593384,,SHERBERT@PJCGROUP.COM,12/10/2021 15:43:42,,O,,U,N,N,N,N,U,750000,Y,,1388808,,N,N,N,N,N,N,,16,12/13/2021 00:00:00,12/17/2021 01:30:03,,N,888,1,x00,12/13/2021 00:00:00,,N,JEAN DOUGLAS,JEAN DOUGLAS,12/13/2021 00:00:00,582591279,N,,N,N,,,,,Non-profit,UG,,,,,,01/01/2020 00:00:00,,,,US
1354983,2478802020,2020,247880,06/30/2020 00:00:00,S,A,,N,812911777,,N,,GLOBAL LEADERSHIP ACADEMY SOUTHWEST AT HUEY,5200 PINE STREET,,PHILADELPHIA,PA,19143,MICHAEL MCLEISH,BUSINESS MANAGER,8655051300,,MMCLEISH@S-TMAIL.COM,01/04/2021 08:19:24,MICHAEL MCLEISH-CONTROLLER,MAILLIE LLP,500 NORTH LEWIS ROAD,,LIMERICK,PA,19468,S. MARK FUGA,PRINCIPAL,4204201420,,MFUGA@MAILLIE.COM,01/04/2021 08:57:58,,O,,U,N,N,N,N,U,750000,N,,1091334,,N,N,N,N,N,N,,84,01/06/2021 00:00:00,01/10/2021 01:30:03,,N,888,1,x00,01/06/2021 00:00:00,,N,MICHAEL MCLEISH,CONTROLLER,01/06/2021 00:00:00,231518888,N,,N,N,,,,,Non-profit,UG,,01/17/2021 10:46:30,01/21/2021 10:42:36,,N,07/01/2019 00:00:00,,,,US
1367327,1700312020,2020,170031,06/30/2020 00:00:00,S,A,,N,231670325,,N,069886679,MONTGOMERY COUNTY COMMUNITY COLLEGE,340 DEKALB PIKE,,BLUE BELL,PA,19422,"HEATHER MEIER, CPA, MBA",CONTROLLER,2156416603,,HMEIER@MC3.EDU,02/11/2021 12:29:52,HEATHER MEIER-CONTROLLER,"MAHER DUESSEL, CPAS","1800 LINGLESTOWN ROAD, SUITE 306",,HARRISBURG,PA,17110,LISA RITTER,ENGAGEMENT PARTNER,7172321230,,LRITTER@MD-CPAS.COM,02/11/2021 09:33:48,,O,,U,N,N,N,N,U,750000,Y,,33101404,,N,N,N,N,N,N,,84,02/11/2021 00:00:00,02/13/2021 01:30:05,,N,504,1,x00,02/11/2021 00:00:00,,N,HEATHER MEIER,CONTROLLER,02/11/2021 00:00:00,251622758,N,,N,N,,,,,Institution of higher education (IHE),UG,00445200,02/17/2021 15:25:02,02/18/2021 09:52:14,N,B,07/01/2019 00:00:00,,,,US
1356414,1699852020,2020,169985,06/30/2020 00:00:00,S,A,,N,231734578,,N,095360640,BLAST INTERMEDIATE UNIT #17,33 SPRINGBROOK DRIVE,,CANTON,PA,17724,SARA MCNETT,DIRECTOR OF MANAGEMENT SERVICES,5706736001,,SMCNETT@IU17.ORG,12/18/2020 12:31:03,SARA MCNETT-DIRECTOR OF MANAGEMENT SERVICES,"EFPR GROUP, CPAS, PLLC","8 DENISON PARKWAY EAST, SUITE 407",,CORNING,NY,14830,"RICHARD J. DAVIS, CPA",PARTNER,6079626891,,RDAVIS@EFPRGROUP.COM,12/18/2020 08:14:05,,O,,U,N,N,N,N,U,750000,Y,,9618112,,N,N,N,N,N,N,,84,12/18/2020 00:00:00,12/27/2020 01:30:04,,N,505,1,x00,12/18/2020 00:00:00,,N,SARA MCNETT,DIRECTOR OF MANAGEMENT SERVICES,12/18/2020 00:00:00,474526160,N,,N,N,,,,,Local government,UG,,01/02/2021 13:23:36,01/07/2021 11:13:13,,N,07/01/2019 00:00:00,,,,US
1353753,2100902020,2020,210090,06/30/2020 00:00:00,S,A,,N,631190834,,N,,WESLEY ACRES II - AMETHODIST HOME FOR THE AGING,1520 COOPER HILL ROAD,,BIRMINGHAM,AL,35210,BRUCE AKINS,CFO METHODIST HOME FOR THE AGING,2059512442,,BAKINS@METHODISTHOMES.ORG,11/04/2020 14:15:57,BRUCE AKINS-CFO,"APRIO, LLP","FIVE CONCOURSE PARKWAY, SUITE 1000",,ATLANTA,GA,30328,ROB SHIRLEY,PARTNER,2059915506,,ROB.SHIRLEY@APRIO.COM,11/04/2020 15:18:51,,O,,U,N,N,N,N,U,750000,N,,1089836,,N,N,N,N,N,N,,14,11/04/2020 00:00:00,11/06/2020 01:30:04,,N,903,1,x00,11/04/2020 00:00:00,,N,BRUCE AKINS,CFO,11/04/2020 00:00:00,571157523,N,,N,N,,,,,Non-profit,UG,,,,,,07/01/2019 00:00:00,,,,US
1367643,2315732020,2020,231573,06/30/2020 00:00:00,S,A,,N,260684268,,N,828863667,COLLEGE OF WESTERN IDAHO,6056 BIRCH LANE SUITE 200,,NAMPA,ID,83687,MARY JO HAYES,COMPTROLLER,2085623329,,MARYJOHAYES@CWI.EDU,02/15/2021 22:58:41,MARY JO HAYES-MARY JO HAYES,EIDE BAILLY LLP,"877 W. MAIN STREET, SUITE 800",,BOISE,ID,83702,JODI DAUGHERTY,PARTNER,2083447150,,JDAUGHERTY@EIDEBAILLY.COM,02/11/2021 11:36:24,,O,,U,N,N,N,N,U,750000,Y,,27010938,,N,N,N,N,N,N,,84,02/15/2021 00:00:00,02/18/2021 01:30:03,,N,504,1,x00,02/15/2021 00:00:00,,N,MARY JO HAYES,MARY JO HAYES,02/15/2021 00:00:00,450250958,N,,N,N,,,,,Institution of higher education (IHE),UG,04211800,02/22/2021 11:31:46,02/25/2021 10:30:46,N,B,07/01/2019 00:00:00,,,,US
1347926,2204342020,2020,220434,06/30/2020 00:00:00,S,A,,N,593692577,,N,,"HBHCI HUD 8, INC.",PO BOX 428,,NEW PORT RICHEY,FL,34656,TAMARA HARP,FINANCIAL SPECIALIST-SUPERVISOR,7272986120,,TAMARA.HARP@BAYCARE.ORG,09/24/2020 11:52:05,TAMARA HARP-BEHAVIORAL HEALTH FINANCE SUPERVISOR,"BARTON, GONZALEZ & MYERS, P.A.",13137 66TH STREET,,LARGO,FL,33773,SERGIO GONZALEZ,CPA,7273441040,,SERGIO@BARTONCPAS.COM,09/24/2020 10:27:23,,O,,U,N,N,N,N,U,750000,Y,,1372320,,N,N,N,N,N,N,,14,09/24/2020 00:00:00,09/29/2020 01:30:04,,N,903,1,x00,09/24/2020 00:00:00,,N,TAMARA HARP,BEHAVIORAL HEALTH FINANCE SUPERVISOR,09/24/2020 00:00:00,592970580,N,,N,N,,,,,Non-profit,UG,,,,,,07/01/2019 00:00:00,,,,US
1374887,1912132020,2020,191213,06/30/2020 00:00:00,S,B,,N,351105404,,N,072063746,NORTH LAWRENCE COMMUNITY SCHOOLS,460 W STREET,,BEDFORD,IN,47421,ROBYN MUDER,TREASURER,8122793521,,MUDERR@NLCS.K12.IN.US,03/30/2023 12:02:34,ROBYN MUDER-ROBYN MUDER,INDIANA STATE BOARD OF ACCOUNTS,"302 W WASHINGTON ST, ROOM E418",,INDIANAPOLIS,IN,462042765,"BETH KELLEY, CPA",DEPUTY STATE EXAMINER,3172322513,,FEDDATA@SBOA.IN.GOV,03/30/2023 11:49:54,,O,,AS,N,Y,Y,N,Q,750000,N,,8443119,,N,Y,N,Y,N,N,,84,03/30/2023 00:00:00,04/01/2023 01:30:03,,N,505,1,x00,03/30/2023 00:00:00,,N,ROBYN MUDER,ROBYN MUDER,03/30/2023 00:00:00,356000015,Y,,N,N,REGULATORY,N,U,,Local government,UG,,04/18/2023 13:30:41,04/21/2023 10:36:42,,N,07/01/2018 00:00:00,,,,US
1346920,1418282020,2020,141828,06/30/2020 00:00:00,S,A,,N,376014445,,N,092999424,HILLSBORO COMMUNITY UNIT SCHOOL DISTRICT NO. 3,1311 VANDALIA,,HILLSBORO,IL,62049,DAVID POWELL,SUPERINTENDENT,2175325184,,DPOWELL@HILLSBOROSCHOOLS.NET,11/16/2020 11:54:04,DAVID POWELL-SUPERINTENDENT,SCHEFFEL BOYLE,222 EAST MAIN STREET,,BELLEVILLE,IL,62220,DALE HOLTMANN,PRINCIPAL,6182778100,,ANDREA.SUHRE@SCHEFFELBOYLE.COM,11/17/2020 07:24:57,,O,,U,N,N,Y,N,U,750000,Y,,1434918,,N,N,N,N,N,N,,84,11/17/2020 00:00:00,11/19/2020 01:30:03,,N,505,1,x00,11/17/2020 00:00:00,,N,DAVID POWELL,SUPERINTENDENT,11/17/2020 00:00:00,371206530,N,,N,N,,,,,Local government,UG,,11/30/2020 10:42:18,12/03/2020 08:54:33,N,G,07/01/2019 00:00:00,,,,US
1345096,1241072020,2020,124107,01/31/2020 00:00:00,S,A,,N,951994337,,N,081812315,COMMUNITY LEGAL AID SO CAL-LEGAL AID SOCIETY OF ORANGE CO. SEFA,2101 N. TUSTIN,,SANTA ANA,CA,92705,RALPH DAO,FINANCE DIRECTOR,7145715213,,RDAO@CLSOCAL.ORG,09/26/2020 01:15:50,RALPH DAO-DIRECTOR OF FINANCE,"DAVID L. GRUBER AND ASSOCIATES, INC.",438 OLD NEWPORT BLVD.,,NEWPORT BEACH,CA,92663,RON LOPEZ,PARTNER,9493220092,,RLOPEZ@GRUBER-INC.COM,08/14/2020 14:10:15,,O,,U,N,N,N,N,U,750000,N,,6373002,,N,N,N,N,N,N,,21,09/26/2020 00:00:00,09/30/2020 01:30:05,,N,908,1,X,09/26/2020 00:00:00,,N,RALPH DAO,DIRECTOR OF FINANCE,09/26/2020 00:00:00,261348348,N,,N,N,,,,,Non-profit,UG,,,,,,02/01/2019 00:00:00,,,,US
1390396,1688702020,2020,168870,12/31/2020 00:00:00,S,A,,N,251333688,,N,847810033,CENTRE COUNTY HOUSING AUTHORITY,602 E. HOWARD STREET,,BELLEFONTE,PA,168232145,LORI HAINES,EXECUTIVE DIRECTOR,8143556830,,LHAINES@CENTRECOUNTYHOUSINGAUTHORITY.COM,08/16/2021 10:13:19,LORI HAINES-EXECUTIVE DIRECTOR,"MALCOLM JOHNSON & COMPANY, P.A.",210 N. CHARLES RICHARD BEALL BLVD,,DEBARY,FL,32713,MALCOLM P JOHNSON,PRESIDENT,3866686464,,OFFICE@MALCOLMJOHNSONCOMPANY.COM,08/16/2021 10:14:00,,O,,U,N,N,N,N,U,750000,Y,,4957896,,N,N,N,N,N,N,,14,08/16/2021 00:00:00,08/18/2021 01:30:04,,N,903,1,x00,08/16/2021 00:00:00,,N,LORI HAINES,EXECUTIVE DIRECTOR,08/16/2021 00:00:00,593382992,N,,N,N,,,,,Local government,UG,,,,,,01/01/2020 00:00:00,,,,US
1374844,887152020,2020,88715,06/30/2020 00:00:00,S,A,,N,591221966,,N,,"REDLANDS CHRISTIAN MIGRANT ASOCIATION, INC.",402 WEST MAIN STREET,,IMMOKALEE,FL,34142,GILBERT FLORES,DIRECTOR OF ACCOUNTING,2396583560,,GILBERT@RCMA.ORG,03/26/2021 10:00:09,GILBERT FLORES-GILBERT FLORES,ZOMMA GROUP LLP,"355 ALHAMBRA CIRCLE, SUITE 1100",,CORAL GABLES,FL,33134,ILEANA ALVAREZ,AUDIT PARTNER,3054448288,,ILEANA.ALVAREZ@ZOMMAGROUP.COM,03/26/2021 10:02:48,,C,93,U,N,N,N,N,U,1957145,Y,,67331604,,N,N,N,N,N,Y,,,03/26/2021 00:00:00,03/28/2021 01:30:05,,N,908,1,x00,03/26/2021 00:00:00,,N,GILBERT FLORES,GILBERT FLORES,03/26/2021 00:00:00,650715836,N,,N,N,,,,,Non-profit,UG,,03/29/2021 13:29:58,04/01/2021 07:14:26,,N,07/01/2019 00:00:00,,,,US
1401412,1997462020,2020,199746,12/31/2020 00:00:00,S,A,,N,256001029,,N,,COUNTY OF FAYETTE,61 EAST MAIN STREET,,UNIONTOWN,PA,15401,REBECCA MEDLOCK,ACCOUNTING MANAGER,7244301217,,RMEDLOCK@FAYETTEPA.ORG,11/04/2021 11:06:02,REBECCA MEDLOCK-ACCOUNTING MANAGER,ZELENKOFSKE AXELROD LLC,"3800 MCKNIGHT EAST DRIVE, SUITE 3805",,PITTSBURGH,PA,15237,CORY JOHNSON,PARTNER,4123677102,,CJOHNSON@ZALLC.ORG,11/04/2021 10:05:08,,O,,U,N,Y,N,N,U,777240,N,,25907997,,N,N,N,N,N,N,,20,11/04/2021 00:00:00,11/06/2021 01:30:05,,N,100,1,x00,10/01/2021 00:00:00,,N,REBECCA MEDLOCK,ACCOUNTING MANAGER,10/01/2021 00:00:00,233022325,Y,,N,N,,,,,Local government,UG,,10/08/2021 13:08:18,10/14/2021 07:29:22,,N,01/01/2020 00:00:00,,,,
1394751,2416942020,2020,241694,12/31/2020 00:00:00,S,A,,N,273524752,,N,964795244,NEIGHBORHOOD HEALTH CENTER,"7320 SW HUNZIKER ROAD, SUITE 300",,TIGARD,OR,97223,BLAIN WEST,CFO,5039413032,,WESTB@NHCOREGON.ORG,09/28/2021 13:58:26,BLAIN WEST-CFO & COO,MOSS ADAMS LLP,"805 SW BROADWAY, SUITE 1200",,PORTLAND,OR,972053326,TONY ANDRADE,PARTNER,5034782287,,TONY.ANDRADE@MOSSADAMS.COM,09/28/2021 13:54:28,,O,,U,N,N,N,N,U,750000,Y,,3917003,,N,N,N,N,N,N,,93,09/28/2021 00:00:00,10/04/2021 01:30:03,,N,888,1,x00,09/28/2021 00:00:00,,N,BLAIN WEST,CFO & COO,09/28/2021 00:00:00,930189318,N,,N,N,,,,,Non-profit,UG,,,,,,01/01/2020 00:00:00,,,,US
1356017,2108922020,2020,210892,06/30/2020 00:00:00,S,B,,N,456000099,,N,,OBERON PUBLIC SCHOOL DISTRICT NO. 16,315 A STREET,,OBERON,ND,58357,MARIA DUNLAP,BUSINESS MANAGER,7017982091,,MARIA.M.DUNLAP@K12.ND.US,11/23/2020 15:46:41,MARIA DUNLAP-BUSINESS MANAGER,NORTH DAKOTA OFFICE OF THE STATE AUDITOR,1655 43RD ST. S SUITE 203,,FARGO,ND,58103,HEATH ERICKSON,AUDIT MANAGER,7012397286,,HMERICKSON@ND.GOV,11/23/2020 15:51:02,,O,,U,Y,Y,Y,N,D,750000,N,,1811156,,N,Y,N,Y,N,N,,84,11/23/2020 00:00:00,12/04/2020 01:30:04,,N,505,1,x00x84,11/23/2020 00:00:00,,N,MARIA DUNLAP,BUSINESS MANAGER,11/23/2020 00:00:00,450309761,Y,,Y,N,,,,,Local government,UG,,12/04/2020 11:32:59,12/10/2020 08:08:40,G,G,07/01/2018 00:00:00,,,,US
1396274,2433782020,2020,243378,12/31/2020 00:00:00,S,A,,N,911834006,,N,,FRIENDS OF THE MISSION,PO BOX 8485,,WOODLAND,CA,95776,SCOTT THURMOND,EXECUTIVE DIRECTOR,9164160901,,THURMONDCONSULTING@GMAIL.COM,09/30/2021 15:32:15,SCOTT THURMOND-D. SCOTT THURMOND,PROPP CHRISTENSEN CANIGLIA LLP,9261 SIERRA COLLEGE BOULEVARD,,ROSEVILLE,CA,95661,JUSTIN GIERTH,PARTNER,9167512900,,JGIERTH@PCCLLP.COM,09/30/2021 16:17:42,,O,,U,N,N,N,N,U,750000,Y,,1544369,,N,N,N,N,N,N,,14,09/30/2021 00:00:00,10/07/2021 01:30:03,,N,888,1,x00,09/30/2021 00:00:00,,N,SCOTT THURMOND,D. SCOTT THURMOND,09/30/2021 00:00:00,262363334,N,,N,N,,,,,Non-profit,UG,,,,,,01/01/2020 00:00:00,,,,US
1376035,1861282020,2020,186128,03/31/2020 00:00:00,S,A,,N,351082584,,N,102342584,"HOUSING AUTHORITY OF THE CITY OF ELKHART, INDIANA",1396 BENHAM AVE,,ELKHART,IN,465163341,ANGELIA WASHINGTON,EXECUTIVE DIRECTOR,5742958392,,ANGELIA.WASHINGTON@EHAI.ORG,03/30/2021 15:27:22,ANGELIA WASHINGTON-EXECUTIVE DIRECTOR,"VELMA BUTLER AND COMPANY, LTD",6 E MONROE ST,,CHICAGO,IL,60603,VELMA BUTLER,PARTNER,3124191547,,VBANDC@AOL.COM,03/30/2021 12:25:35,,O,,U,N,N,N,N,U,750000,Y,,8744088,,N,N,N,N,N,N,,14,03/30/2021 00:00:00,04/01/2021 01:30:04,,N,403,1,x00,03/30/2021 00:00:00,,N,ANGELIA WASHINGTON,EXECUTIVE DIRECTOR,03/30/2021 00:00:00,363756436,N,,N,N,,,,,Local government,UG,,,,,,04/01/2019 00:00:00,,,,US
1379264,133362020,2020,13336,12/31/2020 00:00:00,S,A,,N,133238657,,N,147851935,NONPROFIT FINANCE FUND AND AFFILIATE,"5 HANOVER SQUARE, 9TH FLOOR",,NEW YORK,NY,10004,ANAND ATTAVANE,VICE PRESIDENT - CONTROLLER,2124574706,,AATTAVANE@NFF.ORG,05/10/2021 12:14:03,ANAND ATTAVANE-VICE PRESIDENT,"PKF O'CONNOR DAVIES, LLP",665 FIFTH AVENUE,,NEW YORK,NY,10022,STEPHEN MACHINSKI,PARTNER,2122862600,,SMACHINSKI@PKFOD.COM,05/07/2021 02:02:14,,O,,U,N,N,N,N,U,750000,Y,,913652,,N,N,N,N,N,N,,21,05/10/2021 00:00:00,05/12/2021 01:30:03,,N,909,1,x00,05/10/2021 00:00:00,,N,ANAND ATTAVANE,VICE PRESIDENT,05/10/2021 00:00:00,271728945,N,,N,N,,,,,Non-profit,UG,,05/12/2021 12:05:56,05/13/2021 07:22:02,N,G,01/01/2020 00:00:00,,,,US
1380154,1195572020,2020,119557,06/30/2020 00:00:00,S,A,,N,942210447,,N,,AMPLA HEALTH,935 MARKET STREET,,YUBA CITY,CA,95991,KATHY WALKER,CFO,5307513746,,KWALKER@AMPLAHEALTH.ORG,05/14/2021 14:21:09,KATHY WALKER-CFO,GILBERT CPAS,"2880 GATEWAY OAKS DRIVE, SUITE 100",,SACRAMENTO,CA,95833,BOBBIE N. HALES,SHAREHOLDER,9166466464,,BOBBIE@GILBERTCPA.COM,05/14/2021 14:17:13,,O,,U,N,N,N,N,U,750000,N,,10279984,,N,N,N,N,N,N,,93,05/17/2021 00:00:00,05/20/2021 01:30:03,,N,908,1,x00,05/17/2021 00:00:00,,N,KATHY WALKER,CFO,05/17/2021 00:00:00,680037990,N,,N,N,,,,,Non-profit,UG,,,,,,07/01/2019 00:00:00,,,,US
1368731,2105002020,2020,210500,06/30/2020 00:00:00,S,A,,N,310731712,,N,184235471,OAK HILL UNION LOCAL SCHOOL DISTRICT,205 WESTERN AVENUE,,OAK HILL,OH,45656,RHONDA HARRISON,TREASURER,7406827595,,RHONDA.HARRISON@OAKHILL.K12.OH.US,03/30/2021 11:29:05,RHONDA HARRISON-TREASURER,"KEITH FABER, AUDITOR OF STATE",88 EAST BROAD STREET,,COLUMBUS,OH,43215,"SHANE STATLER, CFE",CHIEF AUDITOR,7405943300,,DCF-SOUTHEAST@OHIOAUDITOR.GOV,03/30/2021 10:24:41,,O,,S,N,N,Y,N,U,750000,N,,1603060,,N,N,N,N,N,N,,84,03/30/2021 00:00:00,04/01/2021 01:30:04,,N,505,1,x00,03/30/2021 00:00:00,,N,RHONDA HARRISON,TREASURER,03/30/2021 00:00:00,311334820,N,,N,N,CASH,N,U,,Local government,UG,,04/05/2021 14:13:10,04/08/2021 06:51:55,,N,07/01/2019 00:00:00,,,,US
1411176,1792352020,2020,179235,12/31/2020 00:00:00,S,A,,N,391287204,,N,,HOUSING AUTHORITY OF SAWYER COUNTY,16036 W HWY 63 NORTH,,HAYWARD,WI,54843,SHEILA YOUNG,EXECUTIVE DIRECTOR,7056344280,,SCHOUS@CHEQNET.NET,12/30/2021 14:21:04,SHEILA YOUNG-EXECUTIVE DIRECTOR,TOSTRUD & TEMP S.C.,609 S 4TH STREET SUITE B,,LA CROSSE,WI,54601,MICHAEL TEMP,PRESIDENT,6087848060,,MIKE.TEMP@TNTCPAS.COM,12/30/2021 11:27:55,,O,,U,N,N,N,N,U,750000,Y,,1929893,,N,N,N,N,N,N,,14,12/30/2021 00:00:00,01/01/2022 01:30:04,,N,403,1,x00,12/30/2021 00:00:00,,N,SHEILA YOUNG,EXECUTIVE DIRECTOR,12/30/2021 00:00:00,391426119,N,,N,N,,,,,Local government,UG,,,,,,01/01/2020 00:00:00,,,,US
1365792,2298152020,2020,229815,06/30/2020 00:00:00,S,A,,N,590830840,,N,030760235,"UNITED WAY OF MIAMI-DADE, INC.",3250 SW 3RD AVE,,MIAMI,FL,331292712,CARLOS MOLINA,CHIEF FINANCIAL OFFICER,3056467065,,CMOLINA@UNITEDWAYMIAMI.ORG,01/25/2021 10:00:14,CARLOS MOLINA-CHIEF FINANCIAL OFFICER,MARCUM LLP,"ONE SE THIRD AVE, SUITE 1100",,MIAMI,FL,33131,BRANDEN LOPEZ,SENIOR MANAGER,3059959612,,BRANDEN.LOPEZ@MARCUMLLP.COM,01/27/2021 13:52:58,,O,,U,N,N,N,N,U,750000,Y,,9036861,,N,N,N,N,N,N,,93,01/27/2021 00:00:00,01/29/2021 01:30:04,,N,908,1,x00,01/27/2021 00:00:00,,N,CARLOS MOLINA,CHIEF FINANCIAL OFFICER,01/27/2021 00:00:00,111986323,N,,N,N,,,,,Non-profit,UG,,,,,,07/01/2019 00:00:00,,,,US
1360414,2022592020,2020,202259,06/30/2020 00:00:00,S,A,,N,931171601,,N,,"THREE WEST HOUSING, INC.",PO BOX 9275,,PORTLAND,OR,97207,JIM HLAVA,PRESIDENT-CASCADIA BEHAVIORAL HEALTHCARE,5039637797,,JIM.HLAVA@CASCADIABHC.ORG,12/29/2020 19:06:55,JIM HLAVA-PRESIDENT,BJORKLUND & MONTPLAISIR,"9020 SW WASHINGTON SQUARE ROAD, SUITE 460",,PORTLAND,OR,97223,MISOL KIM,PARTNER,5036436400,,MISTY@BANDMCPA.COM,12/29/2020 20:14:57,,O,,U,N,N,N,N,U,750000,Y,,1517230,,N,N,N,N,N,N,,14,12/29/2020 00:00:00,01/04/2021 01:30:03,,N,903,1,x00,12/29/2020 00:00:00,,N,JIM HLAVA,PRESIDENT,12/29/2020 00:00:00,931015766,N,,N,N,,,,,Non-profit,UG,,,,,,07/01/2019 00:00:00,,,,US
1359710,1946122020,2020,194612,01/31/2020 00:00:00,S,A,,N,660428652,,N,,"CAMUY HEALTH SERVICES, INC.",PO BOX 660,,CAMYU,PR,006270660,ORLANDO TORRES,FINANCE DIRECTOR,7872626603,,ORLANDO.TORRES@CHS015.COM,12/15/2020 13:57:44,ORLANDO TORRES-FINANCE DIRECTOR,JOSE L. CARDONA & CO. P.S.C.,PO BOX 194806,,SAN JUAN,PR,009194806,JOSE L. CARDONA,PRESIDENT,7877935353,,JLC@JLCARDONA.COM,12/15/2020 13:58:47,,O,,U,N,N,N,N,U,750000,Y,,4048758,,N,N,N,N,N,N,,93,12/15/2020 00:00:00,12/22/2020 01:30:04,,N,908,1,x00,12/15/2020 00:00:00,,N,ORLANDO TORRES,FINANCE DIRECTOR,12/15/2020 00:00:00,660567451,N,,N,N,,,,,Non-profit,UG,,,,,,02/01/2019 00:00:00,,,,US
1346116,1970952020,2020,197095,06/30/2020 00:00:00,S,A,,N,371251026,,N,964780253,"COMMUNITY WORKSHOP RESIDENTIALS, INC. D / FHA PROJECT NO. 072-EH115",3215 N. UNIVERSITY ST,,PEORIA,IL,61604,JEFF COTTINGHAM,MANAGEMENT AGENT,3096732252,,RCCPC@MTCO.COM,09/08/2020 12:12:20,JEFF COTTINGHAM-AGENT,"GORDON, STOCKMAN & WAUGH, PC",8726 N INDUSTRIAL RD,,PEORIA,IL,61615,ANDREW RYON,AUDIT PARTNER,3096924030,,ARYON@GSWCPA.COM,08/31/2020 09:15:19,,O,,U,N,Y,N,N,U,750000,N,,1011945,,N,Y,N,Y,Y,N,,14,09/08/2020 00:00:00,09/10/2020 01:30:05,,N,903,1,x14,09/08/2020 00:00:00,,N,JEFF COTTINGHAM,AGENT,09/08/2020 00:00:00,412110811,Y,,N,N,,,,,Non-profit,UG,,,,,,07/01/2019 00:00:00,,,,US
1352099,1604322020,2020,160432,06/30/2020 00:00:00,S,A,,N,156002148,,N,025892118,CANASTOTA CENTRAL SCHOOL DISTRICT,120 ROBERTS STREET,,CANASTOTA,NY,13032,NICHOLAS PANNUCCIO,SCHOOL BUSNESS LEADER,3156976368,,NPANUCCIO@CANASTOTACSD.ORG,11/12/2020 08:30:12,NICHOLAS PANUCCIO-EXECUTIVE DIRECTOR OF FINANCE & OPERATIONS,"D'ARCANGELO & CO.,LLP",200 EAST GARDEN STREET,,ROME,NY,13440,LEONARD CARISSIMO,PARTNER,3153369220,,LCARISSIMO@DARCANGELO-CNY.COM,11/11/2020 09:05:53,,O,,U,N,N,N,N,U,750000,Y,,1654793,,N,N,N,N,N,N,,84,11/12/2020 00:00:00,11/17/2020 01:30:07,,N,505,1,x00,11/12/2020 00:00:00,,N,NICHOLAS PANUCCIO,EXECUTIVE DIRECTOR OF FINANCE & OPERATIONS,11/12/2020 00:00:00,132550130,N,,N,N,,,,,Local government,UG,,11/17/2020 09:30:17,11/19/2020 08:29:55,,N,07/01/2019 00:00:00,,,,US
1389784,2086562020,2020,208656,12/31/2020 00:00:00,S,A,,N,363971142,,N,,"LAKEVIEW TOWERS RESIDENTS ASSOCIATION, INC.","C/O LMCI, 5618 N. MILWAUKEE AVENUE",,CHICAGO,IL,60646,MICHAEL LEVINE,PROPERTY MANAGER,7732865400,,MLEVINE@LEASING-MGMT.COM,11/02/2021 16:39:51,MICHAEL LEVINE-MANAGING AGENT,"WIELAND & COMPANY, INC.",232 S. BATAVIA AVENUE,,BATAVIA,IL,60510,PAUL H. WIELAND,PRESIDENT,6304064490,,PAUL@WIELANDCPAS.NET,11/03/2021 17:06:56,,C,14,U,N,N,N,N,U,3000000,Y,,71997929,,N,N,N,N,N,N,,,11/03/2021 00:00:00,11/06/2021 01:30:05,,N,903,1,x00,11/03/2021 00:00:00,,N,MICHAEL LEVINE,MANAGING AGENT,11/03/2021 00:00:00,364025026,N,,N,N,,,,,Non-profit,UG,,,,,,01/01/2020 00:00:00,,,,US
1372451,1813172020,2020,181317,12/31/2020 00:00:00,S,A,,N,716013949,,N,120200217,LITTLE ROCK WATER RECLAMATION AUTHORITY,11 CLEARWATER DRIVE,,LITTLE ROCK,AR,72204,B.J. HARRISON,CONTROLLER,5016881460,,BILLY.HARRISON@LRWRA.COM,04/19/2021 13:17:23,BILL HARRISON-CONTROLLER,"BKD, LLP","14241 DALLAS PARKWAY, SUITE 1100",,DALLAS,TX,75254,KEVIN KEMP,PARTNER,9727028262,,KKEMP@BKD.COM,04/19/2021 09:21:41,,O,,U,N,N,N,N,U,750000,Y,,7096162,,N,N,N,N,N,N,,66,04/19/2021 00:00:00,04/21/2021 01:30:03,,N,207,1,x00,04/19/2021 00:00:00,,N,BILL HARRISON,CONTROLLER,04/19/2021 00:00:00,440160260,N,,N,N,,,,,Local government,UG,,,,,,01/01/2020 00:00:00,,,,US
1356362,1270732020,2020,127073,06/30/2020 00:00:00,S,A,,N,954337245,,N,883947202,PROJECT NEW HOPE,"601 EAST GLENOAKS BLVD., SUITE 100",,GLENDALE,CA,91207,BRIGITTE TWEDDELL,EXECUTIVE DIRECTOR,8185468929,,BTWEDDELL@PROJECTNEWHOPE.ORG,11/24/2020 13:57:15,BRIGITTE TWEDDEL-EXECUTIVE DIRECTOR,"PDM, LLP","3460 TORRANCE BLVD, SUITE 200",,TORRANCE,CA,90503,ANTHONY BOZANIC,PARTNER,3105404118,,ABOZANIC@PDMCPAS.COM,11/25/2020 18:05:45,,O,,U,N,N,N,N,U,750000,Y,,3241793,,N,N,N,N,N,N,,93,11/25/2020 00:00:00,12/01/2020 01:30:04,,N,909,1,x00,11/25/2020 00:00:00,,N,BRIGITTE TWEDDEL,EXECUTIVE DIRECTOR,11/25/2020 00:00:00,330783700,N,,N,N,,,,,Non-profit,UG,,,,,,07/01/2019 00:00:00,,,,US
1373972,2280352020,2020,228035,07/30/2020 00:00:00,S,A,,N,592973927,,N,,"BOYS & GIRLS CLUB OF NORTH CENTRAL FLORIDA, INC.",918 NORTH WASHINGTON STREET ,,PERRY ,FL,32347,EMILY KETRING ,CEO ,8503711651,,EMILY@BGCPERRY.COM,04/05/2021 10:06:08,EMILY KETRING-EXECUTIVE DIRECTOR,POWELL AND JONES CPAS ,1359 SW MAIN BLVD,,LAKE CITY,FL,32025,MARIAN POWELL ,PARTNER ,3867554200,,,04/05/2021 09:20:58,,O,,U,N,N,N,N,U,750000,Y,,2689381,,N,N,N,N,N,N,,93,04/05/2021 00:00:00,04/07/2021 01:30:04,,N,908,1,x00,04/05/2021 00:00:00,,N,EMILY KETRING,EXECUTIVE DIRECTOR,04/05/2021 00:00:00,592145410,N,,N,N,,,,,Non-profit,UG,,04/09/2021 13:23:19,04/15/2021 07:25:14,,N,08/01/2019 00:00:00,,,,US
1385092,2507612020,2020,250761,12/31/2020 00:00:00,S,A,,N,416005165,,N,,CITY OF FOREST LAKE,1408 LAKE STREET SOUTH,,FOREST LAKE,MN,55025,SANDRA SALIN,DIRECTOR OF FINANCE,6514643550,,SANDRA.SALIN@CI.FOREST-LAKE.MN.US,06/30/2021 10:04:21,SANDRA SALIN-DIRECTOR OF FINANCE,BERGANKDV,3800 AMERICAN BLVD W SUITE 1000,,BLOOMINGTON,MN,55431,MATT MAYER,PARTNER,9525636800,,MATT.MAYER@BERGANKDV.COM,07/01/2021 10:29:10,,O,,U,Y,Y,N,N,U,750000,N,,3047160,,N,N,N,N,N,N,,20,07/01/2021 00:00:00,07/07/2021 01:30:04,,N,888,1,x00,07/01/2021 00:00:00,,N,SANDRA SALIN,DIRECTOR OF FINANCE,07/01/2021 00:00:00,411431613,Y,,Y,N,,,,,Local government,UG,,,,,,01/01/2020 00:00:00,,,,US
1350858,2139682020,2020,213968,06/30/2020 00:00:00,S,A,,N,562190159,,N,118693535,"ASHE SENIOR VILLAGE, INC.",160 CHATTYROB LANE #25,,WEST JEFFERSON,NC,28694,BILL CLARK,MANAGEMENT OFFICER,3362462461,,BILLCLARK@ASHEAGING.ORG,10/12/2020 08:58:38,BILL CLARK-DIRECTOR OF INFORMATION AND HOUSING,"BERNARD ROBINSON & COMPANY, L.L.P.","1501 HIGHWOODS BLVD., SUITE 300",,GREENSBORO,NC,27410,ELIZABETH DANNER,PRINCIPAL,3362944494,,EDANNER@BRCCPA.COM,10/12/2020 10:27:00,,O,,U,N,N,N,N,U,750000,N,,1815296,,N,N,N,N,N,N,,14,10/12/2020 00:00:00,10/16/2020 01:30:05,,N,903,1,x00,10/12/2020 00:00:00,,N,BILL CLARK,DIRECTOR OF INFORMATION AND HOUSING,10/12/2020 00:00:00,560571159,N,,N,N,,,,,Non-profit,UG,,,,,,07/01/2019 00:00:00,,,,US
1397839,2267622020,2020,226762,09/30/2020 00:00:00,S,A,,N,630765783,,N,171898851,"WATER SYSTEM OF THE TOWN OF MYRTLEWOOD, ALABAMA",210 N MAGNOLIA,,MYRTLEWOOD,AL,36763,JANE VICK,MAYOR,3342954191,,TOWNOFMYRTLEWOOD@GMAIL.COM,10/22/2021 12:12:48,JANE VICK-MAYOR,MASON AND GARDNER CPAS LLC,PO BOX 836,,DEMOPOLIS,AL,36732,NAOMI ALLEN,PARTNER,3342890620,,NAOMI@MASONGARDNERCPA.COM,10/12/2021 12:01:21,,O,,U,N,N,N,N,U,750000,N,,1233345,,N,N,N,N,Y,N,,10,10/22/2021 00:00:00,10/24/2021 01:30:06,,N,207,1,x10x00,10/22/2021 00:00:00,,N,JANE VICK,MAYOR,10/22/2021 00:00:00,202093618,N,,N,N,,,,,Local government,UG,,,,,,10/01/2019 00:00:00,,,,US
1371253,2257572020,2020,225757,12/31/2020 00:00:00,S,A,,N,510530551,,N,824740711,CREATIVE HOUSING III,2233 CITYGATE DRIVE,,COLUMBUS,OH,43219,RANDY MILLER ,CFO,6144187725,,RMILLER@CREATIVEHOUSING.ORG,03/03/2021 11:19:54,RANDY MILLER-CFO,"STEMEN, MERTENS, STICKLER, CPAS & ASSOCIATES","370 S 5TH STREET, SUITE 1",,COLUMBUS,OH,43215,JOSH SMITH,AUDIT PARTNER,6142240955,,JSMITH@SMS-CPAS.COM,03/03/2021 11:01:12,,O,,U,N,N,N,N,U,750000,Y,,1271757,,N,N,N,N,N,N,,14,03/03/2021 00:00:00,03/05/2021 01:30:03,,N,908,1,x00,03/03/2021 00:00:00,,N,RANDY MILLER,CFO,03/03/2021 00:00:00,205511881,N,,N,N,,,,,Non-profit,UG,,,,,,01/01/2020 00:00:00,,,,US
1350507,2057472020,2020,205747,06/30/2020 00:00:00,S,A,,N,436001840,,N,079927414,SCHOOL DISTRICT OF JENNINGS,2559 DORWOOD DRIVE,,JENNINGS,MO,63136,MICHAEL O'CONNELL,CHIEF FINANCIAL OFFICER,3146538006,,OCONNELLM@JENNINGSK12.ORG,11/04/2020 14:09:27,MICHAEL F. O'CONNELL-MICHAEL F. O'CONNELL,"SCHOWALTER & JABOURI, P.C.",11878 GRAVOIS ROAD,,ST. LOUIS,MO,631271805,"JAMES K. TORTI, CPA, CFE, CGMA",SHAREHOLDER,3148494999,,JTORTI@SJCPA.COM,11/04/2020 14:22:40,,O,,S,N,N,N,N,U,750000,N,,4777108,,N,N,N,N,N,N,,12,11/04/2020 00:00:00,11/06/2020 01:30:04,,N,505,1,x00,11/04/2020 00:00:00,,N,MICHAEL F. O'CONNELL,MICHAEL F. O'CONNELL,11/04/2020 00:00:00,431188822,N,,N,N,OTHER,N,Q,,Local government,UG,,11/06/2020 11:28:23,11/12/2020 09:29:39,N,G,07/01/2019 00:00:00,,,,US
1364950,1970342020,2020,197034,06/30/2020 00:00:00,S,A,,N,726000226,,N,137709770,CADDO PARISH SHERIFF,505 TRAVIS ST ROOM 700,,SHREVEPORT,LA,71101,GWET FOLSOM,DIRECTOR OF ACCOUNTING,3186810697,,GWET.FOLSOM@CADDOSHERIFF.ORG,03/01/2021 17:58:32,GWET FOLSOM-DIRECTOR,"CARR, RIGGS & INGRAM, LLC",1000 EAST PRESTON AVE SUITE 200,,SHREVEPORT,LA,71105,LISA SALTER,SENIOR MANAGER,3182222222,,LSALTER@CRICPA.COM,03/01/2021 10:52:32,,O,,U,N,N,N,N,U,750000,N,,5301967,,N,N,N,N,N,N,,16,03/01/2021 00:00:00,03/03/2021 01:30:03,,N,109,1,x00,03/01/2021 00:00:00,,N,GWET FOLSOM,DIRECTOR,03/01/2021 00:00:00,721396621,N,,N,N,,,,,Local government,UG,,,,,,07/01/2019 00:00:00,,,,US
1383654,2418892020,2020,241889,12/31/2020 00:00:00,S,A,,N,346001168,,N,139403823,CITY OF NEW FRANKLIN,5611 MANCHESTER ROAD,,AKRON,OH,44319,SUSAN COOKE,FINANCE DIRECTOR,3308824324,,SCOOKE@NEWFRANKLIN.ORG,07/26/2021 10:37:42,SUSAN COOKE-FINANCE DIRECTOR,"JULIAN & GRUBE, INC.",333 COUNTY LINE ROAD WEST,,WESTERVILLE,OH,43082,"TARA WEAVER, CPA",PARTNER,6148461899,,TWEAVER@JGINC.BIZ,07/22/2021 09:59:52,,O,,U,N,N,N,N,U,750000,N,,2283830,,N,N,N,N,N,N,,97,07/26/2021 00:00:00,07/28/2021 01:30:05,,N,888,1,x00,07/26/2021 00:00:00,,N,SUSAN COOKE,FINANCE DIRECTOR,07/26/2021 00:00:00,311440367,N,,N,N,,,,,Local government,UG,,,,,,01/01/2020 00:00:00,,,,US
1361277,2138792020,2020,213879,09/30/2020 00:00:00,S,A,,N,611120991,,N,,GREENVILLE ELDERLY HOUSING CORPORATION,"2565 SOUTH BREAKING A WAY, SUITE 202",,BLOOMINGTON,IN,47403,ROBERT JONES,CONTROLLER,8128765478,,RJONES@HAYESGIBSON.COM,12/22/2020 16:02:29,ROBERT JONES-CONTROLLER,"COMER NOWLING AND ASSOCIATES, PC","10475 CROSSPOINT BLVD, SUITE 200",,INDIANAPOLIS,IN,46256,GREGORY NOWLING,PARTNER,3178413393,,CLAWSON@COMERNOWLING.COM,12/22/2020 16:01:52,,O,,U,N,N,N,N,U,750000,Y,,963774,,N,N,N,N,N,N,,14,12/22/2020 00:00:00,12/30/2020 01:30:04,,N,903,1,x00,12/22/2020 00:00:00,,N,ROBERT JONES,CONTROLLER,12/22/2020 00:00:00,352119569,N,,N,N,,,,,Non-profit,UG,,,,,,10/01/2019 00:00:00,,,,US
1359810,1174672020,2020,117467,06/30/2020 00:00:00,S,A,,N,931086629,,N,621432392,"SELF ENHANCEMENT, INC.",3920 N KERBY,,PORTLAND,OR,972271255,MARIET STEENKAMP,CHIEF FINANCIAL OFFICER,5035481354,,MARIETS@SELFENHANCEMENT.ORG,01/27/2021 01:16:44,MARIET STEENKAMP-CFO,"MCDONALD JACOBS, P.C.","520 SW YAMHILL ST, SUITE 500",,PORTLAND,OR,97204,JESSICA YODER,SHAREHOLDER,5032270581,,JESSICA@MCDONALDJACOBS.COM,01/27/2021 23:16:31,,O,,U,N,N,N,N,Q,750000,N,,5416175,,Y,Y,N,Y,Y,N,,84,01/27/2021 00:00:00,01/29/2021 01:30:04,,N,908,1,x14,01/27/2021 00:00:00,,N,MARIET STEENKAMP,CFO,01/27/2021 00:00:00,930900579,N,,N,Y,,,,,Non-profit,UG,,01/31/2021 14:02:18,02/04/2021 12:38:36,N,G,07/01/2019 00:00:00,,,,US
1383205,1067112020,2020,106711,12/31/2020 00:00:00,S,A,,N,760032451,,N,134245419,"FORT BEND COUNTY WOMEN'S CENTER, INCORPORATED",501 E. HIGHWAY 90,,RICHMOND,TX,77406,DONNA RAMIERZ,CHIEF FINANCIAL OFFICER,2813445754,,DRAMIREZ@FBWC.ORG,06/10/2021 10:13:30,DONNA RAMIREZ-CFO,"WHITLEY PENN, LLP","3737 BUFFALO SPEEDWAY, STE. 1600",,HOUSTON,TX,77098,CELINA CERECERES,AUDIT PARTNER,7136211515,,CELINA.CERECERES@WHITLEYPENN.COM,06/09/2021 20:06:29,,O,,U,N,N,N,N,U,750000,Y,,3758824,,N,N,N,N,N,N,,14,06/10/2021 00:00:00,06/12/2021 01:30:05,,N,908,1,x00,06/10/2021 00:00:00,,N,DONNA RAMIREZ,CFO,06/10/2021 00:00:00,752393478,N,,N,N,,,,,Non-profit,UG,,,,,,01/01/2020 00:00:00,,,,US
1363170,1128092020,2020,112809,06/30/2020 00:00:00,S,A,,N,870421105,,N,556422442,OPEN DOORS SOCIAL SERVICES,1360 E 1450 S,,CLEARFIELD,UT,840151611,JASON WILDE,EXECUTIVE DIRECTOR,8017730712,,JWILDE@OPENDOORSUTAH.ORG,01/06/2021 17:46:59,JASON WILDE-EXECUTIVE DIRECTOR,BOUNTIFUL PEAK ADVISORS,1564 S 500 W STE 201,,BOUNTIFUL,UT,840107400,JUSTIN R SHAW,"CPA, CFE, CGMA",8012943155,,JUSTIN@BOUNTIFULPEAK.COM,01/06/2021 11:37:22,,O,,U,N,Y,N,N,U,750000,Y,,1045542,,N,N,N,N,N,N,,14,01/06/2021 00:00:00,01/08/2021 01:30:03,,N,908,1,x00,01/06/2021 00:00:00,,N,JASON WILDE,EXECUTIVE DIRECTOR,01/06/2021 00:00:00,460952065,Y,,N,N,,,,,Non-profit,UG,,,,,,07/01/2019 00:00:00,,,,US
1390541,2464402020,2020,246440,12/31/2020 00:00:00,S,A,,N,474960128,,N,079981146,MEDICAL TECHNOLOGY ENTERPRISE CONSORTIUM,315 SIGMA DRIVE,,SUMMERVILLE,SC,29486,HEATHER BENSON,ACCOUNTING MANAGER,8437603238,,HEATHER.BENSON@ATI.ORG,08/20/2021 17:04:20,JULIA MARTIN-CFO,"BDO USA, LLP","STE 300, 421 FAYETTEVILLE STREET",,RALEIGH,NC,27601,STEPHEN BRUETTE,ASSURANCE SENIOR MANAGER,9192781964,,SBRUETTE@BDO.COM,08/23/2021 08:08:09,,C,12,U,N,N,N,N,U,2287592,Y,,76253083,,N,N,N,N,N,N,,,08/23/2021 00:00:00,08/25/2021 01:30:05,,N,888,1,x00,08/23/2021 00:00:00,,N,JULIA MARTIN,CFO,08/23/2021 00:00:00,135381590,N,,N,N,,,,,Non-profit,UG,,,,,,01/01/2020 00:00:00,,,,US
1363226,1747752020,2020,174775,08/31/2020 00:00:00,S,A,,N,746001710,,N,045372539,MATHIS INDEPENDENT SCHOOL DISTRICT,602 E. SAN PATRICIO,,MATHIS,TX,78368,GAIL SHEPLER,FINANCE OFFICER,3615473378,,GSHEPLER@MATHISISD.ORG,01/08/2021 16:27:56,GAIL SHEPLER-FINANCE OFFICER,"LOVVORN & KIESCHNICK, LLP.",418 PEOPLES ST. STE 308,,CORPUS CHRISTI,TX,78401,FRANK LOVVORN,PARTNER,3618848897,,FLOVVORN@CPALK.NET,01/08/2021 14:24:20,,O,,U,N,N,N,N,U,750000,Y,,5468497,,N,N,N,N,N,N,,84,01/08/2021 00:00:00,01/14/2021 01:30:03,,N,505,1,x00,01/08/2021 00:00:00,,N,GAIL SHEPLER,FINANCE OFFICER,01/08/2021 00:00:00,203809691,N,,N,N,,,,,Local government,UG,,01/17/2021 13:29:08,01/21/2021 10:42:36,N,G,09/01/2019 00:00:00,,,,US
1376388,1774642020,2020,177464,06/30/2020 00:00:00,S,A,,N,556000314,,N,072673437,FAYETTE COUNTY COMMISSION,100 N COURT STREET,,FAYETTEVILLE,WV,25840,RUTH LANIER,COUNTY ADMINISTRATOR,3045744228,,RUTH.A.LANIER@WV.GOV,04/01/2021 05:38:51,RUTH LANIER-COUNTY ADMINISTRATOR,WV STATE AUDITORS OFFICE,"1900 KANAWHA BLVD. E., BLDG. 1, RM. W-100",,CHARLESTON,WV,25305,SAMANTHA WOODS,ASSISTANT DIRECTOR,3045582261,,SAMANTHA.WOODS@WVSAO.GOV,04/01/2021 07:02:39,,O,,UQA,Y,Y,Y,N,U,750000,N,,1323218,,N,N,N,N,N,N,,10,04/01/2021 00:00:00,04/07/2021 01:30:04,,N,100,1,x00,04/01/2021 00:00:00,,Y,RUTH LANIER,COUNTY ADMINISTRATOR,04/01/2021 00:00:00,556000802,Y,,Y,N,,,,,Local government,UG,,,,,,07/01/2019 00:00:00,,,,US
1372693,1117832020,2020,111783,06/30/2020 00:00:00,S,A,,N,860256667,,N,611923640,"A NEW LEAF, INC AND SUBSIDIARIES",868 E UNIVERSITY DRIVE,,MESA,AZ,85203,CATHERINE A. DYCIEWSKI,CHIEF FINANCIAL OFFICER,4804774014,,CDYCIEWSKI@TURNANEWLEAF.ORG,03/22/2021 09:20:50,CATHERINE DYCIEWSKIE-CFO,"HENRY & HORNE, LLP",2055 E. WARNER RD. STE 101,,TEMPE,AZ,85084,COLETTE KAMPS,PARTNER,4808394900,,COLETTEK@HHCPA.COM,03/25/2021 16:31:14,,O,,U,N,N,N,N,U,750000,Y,,10422100,,N,N,N,N,N,N,,93,03/25/2021 00:00:00,03/27/2021 01:30:03,,N,908,1,x00,03/25/2021 00:00:00,,N,CATHERINE DYCIEWSKIE,CFO,03/25/2021 00:00:00,860133881,N,,N,N,,,,,Non-profit,UG,,,,,,07/01/2019 00:00:00,,,,US
1372187,1405432020,2020,140543,03/31/2020 00:00:00,S,A,,N,366001313,,N,039642046,HOUSING AUTHORITY OF COOK COUNTY,175 W JACKSON BLVD SUITE 350,,CHICAGO,IL,606044207,KARL BECKER,CHIEF FINANCIAL OFFICER,3125424681,,KBECKER@THEHACC.ORG,03/23/2021 17:07:05,KARL BECKER-CHIEF FINANCIAL OFFICER,RSM US LLP,THIRTY SOUTH WACKER DRIVE,,CHICAGO,IL,606063392,JOSEPH EVANS ,PARTNER,3126343400,,JOSEPH.EVANS@RSMUS.COM,03/23/2021 17:15:27,,C,14,U,N,N,N,N,U,3000000,Y,,139083252,,Y,N,N,Y,Y,Y,,,03/23/2021 00:00:00,03/25/2021 01:30:03,,N,403,1,x14,03/23/2021 00:00:00,,N,KARL BECKER,CHIEF FINANCIAL OFFICER,03/23/2021 00:00:00,420714325,N,,N,Y,,,,,Local government,UG,,,,,,04/01/2019 00:00:00,,,,US
1351024,1502742020,2020,150274,06/30/2020 00:00:00,S,A,,N,381678660,,N,184200574,WYOMING PUBLIC SCHOOLS,3575 GLADIOLA ,,WYOMING,MI,49519,MATT LEWIS,DIRECTOR OF  FINANCE,6162573072,,LEWISM2@WYOMINGPS.ORG,10/13/2020 16:07:36,MATT LEWIS-ASSISTANT SUPERINTENDENT FOR FINANCE & ADMIN,MANER COSTERISAN,"2425 E. GRAND RIVER AVE., SUITE1",,LANSING,MI,48912,STEVEN P. PIESKO,PRINCIPAL,5173237500,,SPIESKO@MANERCPA.COM,10/13/2020 15:25:38,,O,,U,N,N,N,N,U,750000,Y,,7084118,,N,N,N,N,N,N,,84,10/13/2020 00:00:00,10/15/2020 01:30:06,,N,505,1,x00,10/13/2020 00:00:00,,N,MATT LEWIS,ASSISTANT SUPERINTENDENT FOR FINANCE & ADMIN,10/13/2020 00:00:00,382157642,N,,N,N,,,,,Institution of higher education (IHE),UG,,10/19/2020 12:39:08,10/22/2020 08:44:00,,N,07/01/2019 00:00:00,,,,US
1456611,2559652020,2020,255965,12/31/2020 00:00:00,S,A,,N,271696736,,N,,VETERANS LIFE CENTER,1005 9TH STREET,,BUTNER,NC,27509,JOHN TURNER,EXECUTIVE DIRECTOR,9198035516,,,11/16/2022 16:01:51,JOHN TURNER-EXECUTIVE DIRECTOR,VETERANS LIFE CENTER,5512 FRENCHMANS CREEK,,DURHAM,NC,27713,MARK DANES,MEMBER AND ORGANIZER,9194521999,,MARK@MARKSDANESCPA.COM,11/16/2022 16:49:39,,O,,U,Y,N,N,N,U,750000,N,,887418,,Y,N,N,Y,N,N,,10,11/17/2022 00:00:00,11/28/2022 01:30:06,,N,888,1,x10x00,11/17/2022 00:00:00,,N,JOHN TURNER,EXECUTIVE DIRECTOR,11/17/2022 00:00:00,461061285,N,,Y,Y,,,,,Non-profit,UG,,,,,,01/01/2020 00:00:00,,,,US
1384503,664172020,2020,66417,10/15/2020 00:00:00,S,O,10,N,431114421,,N,,THE CATHEDRAL SQUARE CORPORATION,12220 STATE LINE RAOD,,LEAWOOD,KS,66209,ALVIN GILMORE,CONTROLLER,8168614070,,ALVIN@DALMARKGROUP.COM,06/22/2021 17:07:46,ALVIN GILMORE-CONTROLLER,"MAYER HOFFMAN MCCANN, PC","700 WEST 47TH ST., SUITE 1100",,KANSAS CITY,MO,64112,BRENT WILSON,SHAREHOLDER,8169455600,,BAWILSON@CBIZ.COM,06/22/2021 18:15:00,,O,,U,N,N,N,N,U,750000,Y,,5028113,,N,N,Y,Y,N,N,,14,06/22/2021 00:00:00,06/24/2021 01:30:06,,N,903,1,x14x00,06/22/2021 00:00:00,,N,ALVIN GILMORE,CONTROLLER,06/22/2021 00:00:00,431947695,N,,N,N,,,,,Non-profit,UG,,,,,,01/01/2020 00:00:00,,,,US
1362666,1838012020,2020,183801,12/31/2020 00:00:00,S,A,,N,382471112,,N,194304825,FLINT CEREBRAL PALSY NON PROFIT HOUSING CORPORATION,"3051 COMMERCE DRIVE, SUITE 5",,FORT GRATIOT,MI,48059,HEATHER HOUSE,FISCAL SERVICES DIRECTOR,8103854463,,HHOUSE@INNOVATIVEHOUSING.ORG,04/12/2021 11:12:54,HEATHER HOUSE-FISCAL SERVICES DIRECTOR,UHY LLP,1979 HOLLAND AVENUE,,PORT HURON,MI,48060,SCOT HOSKINS,PARTNER,8102940660,,SHOSKINS@UHY-US.COM,04/12/2021 12:32:00,,O,,U,N,N,N,N,U,750000,Y,,885783,,N,N,N,N,N,N,,10,04/12/2021 00:00:00,04/14/2021 01:30:04,,N,903,1,x00,04/12/2021 00:00:00,,N,HEATHER HOUSE,FISCAL SERVICES DIRECTOR,04/12/2021 00:00:00,200694403,N,,N,N,,,,,Non-profit,UG,,,,,,01/01/2020 00:00:00,,,,US
1371473,1832612020,2020,183261,10/31/2020 00:00:00,S,A,,N,061021497,,N,832063247,"THE SENIOR HOUSING CORPORATION OF EAST HADDAM, INC.",48 WILLIAM PALMER ROAD,,MOODUS,CT,06469,MICHAEL G. HALLARIN,PROPERTY MANAGER,8603985425,,MIKE@WILDWOODMGT.COM,03/08/2021 13:17:07,MICHAEL HALLARIN-PROPERTY MANAGER,"ALAN J. TUCKER, CPA",26 HONEY HILL RD.,,NORWALK,CT,068511620,"ALAN J. TUCKER, CPA",OWNER,2038471323,,AJTUCKER@OPTONLINE.NET,03/04/2021 14:41:13,,O,,U,N,N,N,N,U,750000,Y,,1540183,,N,N,N,Y,Y,N,,10,03/08/2021 00:00:00,03/10/2021 01:30:03,,N,903,1,x10,03/08/2021 00:00:00,,N,MICHAEL HALLARIN,PROPERTY MANAGER,03/08/2021 00:00:00,061094568,N,,N,N,,,,,Non-profit,UG,,,,,,11/01/2019 00:00:00,,,,US
1366614,2481242020,2020,248124,06/30/2020 00:00:00,S,A,,N,820939828,,N,117021955,"FAMILY ALLIES, INC.",2301 EAU GALLIE BLVD,,MELBOURNE,FL,32935,DONALD JOHNSON,CHIEF FINANCIAL OFFICER,3217524650,,DONALD.JOHNSON@BREVARDFP.ORG,01/29/2021 12:44:35,DONALD JOHNSON-CFO,"MOSS, KRUSICK & ASSOCIATES, LLC","501 SOUTH NEW YORK AVE, SUITE 100",,WINTER PARK,FL,32789,ED MOSS,MANAGING PARTNER,4076445811,,MOSS@MOSSKRUSICK.COM,01/29/2021 13:14:25,,O,,U,N,Y,N,N,U,750000,N,,2030829,,N,N,N,N,N,N,,93,01/29/2021 00:00:00,02/05/2021 01:30:04,,N,888,1,x00,01/29/2021 00:00:00,,N,DONALD JOHNSON,CFO,01/29/2021 00:00:00,593017072,Y,,N,N,,,,,Non-profit,UG,,,,,,07/01/2019 00:00:00,,,,US
1401028,2120842020,2020,212084,12/31/2020 00:00:00,S,A,,N,366005791,,N,169675550,"VILLAGE OF BELLWOOD, ILLINOIS",3200 WASHINGTON BLVD,,BELLWOOD,IL,60104,WILLIE NORFLEET,FINANCE DIRECTOR,7085473500,,WNORFLEET@VIL.BELLWOOD.IL.US,11/05/2021 16:22:01,WILLIE NORFLEET-FINANCE DIRECTOR,SIKICH LLP,"1415 W DIEHL RD, SUITE 400",,NAPERVILLE,IL,60563,ANTHONY CERVINI,"PARTNER-IN-CHARGE, GOVERNMENT SERVICES",6305668574,,ANTHONY.CERVINI@SIKICH.COM,11/05/2021 16:30:04,,O,,U,Y,N,N,N,U,750000,N,,917124,,N,N,N,N,N,N,,21,11/05/2021 00:00:00,11/10/2021 01:30:05,,N,200,1,x00,11/05/2021 00:00:00,,N,WILLIE NORFLEET,FINANCE DIRECTOR,11/05/2021 00:00:00,363168081,N,,Y,N,,,,,Local government,UG,,,,,,01/01/2020 00:00:00,,,,US
1364588,1707462020,2020,170746,06/30/2020 00:00:00,S,A,,N,576000341,,N,078065455,DARLINGTON COUNTY SCHOOL DISTRICT,120 E SMITH AVENUE,,DARLINGTON,SC,29532,RENEE DOUGLAS,CHIEF FINANCIAL OFFICER,8433982275,,RENEE.DOUGLAS@DARLINGTON.K12.SC.US,01/17/2021 16:50:35,RENEE DOUGLAS-CHIEF FINANCIAL OFFICER,WEBSTERROGERS LLP,1411 SECOND LOOP RD,,FLORENCE,SC,29505,CHARLOTTE ALLEN,DIRECTOR,8438734400,,CALLEN@WEBSTERROGERS.COM,01/17/2021 17:24:51,,O,,U,N,N,N,N,U,750000,Y,,14751280,,N,N,N,N,Y,N,,84,01/19/2021 00:00:00,01/23/2021 01:30:04,,N,505,1,x00x84,01/19/2021 00:00:00,,N,RENEE DOUGLAS,CHIEF FINANCIAL OFFICER,01/19/2021 00:00:00,570776381,N,,N,N,,,,,Local government,UG,,01/26/2021 13:37:06,01/28/2021 15:12:07,N,G,07/01/2019 00:00:00,,,,US
1362474,1336492020,2020,133649,06/30/2020 00:00:00,S,A,,N,946002206,,N,077377836,FRESNO UNIFIED SCHOOL DISTRICT,2309 TULARE STREET,,FRESNO,CA,93721,KALEB NEUFELD,"DIRECTOR, FISCAL SERVICES",5594573552,,KALEB.NEUFELD@FRESNOUNIFIED.ORG,02/16/2021 19:33:58,KALEB NEUFELD-DIRECTOR OF ACCOUNTING,CROWE LLP,"400 CAPITOL MALL, SUITE 1400",,SACRAMENTO,CA,95814,JEFF JENSEN,PARTNER,9164411000,,JEFF.JENSEN@CROWE.COM,02/16/2021 17:27:35,,C,84,U,N,N,N,N,U,3000000,Y,,138630004,,N,N,N,N,N,N,,,02/17/2021 00:00:00,02/19/2021 01:30:05,,N,505,1,x00,02/17/2021 00:00:00,,N,KALEB NEUFELD,DIRECTOR OF ACCOUNTING,02/17/2021 00:00:00,350921680,N,,N,N,,,,,Local government,UG,,02/23/2021 13:15:57,02/25/2021 10:30:46,N,G,07/01/2019 00:00:00,,,,US
1353631,1642592020,2020,164259,06/30/2020 00:00:00,S,A,,N,316400815,,N,106472418,HILLIARD CITY SCHOOL DISTRICT,2140 ATLAS STREET,,COLUMBUS,OH,43228,BRIAN WILSON,TREASURER,6149217000,,BRIAN_WILSON@HBOE.ORG,03/18/2021 13:13:43,BRIAN WILSON-CFO,"KEITH FABER, AUDITOR OF STATE","88 EAST BROAD STREET, 5TH FLOOR",,COLUMBUS,OH,43215,STACIE SCHOLL,CHIEF AUDITOR,8004439275,,DCF-CENTRAL@OHIOAUDITOR.GOV,03/18/2021 08:28:14,,O,,U,N,N,N,N,U,750000,Y,,9154230,,N,N,N,N,N,N,,84,03/18/2021 00:00:00,03/20/2021 01:30:05,,N,505,1,x00,03/18/2021 00:00:00,,N,BRIAN WILSON,CFO,03/18/2021 00:00:00,311334820,N,,N,N,,,,,Local government,UG,,03/20/2021 14:32:35,03/25/2021 10:58:57,N,G,07/01/2019 00:00:00,,,,US
1391701,1945182020,2020,194518,06/30/2020 00:00:00,S,A,,N,616000797,,N,097268445,HARLAN COUNTY FISCAL COURT,P.O. BOX 956,,HARLAN,KY,40831,RYAN CREECH,COUNTY TREASURER,6065732600,,RYANCREECH@HARLANONLINE.COM,09/03/2021 15:24:16,RYAN CREECH-TREASURER,"MIKE HARMON, KENTUCKY AUDITOR OF PUBLIC ACCOUNTS",209 ST. CLAIR STREET,,FRANKFORT,KY,40601,FARRAH PETTER,ASSISTANT AUDITOR OF PUBLIC ACCOUNTS,5025645841,,FARRAH.PETTER@KY.GOV,09/02/2021 14:56:36,,O,,S,N,Y,Y,N,U,750000,N,,997766,,N,N,N,N,N,N,,21,09/03/2021 00:00:00,09/08/2021 01:30:05,,N,100,1,x00,09/03/2021 00:00:00,,N,RYAN CREECH,TREASURER,09/03/2021 00:00:00,610600439,Y,,N,N,REGULATORY,N,U,,Local government,UG,,,,,,07/01/2019 00:00:00,,,,US
1370577,21992020,2020,2199,08/31/2020 00:00:00,S,A,,N,042103652,,N,075339879,AMERICAN ANTIQUARIAN SOCIETY,185 SALISBURY STREET,,WORCESTER,MA,01609,SCOTT CASPER,PRESIDENT,5087555221,,SCASPER@MWA.ORG,03/04/2021 16:52:13,SCOTT CASPER-PRESIDENT,"BOLLUS LYNCH, LLP",89 SHREWSBURY STREET,,WORCESTER,MA,01604,JEFF SWANBERG,PARTNER,5087557107,,JSWANBERG@BOLLUSLYNCH.COM,02/26/2021 16:42:54,,O,,U,N,N,N,N,U,750000,Y,,1221401,,N,N,N,N,N,N,,06,03/04/2021 00:00:00,03/06/2021 01:30:03,,N,909,1,x00,03/04/2021 00:00:00,,N,SCOTT CASPER,PRESIDENT,03/04/2021 00:00:00,043037870,N,,N,N,,,,,Non-profit,UG,,,,,,09/01/2019 00:00:00,,,,US
1363077,2002562020,2020,200256,06/30/2020 00:00:00,S,A,,N,391490219,,N,128271041,"BAY AREA WORKFORCE DEVELOPMENT BOARD, INC.",317 W WALNUT ST,,GREEN BAY,WI,543032733,MATT VALIQUETTE,EXECUTIVE DIRECTOR,9204314110,,MVALIQUETTE@BAYAREAWDB.ORG,05/25/2021 16:51:46,MATT VALIQUETTE-EXECUTIVE DIRECTOR,"WEGNER CPAS, LLP","2921 LANDMARK PLACE, SUITE 300",,MADISON,WI,53713,SCOTT R. HAUMERSEN,PARTNER,6082744020,,SCOTT.HAUMERSEN@WEGNERCPAS.COM,05/27/2021 15:35:20,,O,,Q,N,Y,N,N,Q,750000,N,,3659848,,N,Y,N,Y,N,N,,17,05/27/2021 00:00:00,05/30/2021 01:30:03,,N,908,1,x00,05/27/2021 00:00:00,,N,MATT VALIQUETTE,EXECUTIVE DIRECTOR,05/27/2021 00:00:00,390974031,Y,,N,N,,,,,Non-profit,UG,,,,,,07/01/2019 00:00:00,,,,US
1369217,387172020,2020,38717,06/30/2020 00:00:00,S,A,,N,310958969,,N,927431783,"ST. GEORGE MEDICAL CLINIC, INC.",8591 HOLLY MEADOWS ROAD,,PARSONS,WV,26287,PAUL WAMSLEY,CEO,3044783339,,SGMCADMIN@STGEORGECLINIC.ORG,02/16/2021 08:49:34,PAUL WAMSLEY-EXECUTIVE DIRECTOR,"ARNET CARBIS TOOTHMAN, LLP","600 MARKET PLACE AVE, SUITE 100, PO BOX 908",,BRIDGEPORT,WV,26330,"WILLIAM BEHRENS, CPA",SENIOR MANAGER,3046245471,,BILL.BEHRENS@ACTCPAS.COM,02/15/2021 16:09:36,,O,,U,N,N,N,N,U,750000,N,,1866868,,N,N,N,N,N,N,,93,02/16/2021 00:00:00,02/18/2021 01:30:03,,N,908,1,x00,02/16/2021 00:00:00,,N,PAUL WAMSLEY,EXECUTIVE DIRECTOR,02/16/2021 00:00:00,550486667,N,,N,N,,,,,Non-profit,UG,,,,,,07/01/2019 00:00:00,,,,US
1364456,1519782020,2020,151978,06/30/2020 00:00:00,S,A,,N,410901311,,N,071753248,INDEPENDENT SCHOOL DISTRICT NO. 625,360 COLBORNE STREET,,SAINT PAUL,MN,55102,MARIE SCHRUL,CHIEF FINANCIAL OFFICER,6517678275,,MARIE.SCHRUL@SPPS.ORG,01/22/2021 23:19:31,MARIE SCHRUL-CHIEF FINANCIAL OFFICER,"MALLOY, MONTAGUE, KARNOWSKI, RADOSEVICH & CO., P.A.",5353 WAYZATA BLVD. SUITE 410,,MINNEAPOLIS,MN,55416,JACLYN HUEGEL,PRINCIPAL,9525450424,,JHUEGEL@MMKR.COM,01/20/2021 17:59:17,,C,84,U,N,N,N,N,U,2299950,N,,76665001,,Y,N,N,Y,N,N,,,01/22/2021 00:00:00,01/26/2021 01:30:04,,N,505,1,x00,01/22/2021 00:00:00,,N,MARIE SCHRUL,CHIEF FINANCIAL OFFICER,01/22/2021 00:00:00,411690382,N,,N,Y,,,,,Local government,UG,,,,N,G,07/01/2019 00:00:00,,,,US
1381120,778492020,2020,77849,12/31/2020 00:00:00,S,A,,N,530196932,,N,041964057,NATIONAL ACADEMY OF SCIENCES,500 5TH ST NW,,WASHINGTON,DC,20001,LAURA DOUGLAS ,CONTROLLER,2023343003,,LDOUGLAS@NAS.EDU,07/12/2021 14:53:05,LAURA DOUGLAS-CONTROLLER,GRANT THORNTON LLP,445 BROADHOLLOW ROAD,,MELVILLE,NY,11747,NICHOLAS LAZZARUOLO,PARTNER,6315771866,,NICHOLAS.LAZZARUOLO@US.GT.COM,07/13/2021 10:27:22,,C,20,U,N,N,N,N,U,3000000,Y,,197257000,,N,N,N,N,N,N,,,07/13/2021 00:00:00,07/15/2021 01:30:05,,N,909,1,x00,07/13/2021 00:00:00,,N,LAURA DOUGLAS,CONTROLLER,07/13/2021 00:00:00,366055558,N,,N,N,,,,,Non-profit,UG,,,,,,01/01/2020 00:00:00,,,,US
1363693,1708062020,2020,170806,06/30/2020 00:00:00,S,A,,N,570752636,,N,100071620,SPARTANBURG COUNTY SCHOOL DISTRICT FOUR,118 MCEDCO RD,,WOODRUFF,SC,29388,CHRISTOPHER B BENFIELD,BUSINESS MANAGER,8644763186,,CBENFIELD@SPARTANBURG4.ORG,01/08/2021 15:42:38,CHRISTOPHER B BENFIELD-BUSINES MANAGER,CHERRY BEKAERT LLP,110 EAST COURT STREET SUITE 500,,GREENVILLE,SC,29601,ALAN M ROBINSON,PARTNER,8642333981,,AROBINSON@CBH.COM,01/08/2021 14:10:04,,O,,U,N,N,N,N,U,750000,Y,,3101289,,N,N,N,N,N,N,,84,01/14/2021 00:00:00,01/20/2021 01:30:04,,N,505,1,x00,01/14/2021 00:00:00,,N,CHRISTOPHER B BENFIELD,BUSINES MANAGER,01/14/2021 00:00:00,590574444,N,,N,N,,,,,Local government,UG,,01/23/2021 13:54:59,01/28/2021 15:12:07,N,G,07/01/2019 00:00:00,,,,US
1394206,2485802020,2020,248580,12/31/2020 00:00:00,S,A,,N,751895412,,N,,CASA OF TARRANT COUNTY,"101 SUMMIT AVENUE, SUITE 505",,FORT WORTH,TX,76102,DON BINNICKER,CEO,8178775891,,DON.BINNICKER@CASATC.ORG,09/27/2021 11:37:27,DON BINNICKER-CHIEF EXECUTIVE OFFICER,J.TAYLOR AND ASSOCIATES,4800 OVERTON PLAZA SUITE 360,,FORT WORTH,TX,76109,PAUL KELSEY,PRINCIPAL,8179245900,,PKELSEY@JTAYLOR.COM,09/24/2021 10:10:00,,O,,U,N,N,N,N,U,750000,N,,1010386,,Y,N,N,Y,Y,N,,96,09/27/2021 00:00:00,09/29/2021 01:30:03,,N,888,1,x00x16,09/27/2021 00:00:00,,N,DON BINNICKER,CHIEF EXECUTIVE OFFICER,09/27/2021 00:00:00,752795393,N,,N,Y,,,,,Non-profit,UG,,,,,,01/01/2020 00:00:00,,,,US
1375566,1822022020,2020,182202,06/30/2020 00:00:00,S,A,,N,231707331,,N,,LACKAWANNA SUSQUEHANNA BH ID EI PROGRAM,123 WYOMING AVENUE,,SCRANTON,PA,18503,MARYANN COLBERT,ADMINISTRATOR,5703465741,,VASKOK@LSBHIDEI.ORG,03/30/2021 09:38:02,KATERINA VASKO-CFO,BARBETTI MCHALE LLC CERTIFIED PUBLIC ACCOUNTANTS,1421 EAST DRINKER STREET,,DUNMORE,PA,18512,MICHAEL MCHALE,CPA,5703462057,,CCELLI@MABCPA.COM,03/30/2021 14:09:29,,O,,U,N,N,N,N,U,750000,Y,,1902348,,N,N,N,N,N,N,,93,03/30/2021 00:00:00,04/01/2021 01:30:04,,N,908,1,x00,03/30/2021 00:00:00,,N,KATERINA VASKO,CFO,03/30/2021 00:00:00,851549759,N,,N,N,,,,,Local government,UG,,04/05/2021 13:51:01,04/08/2021 06:51:55,,N,07/01/2019 00:00:00,,,,US
1389789,2392862020,2020,239286,12/31/2020 00:00:00,S,A,,N,237032226,,N,,FIRST RISING MT. ZION BAPTIST CHURCH HOUSING CORP.,602 N STREET NW,,WASHINGTON,DC,20001,PATRICIA TUNSTALL,CONTROLLER,2025885050,,PATRICIATUNSTALL@HOTMAIL.COM,08/09/2021 16:51:07,PATRICIA TUNSTALL-ACCOUNTANT,"DEMBO JONES, P.C.","6116 EXECUTIVE BLVD, SUITE 500",,NORTH BETHESDA,MD,20852,KAM LEE,DIRECTOR,3017705100,,KLEE@DEMBOJONES.COM,08/06/2021 17:48:26,,O,,U,N,N,N,N,U,750000,Y,,22971960,,N,N,N,N,N,N,,14,08/09/2021 00:00:00,08/11/2021 01:30:05,,N,888,1,x00,08/09/2021 00:00:00,,N,PATRICIA TUNSTALL,ACCOUNTANT,08/09/2021 00:00:00,521073331,N,,N,N,,,,,Non-profit,UG,,,,,,01/01/2020 00:00:00,,,,US
1359997,2083642020,2020,208364,09/30/2020 00:00:00,S,A,,N,382207923,,N,089968606,"MANISTEE COUNTY TRANSPORTATION, INC.",180 MEMORIAL DR,,MANISTEE,MI,49660,RICHARD STREVEY,GENERAL MANAGER,2317231664,,RICHARD@MANISTEEBUS.COM,02/05/2021 12:33:21,RICHARD STREVEY-GENERAL MANAGER,"BAIRD, COTTER AND BISHOP, PC",134 W HARRIS STREET,,CADILLAC,MI,49601,RYAN HOWELL,PARTNER,2317759789,,RHOWELL@BCBCPA.COM,02/08/2021 08:15:13,,O,,U,Y,N,N,N,U,750000,N,,894577,,N,N,N,N,N,N,,20,02/08/2021 00:00:00,02/10/2021 01:30:03,,N,406,1,x00,02/08/2021 00:00:00,,N,RICHARD STREVEY,GENERAL MANAGER,02/08/2021 00:00:00,381995866,N,,Y,N,,,,,Local government,UG,,,,,,10/01/2019 00:00:00,,,,US
1379786,2493912020,2020,249391,09/30/2020 00:00:00,S,A,,N,593649914,,N,196164110,CITY OF BONITA SPRINGS,9101 BONITA BEACH ROAD,,BONITA SPRINGS,FL,34135,LISA ROBERSON,FINANCE DIRECTOR,2399496262,,LISA.ROBERSON@CITYOFBONITASPRINGS.ORG,05/12/2021 13:30:15,LISA ROBERSON-FINANCE DIRECTOR,"ASHLEY, BROWN & SMITH",366 E. OLYMPIA AVE,,PUNTA GORDA,FL,33950,TONY J. SMITH,AUDIT MANAGER,9416396600,,TONY@ASHLEYBROWNCPAS.COM,04/29/2021 17:05:04,,O,,U,N,N,N,N,U,750000,Y,,2222535,,N,N,N,N,N,N,,14,05/12/2021 00:00:00,05/14/2021 01:30:03,,N,888,1,x00,05/12/2021 00:00:00,,N,LISA ROBERSON,FINANCE DIRECTOR,05/12/2021 00:00:00,650771429,N,,N,N,,,,,Local government,UG,,,,,,10/01/2019 00:00:00,,,,US
1421695,1942082020,2020,194208,12/31/2020 00:00:00,S,A,,N,586001198,,N,,THE FULTON - DEKALB HOSPITAL AUTHORITY,80 JESSIE HILL DRIVE,,ATLANTA,GA,30303,CHARLES MURDAUGH,DIRECTOR INTERNAL AUDIT,4046167744,,CMURDAUGH@GMH.EDU,05/06/2022 09:26:33,CHARLES MURDAUGH-CHARLES MURDAUGH,BANKS FINELY WHITE AND CO,3504 EAST MAIN STREET,,COLLEGE PARK,GA,30337,DAVID MOORE,AUDIT MANAGER,4047631002,,DMOORE@BFWCPA.COM,05/05/2022 12:37:28,,O,,U,N,N,N,N,U,750000,Y,,37422542,,N,N,N,N,N,N,,93,05/06/2022 00:00:00,05/11/2022 01:30:04,,N,402,1,x00,05/06/2022 00:00:00,,N,CHARLES MURDAUGH,CHARLES MURDAUGH,05/06/2022 00:00:00,581779663,N,,N,N,,,,,Non-profit,UG,00411700,05/10/2022 13:10:31,05/12/2022 07:23:29,N,B,01/01/2020 00:00:00,,,,US
1385783,2320092020,2020,232009,06/30/2020 00:00:00,S,A,,N,611043635,,N,019093134,"FEEDING AMERICA, KENTUCKY'S HEARTLAND, INC.",313 PETERSON DR.,,ELIZABETHTOWN,KY,42701,KATHY DILE,DIR. OF FINANCE,2707696997,,KDILE@FEEDINGAMERICAKY.ORG,06/28/2021 09:54:47,KATHY DILE-DIRECTOR OF FINANCE & ADMINISTRATION,HEARTLAND CPAS AND ADVISORS PLLC,2901 RING ROAD,,ELIZABETHTOWN,KY,42701,PHILIP LOGSDON,CPA,2707696371,,PHILIP@HEARTLANDKYCPAS.COM,06/29/2021 08:28:03,,O,,U,N,N,N,N,U,750000,N,,17226762,,N,N,N,N,N,N,,10,06/30/2021 00:00:00,07/03/2021 01:30:06,,N,908,1,x00,06/30/2021 00:00:00,,N,KATHY DILE,DIRECTOR OF FINANCE & ADMINISTRATION,06/30/2021 00:00:00,842120524,N,,N,N,,,,,Non-profit,UG,,,,,,07/01/2019 00:00:00,,,,US
1378728,2482712020,2020,248271,12/31/2020 00:00:00,S,A,,N,473061703,,N,,FIRST SOUTHWEST COMMUNITY FUND,720 MAIN STREET,,ALAMOSA ,CO,81101,CASS WALKER HARVEY,EXECUTIVE DIRECTOR ,9707491600,,CASS.WALKER@FSWCF.ORG,05/04/2021 10:16:33,CASS WALKER -EXECUTIVE DIRECTOR,"WALL, SMITH, BATEMAN INC.",3001 ADCOCK CIRCLE,,ALAMOSA,CO,81101,KIMBERLEY TEMPLE ,SHAREHOLDER ,7195893619,,KIMB@WSBCPA.COM,05/05/2021 10:31:08,,O,,U,N,Y,N,N,U,750000,N,,3754772,,N,N,N,N,N,N,,10,05/05/2021 00:00:00,05/07/2021 01:30:03,,N,888,1,x00,05/05/2021 00:00:00,,N,CASS WALKER ,EXECUTIVE DIRECTOR,05/05/2021 00:00:00,840684388,Y,,N,N,,,,,State,UG,,,,,,01/01/2020 00:00:00,,,,US
1352955,2057932020,2020,205793,06/30/2020 00:00:00,S,A,,N,386027969,,N,025637091,GLEN LAKE COMMUNITY SCHOOLS,3375 W. BURDICKVILLE RD.,,MAPLE CITY,MI,49664,LEANN EUSTICE,BUSINESS MANAGER,2313343061,,EUSTICEL@MYLAKERS.ORG,10/29/2020 15:01:48,LEANN EUSTICE-BUSINESS MANAGER,"DENNIS, GARTLAND & NIERGARTH","415 MUNSON AVE., SUITE 201",,TRAVERSE CITY,MI,49686,HEIDI WENDEL,PARTNER,2319461722,,HWENDEL@DGNCPA.COM,10/30/2020 13:20:49,,O,,U,N,N,N,N,U,750000,Y,,3611269,,N,N,N,N,N,N,,84,10/30/2020 00:00:00,11/03/2020 01:30:04,,N,505,1,x00,10/30/2020 00:00:00,,N,LEANN EUSTICE,BUSINESS MANAGER,10/30/2020 00:00:00,202349670,N,,N,N,,,,,Local government,UG,,11/03/2020 11:03:55,11/05/2020 08:21:55,N,G,07/01/2019 00:00:00,,,,US
1364878,1996372020,2020,199637,06/30/2020 00:00:00,S,A,,N,466001278,,N,193065802,MCLAUGHLIN SCHOOL DISTRICT NO. 15-2,601 MAIN STREET,,MCLAUGHLIN,SD,57642,KENDRA SANDQUIST,BUSINESS MANAGER,6058234484,,KENDRA.SANDQUIST@K12.SD.US,05/27/2021 17:10:51,KENDRA SANDQUIST-BUSINESS MANAGER,KOHLMAN BIERSCHBACH & ANDERSON LLP,PO BOX 460,,MOBRIDGE,SD,57601,CHRISTINE OLSEN,"CPA, PARTNER",6058453658,,CHRISTINE.OLSEN@KBACPAS.COM,05/27/2021 17:04:57,,O,,U,N,Y,Y,N,U,750000,N,,5069993,,N,N,N,N,N,N,,84,05/27/2021 00:00:00,05/29/2021 01:30:03,,N,505,1,x00,05/27/2021 00:00:00,,N,KENDRA SANDQUIST,BUSINESS MANAGER,05/27/2021 00:00:00,460283230,Y,,N,N,,,,,Local Government,UG,,05/29/2021 12:12:41,06/03/2021 07:45:22,N,G,07/01/2019 00:00:00,,,,US
1343332,1357002020,2020,135700,06/30/2020 00:00:00,S,A,,N,066002038,,N,,"TOWN OF MONROE, CONNECTICUT",7 FAN HILL ROAD,,MONROE,CT,06468,"RONALD BUNOVSKY, JR",FINANCE DIRECTOR,2034522800,,RBUNOVSKY@MONROECT.ORG,02/25/2021 11:35:55,RONALD J. BUNOVSKY-DIRECTOR OF FINANCE,"PKF O'CONNOR DAVIES, LLP",100 GREAT MEADOW ROAD,,WETHERSFIELD,CT,06109,JOSEPH CENTOFANTI,PARTNER,8604193402,,JCENTOFANTI@PKFOD.COM,02/25/2021 11:18:22,,O,,U,N,N,N,N,U,750000,Y,,1388731,,N,N,N,N,N,N,,93,02/25/2021 00:00:00,02/27/2021 01:30:12,,N,300,1,x00,02/25/2021 00:00:00,,N,RONALD J. BUNOVSKY,DIRECTOR OF FINANCE,02/25/2021 00:00:00,271728945,N,,N,N,,,,,Local government,UG,,02/28/2021 14:26:51,03/04/2021 11:28:42,N,G,07/01/2019 00:00:00,,,,US
1352127,1851282020,2020,185128,03/31/2020 00:00:00,S,A,,N,020474973,,N,102372906,ROCKINGHAM ECONOMIC DEVELOPMENT CORPORATION,57 MAIN STREET,,RAYMOND,NH,03077,LAUREL ADAMS,PRESIDENT,6037722655,,LAUREL@REDC.COM,10/23/2020 13:29:32,LAUREL BISTANY-PRESIDENT,FRITZ DEGUGLIELMO LLC,8 ESSEX STREET,,NEWBURPORT,MA,01950,DANIEL SCHAFFNER,PARTNER,9784622161,,OLIVERB@FD-CPA.COM,10/22/2020 07:43:30,,O,,U,N,N,N,N,U,750000,Y,,3363773,,N,N,N,N,N,N,,21,10/23/2020 00:00:00,10/28/2020 01:30:05,,N,909,1,x00,10/23/2020 00:00:00,,N,LAUREL BISTANY,PRESIDENT,10/23/2020 00:00:00,043447507,N,,N,N,,,,,Non-profit,UG,,,,,,04/01/2019 00:00:00,,,,US
1351227,1861832020,2020,186183,06/30/2020 00:00:00,S,A,,N,770309119,,N,,"PEACE GROVE, INC.",22645 GRAND STREET,,HAYWARD,CA,94541,JULIA CERNA,ASSISTANT CONTROLLER,5105821460,,JCERNA@EDENHOUSING.ORG,10/30/2020 19:07:03,JULIA CERNA-ASSISTANT CONTROLLER,"LINDQUIST, VON HUSEN & JOYCE LLP","301 HOWARD STREET, SUITE 850",,SAN FRANCISCO,CA,94105,RITA B. DELA CRUZ,PARTNER,4159579999,,RDELACRUZ@LVHJ.COM,10/28/2020 18:22:45,,O,,U,N,N,N,N,U,750000,Y,,2061622,,N,N,N,N,N,N,,14,10/30/2020 00:00:00,11/03/2020 01:30:04,,N,903,1,x00,10/30/2020 00:00:00,,N,JULIA CERNA,ASSISTANT CONTROLLER,10/30/2020 00:00:00,941250261,N,,N,N,,,,,Non-profit,UG,,,,,,07/01/2019 00:00:00,,,,US
1353873,1458092020,2020,145809,06/30/2020 00:00:00,S,A,,N,480723971,,N,086790987,SHAWNEE HEIGHTS UNIFIED SCHOOL DISTRICT NO. 450,4401 SE SHAWNEE HEIGHTS ROAD,,TECUMSEH,KS,665429537,SARA HOYER,BUSINESS AND FINANCE DIRECTOR,7853795800,,HOYERS@USD450.NET,02/09/2021 09:38:30,SARA HOYER-DIRECTOR OF BUSINESS & FINANCE,"BT&CO., P.A.",4301 SW HUNTOON STREET,,TOPEKA,KS,66604,KAREN LINN,MANAGING DIRECTOR,7852343427,,KLINN@BTANDCOCPA.COM,02/04/2021 13:17:43,,O,,S,N,N,N,N,U,750000,N,,2177979,,N,N,N,N,N,N,,84,02/09/2021 00:00:00,02/12/2021 01:30:03,,N,505,1,x00,02/09/2021 00:00:00,,N,SARA HOYER,DIRECTOR OF BUSINESS & FINANCE,02/09/2021 00:00:00,481066439,N,,N,N,REGULATORY,N,U,,Local government,UG,,02/16/2021 11:08:32,02/18/2021 09:52:14,N,G,07/01/2019 00:00:00,,,,US
1396300,1298712020,2020,129871,12/31/2020 00:00:00,S,A,,N,926000082,,N,076660752,CITY OF KETCHIKAN,334 FRONT STREET,,KETCHIKAN,AK,99901,CAMILLE NELSON,FINANCIAL ANALYST,9072253111,,CAMILLEN@CITY.KETCHIKAN.AK.US,09/30/2021 18:32:47,MICHELLE JOHANSEN-FINANCE DIRECTOR,"TEUSCHER WALPOLE, LLC.","11910 S. STATE STREET, STE 200",,DRAPER,UT,84020,BRET RABY,AUDITOR,8016191400,,BRETR@TRWLLC.COM,09/30/2021 19:03:08,,O,,U,N,N,N,N,U,750000,N,,12663020,,N,N,N,N,N,N,,21,09/30/2021 00:00:00,10/07/2021 01:30:03,,N,200,1,x00,09/30/2021 00:00:00,,N,MICHELLE JOHANSEN,FINANCE DIRECTOR,09/30/2021 00:00:00,274029610,N,,N,N,,,,,Local government,UG,,,,,,01/01/2020 00:00:00,,,,US
1373297,1430532020,2020,143053,06/30/2020 00:00:00,S,A,,N,351263704,,N,049681554,"HOUSING AUTHORITY OF THE CITY OF MARION, IN",601 S ADAMS STREET,,MARION,IN,469532042,STEVE SAPP,EXECUTIVE DIRECTOR,7566645194,,STEVE@MARIONHA.COM,05/18/2021 10:55:07,LEAH POLAND-ASSISTANT DIRECTOR/CFO,APRIO,1200 CORPORATE DRIVE,,BIRMINGHAM,AL,35242,REBECCA MCCUNE,CPA,2059915506,,BECKY.MCCUNE@APRIO.COM,05/18/2021 12:29:19,,O,,U,N,N,N,N,U,750000,Y,,3943450,,N,N,N,N,N,N,,14,05/18/2021 00:00:00,05/20/2021 01:30:03,,N,403,1,x00,05/18/2021 00:00:00,,N,LEAH POLAND,ASSISTANT DIRECTOR/CFO,05/18/2021 00:00:00,571157523,N,,N,N,,,,,Local government,UG,,,,,,07/01/2019 00:00:00,,,,US
1387005,2507922020,2020,250792,12/31/2020 00:00:00,P,A,,N,931224982,,N,964251339,BENDNEXT,"777 NW WALL STREET, SUITE 200",,BEND,OR,97701,BOB SAVAGE,DIRECTOR OF FINANCE,5413823221,,BOB@BENDCHAMBER.ORG,07/12/2021 15:34:29,BOB SAVAGE-DIRECTOR OF FINANCE,PRICE FRONK & CO.,2796 NW CLEARWATER DRIVE,,BEND,OR,97703,HEATHER MCMEEKIN,PARTNER,5413824791,,MCMEEKIN@BENDCPA.COM,07/13/2021 17:12:25,,O,,U,Y,N,N,N,U,750000,N,,1297748,,Y,N,N,Y,N,N,,21,07/13/2021 00:00:00,07/16/2021 01:30:03,,N,888,1,x00,07/13/2021 00:00:00,,N,BOB SAVAGE,DIRECTOR OF FINANCE,07/13/2021 00:00:00,930620214,N,,Y,Y,,,,,Non-profit,UG,,,,,,01/01/2020 00:00:00,,,,US
1354468,1299182020,2020,129918,06/30/2020 00:00:00,S,A,,N,926000113,,N,103809653,SITKA SCHOOL DISTRICT,300 KOSTROMETINOFF STREET,,SITKA,AK,99835,CASSEE OLIN,BUSINESS MANAGER,9079661254,,OLINC@SITKASCHOOLS.ORG,12/03/2020 00:44:25,CASSEE OLIN-BUSINESS MANAGER,"ALTMAN, ROGERS & CO.","3000 C ST. N., SUITE 201",,ANCHORAGE,AK,99503,STEVE WADLEIGH,PRINCIPAL,9072742992,,FEDCENSUS@ALTROGCO.COM,11/13/2020 16:55:40,,O,,U,N,N,N,N,U,750000,Y,,2522285,,N,N,N,N,N,N,,84,12/03/2020 00:00:00,12/05/2020 01:30:05,,N,205,1,x00,12/03/2020 00:00:00,,N,CASSEE OLIN,BUSINESS MANAGER,12/03/2020 00:00:00,920143182,N,,N,N,,,,,Local government,UG,,12/14/2020 15:32:31,12/17/2020 06:08:21,N,G,07/01/2019 00:00:00,,,,US
1376092,2164802020,2020,216480,12/31/2020 00:00:00,S,A,,N,311135813,,N,964672732,"OBGC II, INC. 042-EH341",3409 E. BROAD STREET,,COLUMBUS,OH,43213,DAVID PHILLIPS,ACCOUNTING MANAGER,6144524184,,DPHILLIPS@B360MGT.COM,04/26/2021 09:46:56,DAVID PHILLIPS-DIRECTOR OF ACCOUNTING,"TIDWELL GROUP, LLC","4249 EASTON WAY, SUITE 210",,COLUMBUS,OH,43219,"CHRIS BAILEY, CPA",PARTNER,6145281443,,CHRIS.BAILEY@TIDWELLGROUP.COM,04/26/2021 12:34:46,,O,,U,N,N,N,N,U,750000,Y,,987797,,N,N,N,N,N,N,,14,04/26/2021 00:00:00,04/28/2021 01:30:03,,N,903,1,x00,04/26/2021 00:00:00,,N,DAVID PHILLIPS,DIRECTOR OF ACCOUNTING,04/26/2021 00:00:00,271490692,N,,N,N,,,,,Non-profit,UG,,,,,,01/01/2020 00:00:00,,,,US
