ELECAUDITHEADERID,ID,AUDITYEAR,DBKEY,FYENDDATE,AUDITTYPE,PERIODCOVERED,NUMBERMONTHS,MULTIPLEEINS,EIN,EINSUBCODE,MULTIPLEDUNS,DUNS,AUDITEENAME,STREET1,STREET2,CITY,STATE,ZIPCODE,AUDITEECONTACT,AUDITEETITLE,AUDITEEPHONE,AUDITEEFAX,AUDITEEEMAIL,AUDITEEDATESIGNED,AUDITEENAMETITLE,CPAFIRMNAME,CPASTREET1,CPASTREET2,CPACITY,CPASTATE,CPAZIPCODE,CPACONTACT,CPATITLE,CPAPHONE,CPAFAX,CPAEMAIL,CPADATESIGNED,CPANAMETITLE,COG_OVER,COGAGENCY,TYPEREPORT_FS,REPORTABLECONDITION,MATERIALWEAKNESS,MATERIALNONCOMPLIANCE,GOINGCONCERN,TYPEREPORT_MP,DOLLARTHRESHOLD,LOWRISK,REPORTREQUIRED,TOTFEDEXPEND,COPIES,REPORTABLECONDITION_MP,MATERIALWEAKNESS_MP,QCOSTS,CYFINDINGS,PYSCHEDULE,DUP_REPORTS,COG_AGENCY,OVERSIGHTAGENCY,DATERECEIVED,DATEFIREWALL,PREVIOUSDATEFIREWALL,FINDINGREFNUM,TYPEOFENTITY,IMAGE,AGENCYCFDA,INITIALDATE,DATERECEIVEDOTHER,MULTIPLE_CPAS,AUDITEECERTIFYNAME,AUDITEECERTIFYTITLE,FACACCEPTEDDATE,AUDITOR_EIN,SD_MATERIALWEAKNESS,SD_MATERIALWEAKNESS_MP,SIGNIFICANTDEFICIENCY,SIGNIFICANTDEFICIENCY_MP,SP_FRAMEWORK,SP_FRAMEWORK_REQUIRED,TYPEREPORT_SP_FRAMEWORK,SUPPRESSION_CODE,ENTITY_TYPE,TYPEAUDIT_CODE,OPEID,DATETOED,DATEFINISHED,TYPEFINDING,TYPEFUNDING,FYSTARTDATE,CPAFOREIGN,UEI,MULTIPLEUEIS,CPACOUNTRY
1435577,116742021,2021,11674,09/30/2021 00:00:00,S,A,,N,132612524,,N,073279945,"FUND FOR THE CITY OF NEW YORK, INC.",121 6TH AVENUE,,NEW YORK,NY,10013,LISETTE NIEVES,PRESIDENT,2129256675,,LNIEVES@FCNY.ORG,06/24/2022 09:08:24,LISETTE NIEVES-PRESIDENT,SOBEL & CO LLC,293 EISENHOWER PARKWAY,,LIVINGSTON,NJ,07039,TARA DEL GAVIO,PARTNER,9739949494,,TARA.DELGAVIO@SOBELCOLLC.COM,06/23/2022 17:21:34,,O,,U,N,N,N,N,U,750000,Y,,10285063,,N,N,N,N,N,N,,16,06/24/2022 00:00:00,06/28/2022 01:30:04,,N,909,1,x00,06/24/2022 00:00:00,,N,LISETTE NIEVES,PRESIDENT,06/24/2022 00:00:00,221430039,N,,N,N,,,,,Non-profit,UG,,07/05/2022 12:38:06,07/07/2022 10:24:59,N,G,10/01/2020 00:00:00,,,,US
1409637,1517342021,2021,151734,06/30/2021 00:00:00,S,A,,N,416000507,,N,,"INDEPENDENT SCHOOL DISTRICT #129, MONTEVIDEO, MINNESOTA",2001 WILLIAMS AVENUE,,MONTEVIDEO,MN,56265,ADAM SPRAY,CHIEF SCHOOL BUSINESS OFFICIAL,3202698833,,ADAMS@MONTEVIDEOSCHOOLS.ORG,12/21/2021 16:59:44,ADAM SPRAY-CHIEF SCHOOL BUSINESS OFFICIAL,"DANA F. COLE & COMPANY, LLP","590 S. HWY 29, SUITE 1",,MONTEVIDEO,MN,56265,NANCY AAGESEN,PARTNER,3203211571,,AAGESEN@DANACOLE.COM,12/21/2021 18:00:07,,O,,U,Y,N,N,N,U,750000,N,,2550812,,N,N,N,N,N,N,,84,12/21/2021 00:00:00,12/27/2021 01:30:03,,N,505,1,x00,12/21/2021 00:00:00,,N,ADAM SPRAY,CHIEF SCHOOL BUSINESS OFFICIAL,12/21/2021 00:00:00,470526649,N,,Y,N,,,,,Local government,UG,,01/09/2022 14:32:54,01/13/2022 10:51:06,N,G,07/01/2020 00:00:00,,,,US
1417711,2524942021,2021,252494,06/30/2021 00:00:00,S,A,,N,226002037,,N,,LITTLE FALLS BOARD OF EDUCATION,32 STEVENS AVE.,,LITTLE FALLS,NJ,07424,MELISSA SANZARI-STEVENS,SCHOOL BUSINESS ADMINISTRATOR,9732567371,,MSTEVENS@LFSCHOOLS.ORG,03/10/2022 07:34:57,MELISSA SANZARI-STEVENS-SCHOOL BUSINESS ADMINISTRATOR,"LERCH, VINCI & HIGGINS, LLP",17-17 ROUTE 208 NORTH,,FAIR LAWN ,NJ,07410,PAUL J. LERCH,PARTNER,2017917100,,PLERCH@LVHCPA.COM,03/10/2022 07:02:16,,O,,U,N,N,N,N,U,750000,N,,1123949,,N,N,N,N,N,N,,84,03/10/2022 00:00:00,03/12/2022 01:30:04,,N,888,1,x00,03/10/2022 00:00:00,,N,MELISSA SANZARI-STEVENS,SCHOOL BUSINESS ADMINISTRATOR,03/10/2022 00:00:00,223015339,N,,N,N,,,,,Local government,UG,,03/12/2022 14:41:13,03/17/2022 08:13:30,N,G,07/01/2020 00:00:00,,,,US
1416468,2508822021,2021,250882,09/30/2021 00:00:00,S,A,,N,550566290,,N,087571733,EASTERN OHIO REGIONAL TRANSIT AUTHORITY,21 SOUTH HURON STREET,,WHEELING,WV,26003,LISA WEISHAR,EXECUTIVE DIRECTOR,3042322190,,WEISHAR@OVRTA.ORG,03/10/2022 09:22:25,MELISSA WEISHAT-EXECUTIVE DIRECTOR,"KEITH FABER, AUDITOR OF STATE",88 EAST BROAD STREET,,COLUMBUS,OH,43215,SHANE M. STATLER,CHIEF AUDITOR,7405943300,,DCF-SOUTHEAST@OHIOAUDITOR.GOV,03/10/2022 07:12:28,,O,,U,N,Y,N,N,U,750000,N,,1129646,,N,N,N,N,N,N,,20,03/10/2022 00:00:00,03/12/2022 01:30:04,,N,406,1,x00,03/10/2022 00:00:00,,N,MELISSA WEISHAT,EXECUTIVE DIRECTOR,03/10/2022 00:00:00,311334820,Y,,N,N,,,,,Local government,UG,,,,,,10/01/2020 00:00:00,,,,US
1394975,107592021,2021,10759,06/30/2021 00:00:00,S,A,,N,131641075,,N,544552435,"NATIONAL BUREAU OF ECONOMIC RESEARCH, INC.",1050 MASSACHUSETTS AVENUE,,CAMBRIDGE,MA,021385359,KELLY HORAK,CONTROLLER,6178682742,,HORAK@NBER.ORG,10/07/2021 15:31:22,KELLY HORAK-CONTROLLER,"AAFCPAS, INC.",50 WASHINGTON STREET,,WESTBOROUGH,MA,01581,CHARLES WEBB,PARTNER,5083669100,,CWEBB@AAFCPA.COM,10/05/2021 11:53:47,,O,,U,N,N,N,N,U,766825,Y,,25553739,,N,N,N,N,N,N,,93,10/07/2021 00:00:00,10/13/2021 01:30:03,,N,909,1,x00,10/07/2021 00:00:00,,N,KELLY HORAK,CONTROLLER,10/07/2021 00:00:00,042571780,N,,N,N,,,,,Non-profit,UG,,10/13/2021 11:39:05,10/14/2021 07:29:22,N,G,07/01/2020 00:00:00,,,,US
1409726,2518072021,2021,251807,06/30/2021 00:00:00,S,A,,N,237109141,,N,,STRATEGIC OHIO COUNCIL FOR HIGHER EDUCATION,3155 RESEARCH BLVD. SUITE 204,,DAYTON,OH,454204015,CASSIE BARLOW,PRESIDENT,9372588890,,CASSIE.BARLOW@SOCHE.ORG,12/21/2021 16:43:49,CASSIE BARLOW-PRESIDENT,"CLARK, SCHAEFER, HACKETT & CO.","10100 INNOVATION DRIVE, SUITE 400",,DAYTON,OH,45342,DAVID COOMER,SHAREHOLDER,9372250070,,DCOOMER@CSHCO.COM,12/21/2021 09:19:28,,O,,U,N,N,N,N,U,750000,Y,,2647482,,N,N,N,N,N,N,,12,12/22/2021 00:00:00,12/27/2021 01:30:03,,N,888,1,x00,12/22/2021 00:00:00,,N,CASSIE BARLOW,PRESIDENT,12/22/2021 00:00:00,310800053,N,,N,N,,,,,Non-profit,UG,,,,,,07/01/2020 00:00:00,,,,US
1417423,2064352021,2021,206435,09/30/2021 00:00:00,S,A,,N,621599670,,N,806634093,"BAPTIST MEMORIAL COLLEGE OF HEALTH SCIENCES, INC",1003 MONROE AVENUE ,,MEMPHIS,TN,38104,LEANNE SMITH,"VP, FINANCIAL AND BUSINESS SERVICES",9015722440,,LEANNE.SMITH@BAPTISTU.EDU,02/09/2022 17:30:52,"LEANNE SMITH-VP, FINANCIAL SERVICES","DELOITTE & TOUCHE, LLP",6075 POPLAR AVENUE SUITE 350,,MEMPHIS,TN,38119,ANDREW WARREN,AUDIT MANAGING DIRECTOR,6153134332,,GWARREN@DELOITTE.COM,02/10/2022 14:05:43,,O,,U,N,N,N,N,U,750000,Y,,11502357,,N,N,N,N,N,N,,84,02/10/2022 00:00:00,02/12/2022 01:30:04,,N,904,1,x00,02/10/2022 00:00:00,,N,LEANNE SMITH,"VP, FINANCIAL SERVICES",02/10/2022 00:00:00,133891517,N,,N,N,,,,,Institution of higher education (IHE),UG,03440300,02/13/2022 15:05:19,02/17/2022 09:46:06,N,B,10/01/2020 00:00:00,,,,US
1412178,2288452021,2021,228845,09/30/2021 00:00:00,S,A,,N,510564672,,N,969275911,COMMUNITY APARTMENTS CORPORATION OF HAYWOOD COUNTY,353 E. SIX FORKS ROAD SUITE 300,,RALEIGH,NC,27609,LISA PARDUE,DIRECTOR OF HOUSING SERVICES,3362734404,,,04/28/2022 15:56:07,LISA PARDUE-DIRECTOR OF HOUSING,"APPLE, KOCEJA & ASSOCIATES, PA",445 DOLLEY MADISON ROAD SUITE 202,,GREENSBORO,NC,27410,BRETT KOCEJA,SHAREHOLDER,3368544277,,BRETT@AKACPA.COM,04/22/2022 18:47:33,,O,,U,N,N,N,N,U,750000,Y,,1487934,,N,N,N,N,N,N,,14,04/28/2022 00:00:00,05/03/2022 01:30:04,,N,903,1,x00,04/28/2022 00:00:00,,N,LISA PARDUE,DIRECTOR OF HOUSING,04/28/2022 00:00:00,561793406,N,,N,N,,,,,Non-profit,UG,,,,,,10/01/2020 00:00:00,,,,US
1437338,2278982021,2021,227898,12/31/2021 00:00:00,S,A,,N,611164775,,N,035344733,THE HEALING PLACE INC. AND SUBSIDIARIES,1020 WEST MARKET STREET,,LOUISVILLE,KY,40202,MATT MCGARVEY,CHIEF FINANCIAL OFFICER,5025854848,,MATT.MCGARVEY@THEHEALINGPLACE.ORG,06/28/2022 14:23:53,MATT MCGARVEY-CHIEF FINANCIAL OFFICER,STROTHMAN AND COMPANY,"325 WEST MAIN STREET, 1600 WATERFRONT PLAZA",,LOUISVILLE,KY,40202,BILL MEYER,MANAGING PARTNER,5025851600,,BMEYER@STROTHMAN.COM,07/03/2022 09:40:51,,O,,Q,N,N,N,N,U,750000,N,,1672228,,N,N,N,N,N,N,,64,07/03/2022 00:00:00,07/08/2022 01:30:03,,N,908,1,x00,07/03/2022 00:00:00,,N,MATT MCGARVEY,CHIEF FINANCIAL OFFICER,07/03/2022 00:00:00,611191655,N,,N,N,,,,,Non-profit,UG,,,,,,01/01/2021 00:00:00,,,,US
1441611,1646852021,2021,164685,06/30/2021 00:00:00,S,A,,N,346002019,,N,789460693,NEWTON FALLS EXEMPTED VILLAGE SCHOOL DISTRICT,909 1/2 MILTON BLVD.,,NEWTON FALLS,OH,44444,TERRY ARMSTRONG,TREASURER,3308720862,,ARMSTRONGT@NFSCHOOLS.ORG,09/30/2022 06:20:11,TERRY ARMSTRONG-TERRY ARMSTRONG,"KEITH FABER, AUDITOR OF STATE OF OHIO",88 E. BROAD STREET,,COLUMBUS,OH,43215,ERIK HOLESKO,SENIOR AUDIT MANAGER,3307979900,,ETHOLESKO@OHIOAUDITOR.GOV,09/29/2022 15:41:55,,O,,U,Y,N,Y,N,U,750000,Y,,1302233,,N,N,N,N,N,N,,84,09/30/2022 00:00:00,10/08/2022 01:30:11,,N,505,1,x00,09/30/2022 00:00:00,,N,TERRY ARMSTRONG,TERRY ARMSTRONG,09/30/2022 00:00:00,311334820,N,,Y,N,,,,,Local government,UG,,10/12/2022 11:35:22,10/13/2022 09:11:38,N,G,07/01/2020 00:00:00,,,,US
1436643,2472882021,2021,247288,12/31/2021 00:00:00,S,A,,N,383483291,,N,165876496,"CHURCH OF CHRIST ASSISTED LIVING, INC.",23575 15 MILE RD,,CLINTON TWP,MI,48035,DAVID STEWART,CEO,5868428890,,DSTEWART@COFCCC.ORG,06/28/2022 08:47:23,DAVID STEWARD-CEO,COLE NEWTON & DURAN,33762 SCHOOLCRAFT,,LIVONIA,MI,48150,DENISE SCALLY,AUDIT MANAGER,2483104656,,DSCALLY@CNDCPA.COM,06/24/2022 09:52:03,,O,,U,N,N,N,N,U,8244865,N,,8244865,,N,N,N,N,N,N,,14,06/28/2022 00:00:00,07/01/2022 01:30:03,,N,888,1,x00,06/28/2022 00:00:00,,N,DAVID STEWARD,CEO,06/28/2022 00:00:00,383146599,N,,N,N,,,,,Non-Profit,UG,,,,,,01/01/2021 00:00:00,,,,US
1482401,2580042021,2021,258004,12/31/2021 00:00:00,S,A,,Y,251552913,,Y,148570513,"ST. BARNABAS HEALTH SYSTEM, INC.",5850 MERIDIAN RD,,GIBSONIA,PA,15044,JOHN ROOFNER,BUDGETS & SPECIAL PROJECTS MANAGER,7246879355,,JROOFNER@STBARNABASHEALTHSYSTEM.COM,04/17/2023 17:42:46,JD TURCO-SVP/CFO,BAKER TILLY US LLP,2599 WILMINGTON RD,,NEW CASTLE,PA,16105,MIKE KESSLER,AUDIT PARTNER,7246581565,,MIKE.KESSLER@BAKERTILLY.COM,04/18/2023 08:17:30,,O,,U,N,N,N,N,Q,750000,N,,1325450,,N,Y,N,Y,N,N,,93,04/21/2023 00:00:00,04/26/2023 01:30:05,,N,888,1,x93x00,04/21/2023 00:00:00,,N,JD TURCO,SVP/CFO,04/21/2023 00:00:00,390859910,N,,N,N,,,,,Non-profit,UG,,,,,,01/01/2021 00:00:00,,,,US
1417402,35632021,2021,3563,06/30/2021 00:00:00,S,A,,N,042582119,,N,127777761,"COMMUNITY HEALTH PROGRAMS, INCORPORATED",444 STOCKBRIDGE ROAD,,GREAT BARRINGTON,MA,01230,TOM WALBRIDGE,CHIEF FINANCIAL OFFICER,4135289311,,TWALBRIDGE@CHPBERKSHIRES.ORG,02/15/2022 10:55:38,TOM WALBRIDGE-CHIEF FINANCIAL OFFICER,"AAFCPAS, INC.",50 WASHINGTON STREET,,WESTBOROUGH,MA,01581,CHARLES WEBB,PARTNER,5083669100,,CWEBB@AAFCPA.COM,02/11/2022 08:52:34,,O,,U,N,N,N,N,U,750000,Y,,6231191,,N,N,N,N,N,N,,93,02/15/2022 00:00:00,02/17/2022 01:30:02,,N,908,1,x00,02/15/2022 00:00:00,,N,TOM WALBRIDGE,CHIEF FINANCIAL OFFICER,02/15/2022 00:00:00,042571780,N,,N,N,,,,,Non-profit,UG,,,,,,07/01/2020 00:00:00,,,,US
1440178,1696922021,2021,169692,06/30/2021 00:00:00,S,A,,N,231671235,,N,012796348,ATHENS AREA SCHOOL DISTRICT,401 WEST FREDERICK STREET,,ATHENS,PA,18810,JENNY SHORES,BUSINESS MANAGER,5708887766,,JSHORES@MAIL.ATHENSASD.K12.PA.US,07/25/2022 16:35:00,JENNY SHORES-BUSINESS MANAGER,"EFPR GROUP CPA'S, PLLC","8 DENISON PARKWAY EAST, SUITE 407",,CORNING,NY,14830,"RICHARD J, DAVIS, CPA",PARTNER,6079626891,,RDAVIS@EFPRGROUP.COM,07/25/2022 16:20:55,,O,,U,N,N,N,N,U,750000,Y,,3007699,,N,N,N,N,N,N,,84,07/25/2022 00:00:00,07/27/2022 01:30:06,,N,505,1,x00,01/03/2022 00:00:00,,N,JENNY SHORES,BUSINESS MANAGER,01/03/2022 00:00:00,474526160,N,,N,N,,,,,Local government,UG,,01/11/2022 14:14:18,01/13/2022 10:51:06,N,G,07/01/2020 00:00:00,,,,
1426041,1323162021,2021,132316,06/30/2021 00:00:00,S,A,,N,946000379,,Y,102568602,CITY OF MOUNTAIN VIEW,500 CASTRO STREET,,MOUNTAIN VIEW,CA,94039,JESSE TAKAHASHI,FINANCE DIRECTOR,6509036006,,JESSE.TAKAHASHI@MOUNTAINVIEW.GOV,04/01/2022 20:28:29,JESSE TAKAHASHI-FINANCE AND ADMINISTRATIVE SERVICES DIRECTOR,MACIAS GINI & O'CONNELL LLP,2121 N. CALIFORNIA BLVD.,,WALNUT CREEK,CA,945963578,BENJAMIN LAU,PARTNER,9353952839,,BLAU@MGOCPA.COM,03/31/2022 20:48:09,,O,,U,N,N,N,N,U,750000,Y,,2445735,,N,N,N,N,Y,N,,20,04/01/2022 00:00:00,04/13/2022 01:30:05,,N,200,1,x14x00,04/01/2022 00:00:00,,N,JESSE TAKAHASHI,FINANCE AND ADMINISTRATIVE SERVICES DIRECTOR,04/01/2022 00:00:00,680300457,N,,N,N,,,,,Local government,UG,,,,,,07/01/2020 00:00:00,,,,US
1448053,2554122021,2021,255412,12/31/2021 00:00:00,S,A,,N,810475376,,N,796685006,PLAINS HOSPITAL CORPORATION D/B/A CLARK FORK VALLEY HOSPITAL,10 KRUGER ROAD,,PLAINS,MT,59859,CARLA A. NEIMAN,CHIEF FINANCIAL OFFICER,4068264851,,CNEIMAN@CFVH.ORG,09/30/2022 14:20:11,CARLA A. NEIMAN-CFO,WIPFLI LLP,201 WEST NORTH RIVER DRIVE #400,,SPOKANE,WA,99201,ERIC VOLK,PARTNER,5094894524,,EVOLK@WIPFLI.COM,09/30/2022 13:29:37,,O,,U,N,N,N,N,U,750000,N,,4803158,,N,N,N,N,N,Y,,93,09/30/2022 00:00:00,10/11/2022 01:30:12,,N,888,1,x00,09/30/2022 00:00:00,,N,CARLA A. NEIMAN,CFO,09/30/2022 00:00:00,390758449,N,,N,N,,,,,Local government,UG,,,,,,01/01/2021 00:00:00,,,,US
1395863,1304182021,2021,130418,06/30/2021 00:00:00,S,A,,N,866000515,,N,,CHANDLER UNIFIED SCHOOL DISTRICT NO. 80,1525 W. FRYE RD.,,CHANDLER,AZ,852246178,LANA BERRY,CHIEF FINANCIAL OFFICER,4808127660,,BERRY.LANA@CUSD80.COM,12/22/2021 17:37:58,LANA BERRY-CHIEF FINANCIAL OFFICER,"HEINFELD, MEECH & CO., P.C.","1365 N. SCOTTSDALE RD., SUITE 300",,SCOTTSDALE,AZ,85257,"JENNIFER L. SHIELDS, CPA, CGFM",PARTNER,6022779449,,JENNIFER.SHIELDS@HM.CPA,12/28/2021 09:35:41,,C,84,U,N,N,N,N,U,1892744,Y,,63091482,,N,N,N,N,N,N,,,12/28/2021 00:00:00,12/30/2021 01:30:06,,N,505,1,x00,12/28/2021 00:00:00,,N,LANA BERRY,CHIEF FINANCIAL OFFICER,12/28/2021 00:00:00,860558065,N,,N,N,,,,,Local government,UG,,01/10/2022 12:39:53,01/13/2022 10:51:06,N,G,07/01/2020 00:00:00,,,,US
1417322,1335902021,2021,133590,06/30/2021 00:00:00,S,A,,N,946003832,,N,,THERMALITO UNION ELEMENTARY SCHOOL DISTRICT,400 GRAND AVENUE,,OROVILLE,CA,95965,CODY WALKER,ASSISTANT SUPERINTENDENT,5305388825,,CWALKER@THERMALITO.ORG,02/07/2022 11:26:59,CODY WALKER-ASSISTANT SUPERINTENDENT,JAMES MARTA & COMPANY LLP,"701 HOWE AVENUE, SUITE E3",,SACRAMENTO,CA,95825,JESSE DEOL,PARTNER,9169939494,,JDEOL@JPMCPA.COM,02/07/2022 15:25:39,,O,,U,N,N,N,N,U,750000,Y,,7360650,,N,N,N,N,N,N,,84,02/07/2022 00:00:00,02/09/2022 01:30:04,,N,505,1,x00,02/07/2022 00:00:00,,N,CODY WALKER,ASSISTANT SUPERINTENDENT,02/07/2022 00:00:00,271682261,N,,N,N,,,,,Local government,UG,,02/09/2022 14:55:20,02/10/2022 07:13:43,N,G,07/01/2020 00:00:00,,,,US
1437270,2388892021,2021,238889,12/31/2021 00:00:00,S,A,,N,311616634,,N,145072216,"PRESERVATION OF AFFORDABLE HOUSING, INC.",2 OLIVER ST,,BOSTON,MA,02109,ALLISON ADDUCI,"SVP, FINANCE & ACCOUNTING",6174490870,,AADDUCI@POAH.ORG,07/14/2022 12:33:23,"ALLISON ADDUCI-SENIOR VICE PRESIDENT, FINANCE & ACCOUNTING",COHNREZNICK,"ONE BOSTON PLACE, SUITE 500",,BOSTON,MA,02108,KAREN SMITH,PARTNER,6076034520,,KAREN.SMITH@COHNREZNICK.COM,07/14/2022 14:30:37,,O,,U,N,N,N,N,U,750000,Y,,8707617,,N,N,N,N,N,N,,21,07/14/2022 00:00:00,07/20/2022 01:30:04,,N,888,1,x00,07/14/2022 00:00:00,,N,ALLISON ADDUCI,"SENIOR VICE PRESIDENT, FINANCE & ACCOUNTING",07/14/2022 00:00:00,221478099,N,,N,N,,,,,Non-profit,UG,,,,,,01/01/2021 00:00:00,,,,US
1438071,2310402021,2021,231040,12/31/2021 00:00:00,S,A,,N,133501749,,N,,"MELROSE VILLA HERMOSA DEVELOPMENT FUND COMPANY, INC",825 MELROSE AVENUE,,BRONX,NY,10451,REVEREND BERTRAM BENNETT,PRESIDENT AND CEO,9173835625,,ST.DAVID@VERIZON.NET,07/11/2022 09:53:24,BERTRAM BENNETT-PRESIDENT,"LES S. THOMPSON & CO., LLP",112 W 34TH STREET,,NEW YORK,NY,10120,LES S. THOMPSON,MANAGING PARTNER,2124817634,,LES@LESTCO.COM,07/11/2022 12:54:50,,O,,U,N,N,N,N,U,750000,Y,,773385,,N,N,N,Y,Y,N,,14,07/11/2022 00:00:00,07/15/2022 01:30:04,,N,903,1,x14,07/11/2022 00:00:00,,N,BERTRAM BENNETT,PRESIDENT,07/11/2022 00:00:00,133475295,N,,N,N,,,,,Non-profit,UG,,,,,,01/01/2021 00:00:00,,,,US
1380504,1260692021,2021,126069,02/28/2021 00:00:00,S,A,,N,953743532,,N,847365491,"DIAKONIA HOUSING I, INC. DBA DIAKONIA HOUSING I 136-11103",911 NORTH STUDEBAKER ROAD,,LONG BEACH,CA,90815,CHRISTOPHER PURCELL,CONTROLLER,5622575100,,CHRISTOPHER.PURCELL@RHF.ORG,07/26/2021 17:38:26,CHRISTOPHER PURCELL-CONTROLLER,"DAUBY O'CONNOR & ZALESKI, LLC",501 CONGRESSIONAL BLVD.,,CARMEL,IN,46032,JACOB BUEHLER,MEMBER,3178485700,,JBUEHLER@DOZ.NET,07/27/2021 07:54:25,,O,,U,N,N,N,N,U,750000,N,,4538101,,N,N,N,N,Y,N,,14,07/27/2021 00:00:00,07/29/2021 01:30:05,,N,903,1,x00x14,07/27/2021 00:00:00,,N,CHRISTOPHER PURCELL,CONTROLLER,07/27/2021 00:00:00,351750664,N,,N,N,,,,,Non-profit,UG,,,,,,03/01/2020 00:00:00,,,,US
1417425,1877932021,2021,187793,06/30/2021 00:00:00,S,A,,N,936002118,,N,006156467,"CITY OF ASTORIA, OREGON",1095 DUANE STREET,,ASTORIA,OR,97103,SUSAN BROOKS,DIRECTOR OF FINANCE AND ADMIN SERVS,5033255821,,SBROOKS@ASTORIA.OR.US,02/09/2022 16:36:11,SUSAN BROOKS-DIRECTOR OF FINANCE AND ADMINISTRATIVE SERVICES,MERINA & COMPANY LLP,7624 SW MOHAWK STREET,,TUALATIN,OR,97062,TONYA MOFFITT,MANAGING PARTNER,5037230300,,TMOFFITT@MERINA.COM,02/10/2022 19:48:16,,O,,U,N,N,N,N,U,750000,Y,,1920328,,N,N,N,N,N,N,,20,02/10/2022 00:00:00,02/12/2022 01:30:04,,N,200,1,x00,02/10/2022 00:00:00,,N,SUSAN BROOKS,DIRECTOR OF FINANCE AND ADMINISTRATIVE SERVICES,02/10/2022 00:00:00,320346664,N,,N,N,,,,,Local government,UG,,,,,,07/01/2020 00:00:00,,,,US
1437273,1922292021,2021,192229,09/30/2021 00:00:00,S,A,,N,621559560,,N,075889969,"GOOD SAMARITAN VILLAGE, INC.",1615 APPLING ROAD,,CORDOVA,TN,38016,"DONALD D. OLLIO, JR",CHIEF FINANCIAL OFFICER,9013804900,,DON.OLLIO@WESLEYHOUSING.COM,06/30/2022 11:24:58,DON OLLIO-CFO,"DAUBY O'CONNOR & ZALESKI, LLC",501 CONGRESSIONAL BLVD.,,CARMEL,IN,46032,KENNY DENNISON,MEMBER,3178485700,,KDENNISON@DOZLLC.COM,06/30/2022 11:31:30,,O,,U,N,N,N,N,U,750000,Y,,2340690,,N,N,N,N,N,N,,14,06/30/2022 00:00:00,07/03/2022 01:30:04,,N,903,1,x00,06/30/2022 00:00:00,,N,DON OLLIO,CFO,06/30/2022 00:00:00,351750664,N,,N,N,,,,,Non-profit,UG,,,,,,10/01/2020 00:00:00,,,,US
1423111,2479962021,2021,247996,06/30/2021 00:00:00,S,A,,N,251700492,,N,,"PREVENTATIVE AFTERCARE, INC.",233 GEORGE JUNIOR ROAD,,GROVE CITY,PA,16127,MICHELLE GERWICK,CFO,7244589330,,MGERWICK@GJR.ORG,03/21/2022 16:44:52,MICHELLE GERWICK-CHIEF FINANCIAL OFFICER,HBK CPAS AND CONSULTANTS,3110 HIGHLAND ROAD,,HERMITAGE,PA,16148,DOMINIC A. MASTROPIETRO,PRINCIPAL,7249817550,,DMASTROPIETRO@HBKCPA.COM,03/18/2022 05:20:25,,O,,U,N,N,N,N,U,750000,Y,,1640873,,N,N,N,N,N,N,,93,03/21/2022 00:00:00,03/23/2022 01:30:03,,N,888,1,x00,03/21/2022 00:00:00,,N,MICHELLE GERWICK,CHIEF FINANCIAL OFFICER,03/21/2022 00:00:00,341897225,N,,N,N,,,,,Non-profit,UG,,,,,,07/01/2020 00:00:00,,,,US
1388931,2227232021,2021,222723,06/30/2021 00:00:00,S,A,,N,311797407,,N,602417607,"NATIONAL CHURCH RESIDENCES OF SOUTH RIVER II, INC.",2335 NORTH BANK DRIVE,,COLUMBUS,OH,43220,ELIZABETH KING,HOUSING ACCOUNTING SUPPORT SUPERVISOR,6142733577,,NCRAUDITTEAM@NATIONALCHURCHRESIDENCES.ORG,09/23/2021 11:12:45,JILL KOLB-TREASURER,"TIDWELL GROUP, LLC","4249 EASTON WAY, STE 210",,COLUMBUS,OH,43219,ANDREW GANTZER,PARTNER,6145281449,,ANDY.GANTZER@TIDWELLGROUP.COM,09/21/2021 14:39:46,,O,,U,N,N,N,N,U,750000,Y,,8066057,,N,N,N,N,N,N,,14,09/23/2021 00:00:00,09/25/2021 01:30:06,,N,903,1,x00,09/23/2021 00:00:00,,N,JILL KOLB,TREASURER,09/23/2021 00:00:00,271490692,N,,N,N,,,,,Non-profit,UG,,,,,,07/01/2020 00:00:00,,,,US
1426700,2045812021,2021,204581,06/30/2021 00:00:00,S,A,,N,951690988,,N,074132531,EXCEPTIONAL CHILDREN'S FOUNDATION AND AFFILIATES,"5350 MACHADO RD.,, CULVER CITY, CA 90230",,CULVER CITY,CA,90230,SONHUI ROBILOTTA,CHIEF FINANCIAL OFFICER,3107739427,,SROBILOTTA@ECF.NET,05/26/2022 18:15:11,SONHUI ROBILOTTA-CFO,EXCEPTIONAL CHILDREN'S FOUNDATION,"11766 WILSHIRE BLVD, 9TH FLOOR",,LOS ANGELES,CA,90025,RENEE ORDENEAUX,PARTNER,3107455700,,RENEE.ORDENEAUX@ARMANINOLLP.COM,04/29/2022 20:00:08,,O,,U,N,N,N,N,U,750000,N,,1623580,,N,N,N,N,N,N,,14,05/26/2022 00:00:00,05/28/2022 01:30:05,,N,909,1,x00,05/26/2022 00:00:00,,N,SONHUI ROBILOTTA,CFO,05/26/2022 00:00:00,Ex6214841,N,,N,N,,,,,Non-profit,UG,,,,,,07/01/2020 00:00:00,,,,US
1430566,2343872021,2021,234387,12/31/2021 00:00:00,S,A,,N,311595534,,N,,CANAAN MANOR DAYTON,1214 SO. ROBERTSON,,NEW ORLEANS,LA,70113,DR. WILLIE GABLE,BOARD CHAIRMAN,5045245471,,JAVONNAWILSON75@YAHOO.COM,05/01/2022 04:02:24,JAVONNA WILSON-AUDIT ASSISTANT,"WHARTON CPA, LLC",P.O. BOX 870847,,NEW ORLEANS,LA,70187,BRENDEL WHARTON,MANAGING PARTNER,5044019581,,BRENDEL@BWHARTONCPA.COM,05/01/2022 04:03:06,,O,,Q,Y,Y,N,N,U,750000,N,,1790896,,Y,Y,N,Y,Y,N,,14,05/01/2022 00:00:00,05/04/2022 01:30:03,,N,903,1,x14,05/01/2022 00:00:00,,N,JAVONNA WILSON,AUDIT ASSISTANT,05/01/2022 00:00:00,680524519,Y,,Y,Y,,,,,Non-profit,UG,,,,,,01/01/2021 00:00:00,,,,US
1421865,2046362021,2021,204636,06/30/2021 00:00:00,S,A,,N,953474707,,N,,GARDENA VALLEY JAPANESE CULTURAL INST HSG DBA JCI GARDENA CA16T801027,2000 W. 162ND STREET,,TORRANCE,CA,90504,BOMEE KIM FAIN,"DIRECTOR OF FINANCE, MANAGEMENT AGENT",2134733030,,BKIMFAIN@LTSC.ORG,03/10/2022 15:04:40,BOMEE KIM FAIN-DIRECTOR OF FINANCE,HOFFMAN SHORT RUBIN DEWINTER SANDERSON,1037 PARK VIEW DRIVE,,COVINA,CA,91724,ANEELA DEWINTER,CPA/PARTNER,6269320100,,ANEELA@HSRDSCPAS.COM,03/14/2022 13:03:10,,O,,U,N,N,N,N,U,750000,Y,,1853159,,N,N,N,N,N,N,,14,03/14/2022 00:00:00,03/16/2022 01:30:04,,N,903,1,x00,03/14/2022 00:00:00,,N,BOMEE KIM FAIN,DIRECTOR OF FINANCE,03/14/2022 00:00:00,813709413,N,,N,N,,,,,Non-profit,UG,,,,,,07/01/2020 00:00:00,,,,US
1430424,230522021,2021,23052,03/31/2021 00:00:00,S,A,,N,222682708,,N,150554137,"HENRY J. AUSTIN HEALTH CENTER, INC.",231 NORTH WARREN STREET,,TRENTON,PA,08618,KEMI ALLI,CHIEF EXECUTIVE OFFICER,6092785912,,KEMI.ALLI@HENRYJAUSTIN.ORG,05/27/2022 11:48:08,KEMI ALLI-CHIEF EXECUTIVE OFFICER,BAKER TILLY US LLP,99 WOOD AVENUE SOUTH - SUITE 801,,ISELIN,NJ,08830,HEATHER WEBER,PARTNER,8484673858,,HEATHER.WEBER@BAKERTILLY.COM,05/02/2022 13:13:15,,O,,U,Y,Y,N,N,U,750000,N,,10310868,,Y,N,N,Y,Y,N,,93,05/27/2022 00:00:00,06/02/2022 01:30:03,,N,908,1,x93,05/27/2022 00:00:00,,N,KEMI ALLI,CHIEF EXECUTIVE OFFICER,05/27/2022 00:00:00,350859910,Y,,Y,Y,,,,,Non-profit,UG,,,,,,04/01/2020 00:00:00,,,,US
1413325,429792021,2021,42979,06/30/2021 00:00:00,S,A,,N,341168947,,N,081213175,ZEPF CENTER,2005 ASHLAND AVE,,TOLEDO,OH,43620,ADAM NUTT,CHIEF FINANCIAL OFFICER,4198417701,,ANUTT@ZEPFCENTER.ORG,01/24/2022 11:23:02,ADAM NUTT-CHIEF FINANCIAL OFFICER,GILMORE JASION MAHLER,1785 INDIAN WOOD CIRCLE,,MAUMEE,OH,43537,ALEX SPIEKER,AUDIT SENIOR MANAGER,4197942000,,ASPIEKER@GJMLTD.COM,01/12/2022 07:37:46,,O,,U,N,N,N,N,U,750000,Y,,10150190,,N,N,N,N,N,N,,93,01/24/2022 00:00:00,02/01/2022 15:00:08,,N,908,1,x00,01/24/2022 00:00:00,,N,ADAM NUTT,CHIEF FINANCIAL OFFICER,01/24/2022 00:00:00,341827159,N,,N,N,,,,,Non-profit,UG,,,,,,07/01/2020 00:00:00,,,,US
1441373,1089222021,2021,108922,12/31/2021 00:00:00,S,A,,Y,830239827,,Y,940382443,COUNCIL OF COMMUNITY SERVICES,114 S. 4-J ROAD,,GILLETTE,WY,82716,MIKEL SCOTT,EXECUTIVE DIRECTOR,3076862730,,MIKEL@CCSWY.ORG,09/28/2022 18:13:52,MIKEL SMITH-EXECUTIVE DIRECTOR,"BENNETT, WEBER & HERMSTAD, LLP",PO BOX 2256,,GILLETTE,WY,827172256,"PAULA S. STEIGER, CPA",PARTNER,3076825250,,PSTEIGER@SBWCPAS.COM,09/28/2022 18:16:52,,O,,U,N,Y,N,N,U,750000,N,,3016967,,N,Y,N,Y,N,N,,14,09/28/2022 00:00:00,10/04/2022 01:30:13,,N,908,1,x00,09/28/2022 00:00:00,,N,MIKEL SMITH,EXECUTIVE DIRECTOR,09/28/2022 00:00:00,830297768,Y,,N,N,,,,,Non-profit,UG,,,,,,01/01/2021 00:00:00,,,,US
1439107,2540272021,2021,254027,06/30/2021 00:00:00,S,A,,Y,976002764,,N,011463117,YREKA UNION HIGH SCHOOL DISTRICT,400 PREECE WAY,,YREKA,CA,96097,TONI JOLING,BUSINESS MANAGER,5308422521,,TJOLING@YUHSD.NET,07/25/2022 12:52:31,TONI JOLING-CBO,"ROBERTSON & ASSOCIATES, CPAS",1101 N. MAIN STREET,,LAKEPORT,CA,95453,JOHN S ROBERTSON,AUDIT DIRECTOR,7072639012,,JOHN@ROBERTSONCPA.COM,07/22/2022 18:32:05,,O,,U,N,N,N,N,U,750000,N,,1410918,,N,N,N,N,N,N,,84,07/25/2022 00:00:00,07/27/2022 01:30:06,,N,888,1,x00,07/25/2022 00:00:00,,N,TONI JOLING,CBO,07/25/2022 00:00:00,680290978,N,,N,N,,,,,Local government,UG,,07/27/2022 11:43:59,07/28/2022 08:13:14,N,G,07/01/2020 00:00:00,,,,US
1420011,664732021,2021,66473,04/30/2021 00:00:00,S,A,,N,431146626,,N,037131810,"ECONOMIC DEVELOPMENT CORPORATION OF KANSAS CITY, MISSOURI","300 WYANDOTTE ST., STE 400",,KANSAS CITY,MO,64105,HEATHER BROWN,INTERIM PRESIDENT & CEO,8166912109,,HBROWN@EDCKC.COM,03/25/2022 12:28:54,HEATHER BROWN-INTERIM CEO/PRESIDENT,"ALLEN, GIBBS & HOULIK, L.C.","10801 MASTIN, SUITE 250",,OVERLAND PARK,KS,66210,JONATHAN NIBARGER,"VICE PRESIDENT, ASSURANCE",9137308166,,JONATHAN.NIBARGER@AGHLC.COM,03/22/2022 15:36:46,,O,,U,Y,Y,N,N,U,750000,N,,3400000,,Y,N,N,Y,N,N,,21,03/25/2022 00:00:00,03/28/2022 01:30:04,,N,909,1,x00,03/25/2022 00:00:00,,N,HEATHER BROWN,INTERIM CEO/PRESIDENT,03/25/2022 00:00:00,481032601,Y,,Y,Y,,,,,Non-profit,UG,,,,,,05/01/2020 00:00:00,,,,US
1425885,2482842021,2021,248284,12/31/2021 00:00:00,S,A,,N,582085904,,N,964447346,"BAY MINETTE ROTARY VILLAGE, INC.",2211 MCMILLAN AVENUE,,BAY MINETTE,AL,365074119,JOHN NAPPER,PROPERTY MANAGER,2516941999,,JMNAPP@AOL.COM,03/30/2022 11:35:29,JOHN NAPPER-PRESIDENT,"LECROY RICHARDSON, P.C.","5710 WATERMELON RD, SUITE 400",,NORTHPORT,AL,35473,RYAN ALEXANDER,MANAGER,2053493840,,RYAN@LECROYRICHARDSON.COM,03/30/2022 11:19:23,,O,,U,N,Y,N,N,U,750000,N,,2412007,,N,N,N,Y,Y,Y,,14,03/30/2022 00:00:00,04/09/2022 01:30:03,,N,888,1,x14,03/30/2022 00:00:00,,N,JOHN NAPPER,PRESIDENT,03/30/2022 00:00:00,630986620,Y,,N,N,,,,,Non-profit,UG,,,,,,01/01/2021 00:00:00,,,,US
1412637,2478512021,2021,247851,05/31/2021 00:00:00,S,A,,N,720643386,,N,,"CENTRAL PRIVATE SCHOOL, INC.",12801 CENTERRA COURT,,BAKER,LA,70714,KAY GREELY,BUSINESS MANAGER,2252616770,,KGREELY@CENTRALPRIVATE.ORG,01/10/2022 17:03:27,KAY GREELY-BUSINESS MANAGER,L.A. CHAMPAGNE & COMPANY,4911 BENNINGTON AVENUE,,BATON ROUGE,LA,70808,JONATHAN CLARK,PARTNER,2259251120,,JCLARK@LACCPA.COM,01/07/2022 09:29:34,,O,,U,N,N,N,N,U,750000,N,,5798676,,N,N,N,N,N,N,,97,01/10/2022 00:00:00,01/14/2022 01:30:07,,N,888,1,x00,01/10/2022 00:00:00,,N,KAY GREELY,BUSINESS MANAGER,01/10/2022 00:00:00,720454386,N,,N,N,,,,,Non-profit,UG,,,,,,06/01/2020 00:00:00,,,,US
1428520,393192021,2021,39319,12/31/2021 00:00:00,S,A,,N,311070892,,N,189028160,"WESTERVILLE ROTARY ELDERLY HOUSING, INC. DBA HARRIS-ASKINS HOUSE","45 NORTH FOURTH STREET, SUITE 200",,COLUMBUS,OH,432153602,AMANDA PRIDEMORE,CFO,6144818106,,APRIDEMORE@SHOWEMGMT.COM,04/14/2022 15:12:24,AMANDA PRIDEMORE-CONTROLLER/CFO,CLARK SCHAEFER HACKETT & CO.,"14 EAST MAIN STREET, SUITE 500",,SPRINGFIELD,OH,45502,JESSE YOUNG,SHAREHOLDER,9373992000,,JYOUNG@CSHCO.COM,06/07/2022 16:25:41,,O,,U,N,N,N,N,U,750000,Y,,2084446,,N,N,N,N,N,N,,14,06/07/2022 00:00:00,06/09/2022 17:55:48,,N,903,1,x00,06/07/2022 00:00:00,,N,AMANDA PRIDEMORE,CONTROLLER/CFO,06/07/2022 00:00:00,310800053,N,,N,N,,,,,Non-profit,UG,,,,,,01/01/2021 00:00:00,,,,US
1437441,2213232021,2021,221323,09/30/2021 00:00:00,S,A,,N,760727663,,N,144078305,NATIONAL CENTER FOR DEFENSE MANUFACTURING AND MACHINING,486 CORNELL RD,,BLAIRSVILLE,PA,15717,DAVID MICHALOW,DIRECTOR FINANCE AND ACCOUNTING,8143853908,,DAVID.MICHALOW@NCDMM.ORG,06/29/2022 23:17:49,GENE BERKEBILE-VP AND CFO,"BDO USA, LLP","339 SIXTH AVENUE, 8TH FLOOR",,PITTSBURGH,PA,15222,SEAN NORMILE,AUDIT MANAGING DIRECTOR,3149745432,,SNORMILE@BDO.COM,06/29/2022 23:21:47,,C,12,U,N,N,N,N,U,1548657,Y,,51621898,,N,N,N,N,N,N,,,06/29/2022 00:00:00,07/01/2022 01:30:03,,N,909,1,x00,06/29/2022 00:00:00,,N,GENE BERKEBILE,VP AND CFO,06/29/2022 00:00:00,135381590,N,,N,N,,,,,Non-profit,UG,,,,,,10/01/2020 00:00:00,,,,US
1431005,2482982021,2021,248298,12/31/2021 00:00:00,S,A,,Y,473130767,,N,079969596,NORTHERN GREAT LAKES INITIATIVES AND SUBSIDIARIES,"101 W. WASHINGTON STREET, SUITE 9",,MARQUETTE,MI,49855,JILL MILLER,ACCOUNTING MANAGER,9068691726,,JMILLER@NORTHERNINITIATIVES.ORG,05/05/2022 13:35:44,JILL MILLER-ACCOUNTING MANAGER,"MAKELA, TOUTANT, HILL, NARDI & KATONA, P.C.",201 WEST BLUFF STREET,,MARQUETTE,MI,49855,PAUL NARDI,PARTNER,9062283600,,PNARDI@MTHNK.COM,05/05/2022 13:22:50,,O,,U,N,N,N,N,U,750000,Y,,10589211,,N,N,N,N,N,N,,59,05/05/2022 00:00:00,05/07/2022 01:30:05,,N,888,1,x00,05/05/2022 00:00:00,,N,JILL MILLER,ACCOUNTING MANAGER,05/05/2022 00:00:00,382806590,N,,N,N,,,,,Non-profit,UG,,,,,,01/01/2021 00:00:00,,,,US
1414828,2524752021,2021,252475,03/31/2021 00:00:00,P,A,,N,454103655,,N,122911198,EASTERN CONGO INITIATIVE,"1325 QUINCY STREET, NE, SUITE A1",,MINNEAPOLIS,MN,55413,ABRAHAM LENO,EXECUTIVE DIRECTOR,2404866830,,ABRAHAM@EASTERNCONGO.ORG,03/08/2022 12:10:56,ABRAHAM LENO-EXECUTIVE DIRECTOR,"GELMAN, ROSENBERG & FREEDMAN","4550 MONTGOMERY AVENUE, SUITE 800 NORTH",,BETHESDA,MD,20814,ROBERT ALBRECHT,DIRECTOR,3019519090,,RALBRECHT@GRFCPA.COM,02/02/2022 10:29:18,,O,,U,N,N,N,N,U,750000,N,,1233225,,N,N,N,N,N,N,,98,03/08/2022 00:00:00,03/12/2022 01:30:04,,N,888,1,x00,03/08/2022 00:00:00,,N,ABRAHAM LENO,EXECUTIVE DIRECTOR,03/08/2022 00:00:00,521392008,N,,N,N,,,,,Non-profit,UG,,,,,,04/01/2020 00:00:00,,,,US
1442860,2460342021,2021,246034,06/30/2021 00:00:00,S,A,,N,133127972,,N,615776366,NEW YORK COMMON PANTRY,8 EAST 109TH STREET,,NEW YORK,NY,10029,STEPHEN GRIMALDI,EXECUTIVE DIRECTOR,9177209701,,SGRIMALDI@NYCOMMONPANTRY.ORG,09/30/2022 09:19:43,STEPHEN GRIMALDI-EXECUTIVE DIRECTOR,LUTZ AND CARR CPAS LLP,551 FIFTH AVENUE STE 400,,NEW YORK,NY,10176,MICHAEL WALLACE,PARTNER,2126972299,,MWALLACE@LUTZANDCARR.COM,09/21/2022 09:04:22,,O,,U,N,N,N,N,U,750000,Y,,2741628,,N,N,N,N,N,N,,10,09/30/2022 00:00:00,10/08/2022 01:30:11,,N,888,1,x00,09/30/2022 00:00:00,,N,STEPHEN GRIMALDI,EXECUTIVE DIRECTOR,09/30/2022 00:00:00,131655065,N,,N,N,,,,,Non-profit,UG,,,,,,07/01/2020 00:00:00,,,,US
1413793,1811142021,2021,181114,09/30/2021 00:00:00,S,A,,N,222370094,,N,829173363,"BROCTON HOUSING DEVELOPMENT FUND COMPANY, INC.",2393 MAIN STREET,,BUFFALO,NY,14214,AARON HEJMOWSKI,CFO,7168847791,,AHEJMOWSKI@BELMONTHOUSINGWNY.ORG,01/14/2022 15:33:42,AARON HEJMOWSKI-CHIEF FINANCIAL OFFICER,"FREED MAXICK CPAS, P.C. ","424 MAIN STREET, SUITE 800",,BUFFALO,NY,14202,BARBARA DANNER,DIRECTOR,7163322733,,BARBARA.DANNER@FREEDMAXICK.COM,01/17/2022 09:09:31,,O,,U,N,N,N,N,U,750000,Y,,1617751,,N,N,N,N,N,N,,14,01/17/2022 00:00:00,01/19/2022 01:30:03,,N,903,1,x00,01/17/2022 00:00:00,,N,AARON HEJMOWSKI,CHIEF FINANCIAL OFFICER,01/17/2022 00:00:00,454051133,N,,N,N,,,,,Non-profit,UG,,,,,,10/01/2020 00:00:00,,,,US
1421834,2459322021,2021,245932,12/31/2021 00:00:00,S,A,,N,412071487,,N,967453957,ST. GEORGE HOUSING CORPORATION,2961 DECKER DR,,RICE LAKE,WI,54868,TERRA PAWLIUK-MCGIFFIN,VICE PRESIDENT OF ACCOUNTING,7154341710,,TERRA.MCGIFFIN@IMPACTSEVEN.ORG,03/14/2022 09:45:18,TERRA PAWLIUK MCGIFFIN-VICE PRESIDENT OF ACCOUNTING,CARTER & COMPANY CPA LLC,543 HARBOR BLVD 201,,DESTIN,FL,32541,CHRISTINE CARTER,MANAING PARTNER,8506500125,,CHRISTINE@CARTERCPA.NET,03/13/2022 13:34:33,,O,,U,N,N,N,N,U,750000,Y,,1038029,,N,N,N,N,N,N,,14,03/14/2022 00:00:00,03/16/2022 01:30:04,,N,888,1,x00,03/14/2022 00:00:00,,N,TERRA PAWLIUK MCGIFFIN,VICE PRESIDENT OF ACCOUNTING,03/14/2022 00:00:00,582646754,N,,N,N,,,,,Non-profit,UG,,,,,,01/01/2021 00:00:00,,,,US
1400284,2399462021,2021,239946,06/30/2021 00:00:00,S,A,,N,260179313,,N,966291812,"KEN-CREST HOUSING PA 2007, INC.","960A HARVEST DRIVE, SUITE 100",,BLUE BELL,PA,19422,COLLEEN KELLY,CFO,6108259360,,CKELLY@KENCREST.ORG,11/01/2021 11:32:54,COLLEEN KELLY-CHIEF FINANCIAL OFFICER,MAZARS USA LLP,"501 OFFICE CENTER DRIVE, SUITE 300",,FORT WASHINGTON,PA,19034,KIRK ELDRIDGE,CPA,2152591000,,KIRK.ELDRIDGE@MAZARSUSA.COM,10/31/2021 22:02:53,,O,,U,N,N,N,N,U,750000,Y,,1775495,,N,N,N,N,N,N,,14,11/01/2021 00:00:00,11/04/2021 01:30:03,,N,888,1,x00,11/01/2021 00:00:00,,N,COLLEEN KELLY,CHIEF FINANCIAL OFFICER,11/01/2021 00:00:00,131459550,N,,N,N,,,,,Non-profit,UG,,,,,,07/01/2020 00:00:00,,,,US
1410350,2155522021,2021,215552,08/31/2021 00:00:00,S,A,,N,751432494,,N,,NORTH HOPKINS INDEPENDENT SCHOOL DISTRICT,1994 FM 71 W,,SULPHUR SPRINGS,TX,75482,JAN VAUGHN,FINANCE DIRECTOR,9039452192,,JVAUGHN@NORTHHOPKINS.NET,01/24/2022 09:56:13,JAN VAUGHN-BUSINESS MANAGER,"RUTHERFORD, TAYLOR & COMPANY, PC",3500 JOE RAMSEY BLVD E,,GREENVILLE,TX,75401,ROBERT LAKE,CPA,9034556252,,RLAKE@RUTHERFORDTAYLOR.COM,12/22/2021 17:27:12,,O,,U,N,N,N,N,U,750000,N,,790407,,N,N,N,N,N,N,,84,01/24/2022 00:00:00,02/01/2022 15:00:08,,N,505,1,x00,01/24/2022 00:00:00,,N,JAN VAUGHN,BUSINESS MANAGER,01/24/2022 00:00:00,751688042,N,,N,N,,,,,Local government,UG,,01/31/2022 12:43:01,02/03/2022 07:06:10,N,G,09/01/2020 00:00:00,,,,US
1392640,2137452021,2021,213745,06/30/2021 00:00:00,S,A,,N,880280033,,N,,RURAL NEVADA DEVELOPMENT CORPORATION,1320 EAST AULTMAN STREET,,ELY,NV,89301,BJ NAY,ACCOUNTING MANAGER,7752898519,,BJ@RNDCNV.ORG,09/07/2021 17:40:59,BJ ABEL-ACCOUNTING MANAGER,"HINTONBURDICK, PLLC","63 SOUTH 300 EAST, SUITE 100",,ST. GEORGE,UT,84770,STEVEN D. PALMER,PARTNER,4356283663,,SPALMER@HINTONBURDICK.COM,09/07/2021 17:47:05,,O,,U,N,N,N,N,U,750000,Y,,7514587,,N,N,N,N,N,N,,11,09/07/2021 00:00:00,09/09/2021 01:30:05,,N,909,1,x00,09/07/2021 00:00:00,,N,BJ ABEL,ACCOUNTING MANAGER,09/07/2021 00:00:00,870492866,N,,N,N,,,,,Local government,UG,,,,,,07/01/2020 00:00:00,,,,US
1469774,1609912021,2021,160991,06/30/2021 00:00:00,S,A,,N,566000285,,N,130705072,CHEROKEE COUNTY,75 PEACHTREE STREET,,MURPHY,NC,28906,"CANDY R. ANDERSON, CPA, CGMA",CHIEF FINANCIAL OFFICER,8288379684,,CANDY.ANDERSON@CHEROKEECOUNTY-NC.GOV,02/06/2023 09:59:53,CANDY ANDERSON-CHIEF FINANCIAL OFFICER,TURNER & COMPANY CPAS P.A.,31 PEACHTREE STREET,,MURPHY,NC,28906,HOLLY M TURNER,CPA ,8288378188,,HOLLY@MYTURNERCPA.COM,02/06/2023 09:57:21,,O,,U,N,Y,N,N,U,7500000,Y,,6792186,,Y,N,N,Y,N,N,,93,02/07/2023 00:00:00,02/10/2023 01:30:06,,N,100,1,x00,02/07/2023 00:00:00,,N,CANDY ANDERSON,CHIEF FINANCIAL OFFICER,02/07/2023 00:00:00,561225077,Y,,N,Y,,,,,Local government,UG,,,,,,07/01/2020 00:00:00,,,,US
1412548,2143312021,2021,214331,06/30/2021 00:00:00,S,A,,N,470838844,,N,557389314,"PISGAH, INC.",2120 PAUL STREET,,OMAHA,NE,68104,RALPH LASSITER,BOARD PRESIDENT,4023337373,,RALPHLASSITER50@GMAIL.COM,01/26/2022 10:05:44,"JESSICA WARD-CFO, SELDIN COMPANY","DAUBY O'CONNOR & ZALESKI, LLC",501 CONGRESSIONAL BLVD,,CARMEL,IN,46032,JEFFREY J. LATHROP,MEMBER,3178485700,,JLATHROP@DOZLLC.COM,01/26/2022 11:48:40,,O,,U,N,N,N,N,U,750000,Y,,1370377,,N,N,N,N,N,N,,14,01/26/2022 00:00:00,02/01/2022 15:00:08,,N,903,1,x00,01/26/2022 00:00:00,,N,JESSICA WARD,"CFO, SELDIN COMPANY",01/26/2022 00:00:00,351750664,N,,N,N,,,,,Non-profit,UG,,,,,,07/01/2020 00:00:00,,,,US
1408001,1697962021,2021,169796,06/30/2021 00:00:00,S,A,,N,251215891,,N,,CRAWFORD CENTRAL SCHOOL DISTRICT,11280 MERCER PIKE,,MEADVILLE,PA,16335,GUY O'NEIL,BUSINESS MANAGER,8147243185,,GUY.ONEIL@CRAW.ORG,01/26/2022 07:42:55,GUY O'NEIL-BUSINESS MANAGER,"MCGILL, POWER, BELL & ASSOCIATES, LLP",180 MERCER STREET,,MEADVILLE,PA,16335,BRUCE LAWRENCE,PARTNER,8147245890,,BLAWRENCE@MPBCPA.COM,01/27/2022 07:56:41,,O,,U,N,N,N,N,U,750000,Y,,5616018,,N,N,N,N,N,N,,84,01/27/2022 00:00:00,02/01/2022 15:00:08,,N,505,1,x00,01/27/2022 00:00:00,,N,GUY O'NEIL,BUSINESS MANAGER,01/27/2022 00:00:00,251031405,N,,N,N,,,,,Local government,UG,,02/02/2022 12:36:29,02/03/2022 07:06:10,N,G,07/01/2020 00:00:00,,,,US
1431092,2264082021,2021,226408,12/31/2021 00:00:00,S,A,,N,201957797,,N,079744042,"BELLPOINT INDEPENDENT LIVING, INC. 082-HD-082","8101 INTERSTATE 30, STE. A",,LITTLE ROCK,AR,72209,ZACHARY SCHULTZ,MANAGEMENT COMPANY BOOKKEEPER,5012800037,,ZSCHULTZ@INTREPIDINC.NET,05/05/2022 11:54:14,ZAC SCHULTZ-ACCOUNT REP,FLEET FIRM,759 TEALWOOD LANE,,CORDOVA,TN,38018,NELSON FLEET,CPA,9013364602,,NFLEET@FLEETFIRM.COM,06/28/2022 11:23:26,,O,,U,N,N,N,N,U,750000,N,,1267782,,N,N,N,N,N,N,,14,06/28/2022 00:00:00,06/30/2022 01:30:04,,N,903,1,x00,06/28/2022 00:00:00,,N,ZAC SCHULTZ,ACCOUNT REP,06/28/2022 00:00:00,621868414,N,,N,N,,,,,Non-profit,UG,,,,,,01/01/2021 00:00:00,,,,US
1438999,2121962021,2021,212196,12/31/2021 00:00:00,S,A,,N,562128976,,N,,"MAYFAIR HOUSING, INC.",PO BOX 1254,,DUNN,NC,28335,KATHY KENNEDY,EXECUTIVE DIRECTOR,9108920436,,KATHY@WELLONS.ORG,07/11/2022 16:39:24,KATHY KENNEDY-CEO,"PATTERSON & ASSOCIATES, PLLC",4248 FAYETTEVILLE ROAD,,LUMBERTON,NC,28358,LAURA BAILEY,MEMBER,9107381448,,LLB@PAPLLCCPAS.COM,07/13/2022 08:08:57,,O,,U,N,N,N,N,U,750000,Y,,3037921,,N,N,N,N,N,N,,14,07/13/2022 00:00:00,07/15/2022 01:30:04,,N,903,1,x00,07/13/2022 00:00:00,,N,KATHY KENNEDY,CEO,07/13/2022 00:00:00,815062879,N,,N,N,,,,,Non-profit,UG,,,,,,01/01/2021 00:00:00,,,,US
1445399,1987952021,2021,198795,12/31/2021 00:00:00,S,A,,N,742896906,,N,179403910,WILLIAMSON COUNTY AND CITIES HEALTH DISTRICT,355 TEXAS AVENUE,,ROUND ROCK,TX,78664,MICHELLE BRODDRICK,"ADMINISTRATION AND FINANCE DIRECTOR, CFO",5122483246,,MICHELLE.BRODDRICK@WILCO.ORG,09/26/2022 10:42:36,MICHELLE BRODDRICK-ADMINISTRATION AND FINANCE DIRECTOR/CFO,MAXWELL LOCKE & RITTER LLP,"401 CONGRESS AVENUE, SUITE 1100",,AUSTIN,TX,78701,JIMMY ROMELL,PARTNER,5123703245,,JROMELL@MLRPC.COM,09/27/2022 12:43:58,,O,,U,N,N,N,N,U,750000,Y,,3403610,,N,N,N,N,N,N,,93,09/27/2022 00:00:00,09/29/2022 01:30:06,,N,409,1,x00,09/27/2022 00:00:00,,N,MICHELLE BRODDRICK,ADMINISTRATION AND FINANCE DIRECTOR/CFO,09/27/2022 00:00:00,742900215,N,,N,N,,,,,Local government,UG,,,,,,01/01/2021 00:00:00,,,,US
1382238,395962021,2021,39596,02/28/2021 00:00:00,S,A,,N,311135796,,N,170816099,ADAM AND BRUCE HOUSING CORPORATION DBA ADAM AND BRUCE APTS. 073-11568,911 NORTH STUDEBAKER ROAD,,LONG BEACH,CA,90815,CHRISTOPHER PURCELL,CONTROLLER,5622575100,,CHRISTOPHER.PURCELL@RHF.ORG,07/26/2021 13:33:53,CHRISTOPHER PURCELL-CONTROLLER,"DAUBY O'CONNOR & ZALESKI, LLC",501 CONGRESSIONAL BLVD.,,CARMEL,IN,46032,GREG CHESTER,PRINCIPAL,3178485700,,GCHESTER@DOZ.NET,07/26/2021 15:54:31,,O,,U,N,N,N,N,U,750000,Y,,1823174,,N,N,N,N,N,N,,14,07/26/2021 00:00:00,07/28/2021 01:30:05,,N,903,1,x00,07/26/2021 00:00:00,,N,CHRISTOPHER PURCELL,CONTROLLER,07/26/2021 00:00:00,351750664,N,,N,N,,,,,Non-profit,UG,,,,,,03/01/2020 00:00:00,,,,US
1396522,1852452021,2021,185245,06/30/2021 00:00:00,S,A,,N,222538947,,N,932920598,"STAMFORD CROSS ROAD RESIDENCES, INC.",6 CROSS ROAD,,STAMFORD,CT,06905,JEANNE COURTER,PRESIDENT,2033252322,,JLC1953@OPTONLINE.NET,10/01/2021 17:22:25,JEANNE COURTER-PRESIDENT,"ALAN J. TUCKER, CPA",26 HONEY HILL ROAD,,NORWALK,CT,068511620,"ALAN J. TUCKER, CPA",OWNER,2038471323,,AJTUCKER@OPTONLINE.NET,10/01/2021 13:53:12,,O,,U,N,N,N,N,U,750000,Y,,2148633,,N,N,N,N,N,N,,14,10/01/2021 00:00:00,10/08/2021 01:30:03,,N,903,1,x00,10/01/2021 00:00:00,,N,JEANNE COURTER,PRESIDENT,10/01/2021 00:00:00,061094568,N,,N,N,,,,,Non-profit,UG,,,,,,07/01/2020 00:00:00,,,,US
1430611,2363612021,2021,236361,12/31/2021 00:00:00,S,A,,N,630211368,,N,003878634,TOMBIGBEE ELECTRIC COOPERATIVE INC,3196 COUNTY HIGHWAY 55,,HAMILTON,AL,35570,STEVE FOSHEE,GENERAL MANAGER,2059216712,,SFOSHEE@TOMBIGBEE.ORG,05/02/2022 14:20:55,STEVE FOSHEE-PRESIDENT/CEO,"STONE, RUDOLPH & HENRY, PLC",124 CENTER POINTE DR,,CLARKSVILLE,TN,37040,BEN CARROLL,PARTNER,9316484786,,BCARROLL@SRHCPAS.COM,05/02/2022 11:20:14,,O,,U,N,N,N,N,U,750000,Y,,7644559,,N,N,N,N,N,N,,10,05/02/2022 00:00:00,05/05/2022 01:30:05,,N,907,1,x00,05/02/2022 00:00:00,,N,STEVE FOSHEE,PRESIDENT/CEO,05/02/2022 00:00:00,620811623,N,,N,N,,,,,Non-profit,UG,,,,,,01/01/2021 00:00:00,,,,US
1439672,1088712021,2021,108871,10/31/2021 00:00:00,S,A,,N,830214153,,N,165847427,CARBON COUNTRY CHILD DEVELOPMENT PROGRAMS,1801 EDINBURGH,,RAWLINS,WY,823014624,DENISE CLARK,FISCAL MANAGER,3073244951,,DCLARK@CCCDP.NET,07/27/2022 17:49:55,DENISE CLARK-FISCAL OFFICER,LEO RILEY & CO.,"141 SOUTH CENTER, SUITE 200",,CASPER,WY,82601,PAUL STILLE,CPA,3072653800,,PAULS@LRILEYCO.COM,07/27/2022 17:53:56,,O,,U,N,N,N,N,,750000,Y,,1092560,,N,N,N,N,N,N,,93,07/27/2022 00:00:00,07/29/2022 01:30:04,,N,908,1,x00,07/27/2022 00:00:00,,N,DENISE CLARK,FISCAL OFFICER,07/27/2022 00:00:00,830320414,N,,N,N,,,,,Local government,UG,,,,,,11/01/2020 00:00:00,,,,US
1428425,2531422021,2021,253142,12/31/2021 00:00:00,S,A,,N,420674206,,N,061048575,DUPACO COMMUNITY CREDIT UNION AND SUBSIDIARY,1000 JACKSON STREET,,DUBUQUE,IA,52001,DANIELLE GRATTON,CHIEF FINANCIAL OFFICER,5635577600,,DGRATTON@DUPACO.COM,05/02/2022 10:50:55,DANIELLE GRATTON-CHIEF FINANCIAL OFFICER,RSM US LLP,999 HOME PLAZA,,WATERLOO,IA,50701,JESSICA PARKER,PARTNER,3192748520,,JESSICA.PARKER@RSMUS.COM,04/28/2022 07:16:28,,O,,U,N,N,N,N,U,750000,N,,1926265,,N,N,N,N,N,N,,21,05/04/2022 00:00:00,05/06/2022 01:30:02,,N,888,1,x00,05/04/2022 00:00:00,,N,DANIELLE GRATTON,CHIEF FINANCIAL OFFICER,05/04/2022 00:00:00,420714325,N,,N,N,,,,,Non-profit,UG,,,,,,01/01/2021 00:00:00,,,,US
1420209,5042021,2021,504,06/30/2021 00:00:00,S,A,,N,010418917,,N,780081485,PREBLE STREET,38 PREBLE STREET,,PORTLAND,ME,04101,DANIEL MCCARTHY,CHIEF OPERATING OFFICER,2077750026,,DMCCARTHY@PREBLESTREET.ORG,03/30/2022 16:40:24,DANIEL MCCARTHY-VICE PESIDENT - FINANCE,RUNYON KERSTEEN OUELLETTE,20 LONG CREEK DRIVE,,SOUTH PORTLAND,ME,04106,"DONALD C. GAUDET, JR.",PRINCIPAL,2077732986,,DGAUDET@RKO-CPAS.COM,03/30/2022 12:55:09,,O,,U,N,N,N,N,U,750000,Y,,10851408,,N,N,N,N,N,N,,64,03/30/2022 00:00:00,04/09/2022 01:30:03,,N,908,1,x00,03/30/2022 00:00:00,,N,DANIEL MCCARTHY,VICE PESIDENT - FINANCE,03/30/2022 00:00:00,010440155,N,,N,N,,,,,Non-profit,UG,,,,,,07/01/2020 00:00:00,,,,US
1432508,596362021,2021,59636,12/31/2021 00:00:00,S,A,,N,391338354,,N,073835548,"SAINTA, INC.",8901 WEST CAPITOL DRIVE,,MILWAUKEE,WI,53222,KRISTI SCHARL,CFO,4144631880,,KSCHARL@WELLPOINT.ORG,06/19/2022 21:13:07,KRISTI SCHARL-CFO,SIKICH LLP,"13400 BISHOPS LANE, SUITE 300",,BROOKFIELD,WI,53005,ASHLEY JOHNSON,DIRECTOR,2427549400,,ASHLEY.JOHNSON@SIKICH.COM,06/06/2022 14:19:47,,O,,U,N,N,N,N,U,750000,Y,,7010719,,N,N,N,N,N,N,,93,06/21/2022 00:00:00,06/24/2022 01:30:11,,N,908,1,x00,06/21/2022 00:00:00,,N,KRISTI SCHARL,CFO,06/21/2022 00:00:00,393168081,N,,N,N,,,,,Non-profit,UG,,,,,,01/01/2021 00:00:00,,,,US
1425207,361362021,2021,36136,06/30/2021 00:00:00,S,A,,N,251190341,,N,030227821,NORTH CENTRAL PA REGIONAL PLANNING AND DEVELOPMENT COMMISSION,49 RIDGEMONT DRIVE,,RIDGEWAY,PA,15853,JIM CHORNEY,EXECUTIVE DIRECTOR,8147733162,,JCHORNEY@EXCHANGE.NCENTRAL.COM,03/29/2022 08:17:20,JAMES CHORNEY-EXECUTIVE DIRECTOR,"SB & COMPANY, LLC",10200 GRAND CENTRAL AVENUE SUITE 250,,OWINGS MILLS,MD,21117,WILLIAM SEYMOUR,MEMBER,4105841404,,WSEYMOUR@SBANDCOMPANY.COM,03/28/2022 16:27:08,,O,,U,N,N,N,N,U,750000,Y,,4376905,,N,N,N,N,N,N,,11,03/30/2022 00:00:00,04/09/2022 01:30:03,,N,409,1,x00,03/30/2022 00:00:00,,N,JAMES CHORNEY,EXECUTIVE DIRECTOR,03/30/2022 00:00:00,202153727,N,,N,N,,,,,Non-profit,UG,,,,,,07/01/2020 00:00:00,,,,US
1406722,266102021,2021,26610,06/30/2021 00:00:00,S,A,,N,232003056,,N,021967039,"ACCESS SERVICES, INC.","500 OFFICE CENTER DRIVE, SUITE 100",,FORT WASHINGTON,PA,19034,SCOTT MCMULLAN,VICE PRESIDENT OF FINANCE,2155402150,,SMCMULLAN@ACCESSSERVICES.ORG,12/17/2021 09:32:38,SCOTT MCMULLAN-VP FINANCE,CLIFTONLARSONALLEN LLP,"610 W. GERMANTOWN PIKE, SUITE 400",,PLYMOUTH MEETING,PA,19462,WILLIAM LOUGHERY,PRINCIPAL,2156433900,,WILLIAM.LOUGHERY@CLACONNECT.COM,12/16/2021 12:30:37,,O,,U,N,N,N,N,U,750000,Y,,1634719,,N,N,N,N,N,N,,93,12/17/2021 00:00:00,12/19/2021 01:30:03,,N,908,1,x00,12/17/2021 00:00:00,,N,SCOTT MCMULLAN,VP FINANCE,12/17/2021 00:00:00,410746749,N,,N,N,,,,,Non-profit,UG,,,,,,07/01/2020 00:00:00,,,,US
1412483,1826192021,2021,182619,09/30/2021 00:00:00,S,A,,N,382033440,,N,020842597,BAY METROPOLITAN TRANSPORTATION AUTHORITY,1510 N. JOHNSON STREET,,BAY CITY,MI,48708,KRISTY L. PLETZKE,FINANCE MANAGER,9898942900,,KPLETZKE@BAYMETRO.COM,01/25/2022 08:25:30,KRSITY L. PLETZKE-FINANCE MANAGER,MANER COSTERISAN ,"2425 E. GRAND RIVER AVE., SUITE 1",,LANSING,MI,48912,WILLIAM I. TUCKER IV,PRINCIPAL,5173237500,,BTUCKER@MANERCPA.COM,01/24/2022 14:50:15,,O,,U,N,N,N,N,U,750000,Y,,5145943,,N,N,N,N,N,N,,20,01/25/2022 00:00:00,02/01/2022 15:00:08,,N,403,1,x00,01/25/2022 00:00:00,,N,KRSITY L. PLETZKE,FINANCE MANAGER,01/25/2022 00:00:00,382157642,N,,N,N,,,,,Non-profit,UG,,,,,,10/01/2020 00:00:00,,,,US
1435644,2447812021,2021,244781,09/30/2021 00:00:00,S,A,,N,941156347,,N,074629460,THE SALVATION ARMY INTERMOUNTAIN DIVISION,1370 PENNSYLVANIA STREET,,DENVER,CO,80203,D. KIRK LAPOURE,DIVISIONAL FINANCE DIRECTOR,3038669291,,KIRK.LAPOURE@USW.SALVATIONARMY.ORG,10/17/2022 12:30:54,KIRK D. LAPOURE-DIVISIONAL FINANCE DIRECTOR,DELOITTE & TOUCHE LLP,555 WEST 5TH ST; STE 2700,,LOS ANGELES,CA,90013,ROSALBA PROCOPIO,PARTNER,8182942370,,RPROCOPIO@DELOITTE.COM,10/12/2022 11:00:09,,O,,U,N,Y,Y,N,Q,750000,N,,20790339,,N,Y,Y,Y,N,N,,21,10/17/2022 00:00:00,10/19/2022 01:30:09,,N,888,1,x00x14,10/17/2022 00:00:00,,N,KIRK D. LAPOURE,DIVISIONAL FINANCE DIRECTOR,10/17/2022 00:00:00,133891517,Y,,N,N,,,,,Non-profit,UG,,,,,,10/01/2020 00:00:00,,,,US
1442762,2545812021,2021,254581,12/31/2021 00:00:00,S,A,,Y,391530622,,Y,603307232,"FRANCISCAN SISTERS OF CHRISTIAN CHARITY SPONSORED MINISTRIES, INC.","2413 SOUTH ALVERNO ROAD,",,MANITOWOC,WI,542209302,TIMOTHY LOCH,CHIEF FINANCIAL OFFICER & VP OF FINANCE,9206847071,,TLOCH@FSCCM.ORG,09/14/2022 06:56:41,TIMOTHY LOCH-VICE PRESIDENT & CFO,"PLANTE & MORAN, PLLC","634 FRONT AVENUE NW, SUITE 400",,GRAND RAPIDS,MI,49504,OLIVER JURKOVIC,PARTNER,6166434046,,PM.SINGLEAUDIT@PLANTEMORAN.COM,09/13/2022 13:50:04,,O,,U,N,N,N,N,U,750000,N,,14302588,,N,Y,N,Y,N,N,,93,09/20/2022 00:00:00,09/23/2022 01:30:08,,N,888,1,x93x00,09/20/2022 00:00:00,,N,TIMOTHY LOCH,VICE PRESIDENT & CFO,09/20/2022 00:00:00,381357951,N,,N,N,,,,,Non-profit,UG,,09/23/2022 14:06:25,09/29/2022 09:43:46,N,G,01/01/2021 00:00:00,,,,US
1406422,2313532021,2021,231353,06/30/2021 00:00:00,S,A,,N,416002825,,N,071361273,INDEPENDENT SCHOOL DISTRICT 531,630 1ST AVE. NW,,BYRON,MN,55920,TODD LECHTENBERG,BUSINESS MANAGER,5072732477,,TLECHTENBERG@SCHOOLMANAGEMENTSERVICES.ORG,12/06/2021 12:41:18,TODD LECHTENBERG-DIRECTOR OF FINANCE AND OPERATIONS,"SMITH SCHAFER & ASSOCIATES, LTD. ","220 SOUTH BROADWAY, SUITE 102",,ROCHESTER,MN,55904,ANDREW FORLITI,PRINCIPAL,5072883277,,A.FORLITI@SMITHSCHAFER.COM,12/08/2021 09:04:33,,O,,U,N,N,N,N,U,750000,N,,1464121,,N,N,N,N,N,N,,10,12/08/2021 00:00:00,12/10/2021 01:30:03,,N,505,1,x00,12/08/2021 00:00:00,,N,TODD LECHTENBERG,DIRECTOR OF FINANCE AND OPERATIONS,12/08/2021 00:00:00,411489071,N,,N,N,,,,,Local government,UG,,12/13/2021 16:02:30,12/16/2021 07:41:00,N,G,07/01/2020 00:00:00,,,,US
1409572,2519642021,2021,251964,06/30/2021 00:00:00,S,A,,N,451266409,,N,969039614,STEAM ACADEMY OF WARREN,261 ELM ROAD NE,,WARREN,OH,44483,DAVE MASSA ,TREASURER,3305150572,,DAVE@MASSASOLUTIONSLLC.COM,01/06/2022 16:31:55,DAVE MASSA-FISCAL OFFICER,"REA & ASSOCIATES, INC. ",941 STEUBENVILLE AVE ,,CAMBRIDGE ,OH,43725,ZAC MORRIS ,PRINCIPAL,7404325658,,ZAC.MORRIS@REACPA.COM,01/06/2022 14:49:07,,O,,U,N,N,N,Y,U,750000,N,,961475,,N,N,N,N,N,N,,84,01/06/2022 00:00:00,01/12/2022 01:30:06,,N,888,1,x00,01/06/2022 00:00:00,,N,DAVE MASSA,FISCAL OFFICER,01/06/2022 00:00:00,341310124,N,,N,N,,,,,Local government,UG,,01/16/2022 14:58:42,01/20/2022 06:36:04,N,G,07/01/2020 00:00:00,,,,US
1418435,2157762021,2021,215776,06/30/2021 00:00:00,S,A,,N,856000220,,N,627836893,GUADALUPE COUNTY,130 SOUTH 4TH ST.,,SANTA ROSA,NM,88435,ROSE FERNANDEZ,COUNTY MANAGER,5755126122,,RFERNANDEZ@GUADCO.US,02/16/2022 13:38:03,ROSE FERNANDEZ-COUNTY MANAGER/FINANCE DIRECTOR,KUBIAK MELTON & ASSOCIATES LLC,6747 ACADEMY RIAD NE. STE. A,,ALBUQUERQUE,NM,87109,RAMON CALASAGSAG,AUDIT ASSOCIATE,5059984903,,RCALASAGSAG@KUBIAKCPA.COM,02/15/2022 10:38:02,,O,,U,N,N,N,N,U,750000,N,,1926633,,N,N,N,N,N,N,,21,02/16/2022 00:00:00,02/18/2022 01:30:03,,N,100,1,x00,02/16/2022 00:00:00,,N,ROSE FERNANDEZ,COUNTY MANAGER/FINANCE DIRECTOR,02/16/2022 00:00:00,481255955,N,,N,N,,,,,Local government,UG,,,,,,07/01/2020 00:00:00,,,,US
1426991,2191442021,2021,219144,12/31/2021 00:00:00,S,A,,N,752977652,,N,,"SWOPE RIDGE GARDENS HOUSING CORP., INC.",7920 WARD PARKWAY,,KANSAS CITY,MO,64114,FRED ARREGUIN,CFO,8165624240,,FARREGUIN@YARCO.COM,04/04/2022 10:56:47,FRED ARREGUIN-CFO,"MAYER HOFFMAN MCCANN, P.C.","700 WEST 47TH ST., SUITE 1100",,KANSAS CITY,MO,64112,JEFF CARLSTEDT,ENGAGEMENT SHAREHOLDER,8169455600,,JCARLSTEDT@CBIZ.COM,04/05/2022 20:17:06,,O,,U,N,N,N,N,U,750000,Y,,4715948,,N,N,N,N,N,N,,14,04/05/2022 00:00:00,04/13/2022 01:30:05,,N,903,1,x00,04/05/2022 00:00:00,,N,FRED ARREGUIN,CFO,04/05/2022 00:00:00,431947695,N,,N,N,,,,,Non-profit,UG,,,,,,01/01/2021 00:00:00,,,,US
1392312,2497082021,2021,249708,06/30/2021 00:00:00,S,A,,N,383635927,,N,030369958,THE INSTITUTE FOR EXCELLENCE IN EDUCATION,711 W PICKARD STREET,,MOUNT PLEASANT,MI,48858,JACKIE MULLIKIN,VP OF FINANCE & ADMINISTRATION,9893173510,,JMULLIKIN@EXCELLENCEINED.ORG,09/10/2021 12:23:15,JACKIE MULLIKIN-VP OF FINANCE,YEO & YEO PC,7810 N ALGER RD,,ALMA,MI,48801,ALI BARNES,PRINCIPAL,9894636108,,ALIBAR@YEOANDYEO.COM,09/12/2021 19:13:32,,O,,U,N,N,N,N,U,750000,N,,864413,,N,N,N,N,N,N,,84,09/12/2021 00:00:00,09/16/2021 01:30:05,,N,888,1,x00,09/12/2021 00:00:00,,N,JACKIE MULLIKIN,VP OF FINANCE,09/12/2021 00:00:00,382706146,N,,N,N,,,,,Non-profit,UG,,09/15/2021 14:13:05,09/16/2021 09:25:05,N,G,07/01/2020 00:00:00,,,,US
1436475,1478882021,2021,147888,03/31/2021 00:00:00,S,A,,N,526001395,,N,,HOUSING AUTHORITY OF THE CITY OF FREDERICK,209 MADISON STREET,,FREDERICK,MD,21701,BARBARA HOOD,DIRECTOR OF FINANCE,3016628173,,BHOOD@HACFREDERICK.ORG,06/30/2022 14:22:49,ELIZABETH OVANDO-RINGLING-DIRECTOR OF OPERATIONS AND COMPLIANCE,"BARBACANE, THORNTON & COMPANY LLP",503 CARR ROAD SUITE 100,,WILMINGTON,DE,19809,STEVEN,"KUTSUFLAKIS,CPA",3024788940,,SKUTSUFLAKIS@BTCPA.COM,06/30/2022 14:14:23,,O,,U,N,N,N,N,U,750000,Y,,13328488,,N,N,N,N,N,N,,14,06/30/2022 00:00:00,07/07/2022 01:30:04,,N,403,1,x00,06/30/2022 00:00:00,,N,ELIZABETH OVANDO-RINGLING,DIRECTOR OF OPERATIONS AND COMPLIANCE,06/30/2022 00:00:00,510229493,N,,N,N,,,,,Non-profit,UG,,,,,,04/01/2020 00:00:00,,,,US
1408851,2519712021,2021,251971,06/30/2021 00:00:00,S,A,,N,812587516,,N,080563814,WESTWOOD PREPARATORY ACADEMY ,840 W STATE ST,,COLUMBUS ,OH,43222,DAVE MASSA ,TREASURER ,3305150572,,DAVE@MASSASOLUTIONSLLC.COM,01/07/2022 10:47:16,DAVE MASSA-FISCAL OFFICER,"REA & ASSOCIATES, INC. ",186 N HIGH ST ,,GAHANNA ,OH,43230,ZAC MORRIS ,PRINCIPAL ,6143584682,,ZAC.MORRIS@REACPA.COM,01/07/2022 10:45:28,,O,,U,N,N,N,N,U,750000,N,,994111,,N,N,N,N,N,N,,84,01/07/2022 00:00:00,01/12/2022 01:30:06,,N,888,1,x00,01/07/2022 00:00:00,,N,DAVE MASSA,FISCAL OFFICER,01/07/2022 00:00:00,341310124,N,,N,N,,,,,Local government,UG,,01/17/2022 12:36:49,01/20/2022 06:36:04,N,G,07/01/2020 00:00:00,,,,US
1441501,2568792021,2021,256879,12/31/2021 00:00:00,S,A,,N,346405718,,N,,PAULDING COUNTY HOSPITAL,1035 WEST WAYNE STREET,,PAULDING,OH,45879,ANDREW WANNEMACHER,CHIEF FINANCIAL OFFICER,4193991106,,AWANNEMACHER@PAULDINGCOUNTYHOSPITAL.COM,02/02/2023 11:11:18,ANDREW WANNEMACHER-CFO,PLATTENBURG & ASSOCIATES,"8230 MONTGOMERY ROAD, SUITE 150",,CINCINNATI,OH,45236,DAVE MINICH,PARTNER,5138912722,,DMINICH@PLATTENBURG.COM,01/31/2023 13:31:41,,O,,U,N,N,N,N,U,750000,N,,2486009,,N,N,N,N,N,N,,93,02/02/2023 00:00:00,02/07/2023 01:30:06,,N,888,1,x00,02/02/2023 00:00:00,,N,ANDREW WANNEMACHER,CFO,02/02/2023 00:00:00,311395136,N,,N,N,,,,,Local government,UG,,,,,,01/01/2021 00:00:00,,,,US
1401465,2517542021,2021,251754,09/30/2021 00:00:00,S,A,,Y,464158433,,Y,097173131,VALLEY CHILDREN'S HEALTHCARE,9300 VALLEY CHILDREN'S PLACE,,MADERA,CA,936368761,JULIE MACIAS,"DIRECTOR, ACCOUNTING & REPORTING",5593537003,,JMACIAS@VALLEYCHILDRENS.ORG,06/24/2022 17:43:36,"JULIE MACIAS-DIRECTOR, ACCOUNTING AND REPORTING",MOSS ADAMS LLP,2882 PROSPECT PARK DRIVE STE 300,,RANCHO CORDOVA,CA,956706053,BRIAN CONNER,PARTNER,2099556114,,BRIAN.CONNER@MOSSADAMS.COM,06/24/2022 14:16:23,,O,,U,N,N,N,N,U,750000,N,,15410650,,N,N,N,N,N,N,,93,06/24/2022 00:00:00,06/30/2022 01:30:04,,N,888,1,x00,06/24/2022 00:00:00,,N,JULIE MACIAS,"DIRECTOR, ACCOUNTING AND REPORTING",06/24/2022 00:00:00,910189318,N,,N,N,,,,,Non-profit,UG,,,,,,10/01/2020 00:00:00,,,,US
1477669,2572272021,2021,257227,06/30/2021 00:00:00,S,A,,N,271348840,,N,,MULTI-ETHNIC COLLABORATIVE OF COMMUNITY AGENCIES,"1505 E. 17TH STREET, SUITE 123",,SANTA ANA,CA,92705,YARA AYACHE,DIRECTOR OF FINANCE & OPERATIONS,6572932630,,YARA@OCMECCA.ORG,03/10/2023 20:36:11,YESENIA OCHOA-EXECUTIVE DIRECTOR,GUZMAN & GRAY,"4510 E PACIFIC COAST HWY, #270",,LONG BEACH,CA,90804,PATRICK GUZMAN,PARTNER,5624980997,,PGUZMAN@CPAGG.COM,03/10/2023 20:16:19,,O,,U,Y,N,N,N,U,750000,N,,1468176,,Y,Y,N,Y,N,N,,97,03/10/2023 00:00:00,03/15/2023 01:30:06,,N,888,1,x00,03/02/2023 00:00:00,,N,YESENIA OCHOA,EXECUTIVE DIRECTOR,03/10/2023 00:00:00,330302407,N,,Y,Y,,,,,Non-profit,UG,,,,,,07/01/2020 00:00:00,,,,
1403837,1741752021,2021,174175,06/30/2021 00:00:00,S,A,,N,756001362,,N,078558467,ECTOR COUNTY INDEPENDENT SCHOOL DISTRICT,802 N. SAM HOUSTON AVE.,,ODESSA,TX,797613912,DEBORAH OTTMERS,CHIEF FINANCIAL OFFICER,4324569499,,DEBORAH.OTTMERS@ECTORCOUNTYISD.ORG,11/23/2021 10:40:01,"DEBORAH OTTMERS, CPA-CHIEF FINANCIAL OFFICER",WHITLEY PENN LLP,7100 E. TEXAS HIGHWAY 191 SUITE 400,,ODESSA,TX,79765,"CATHERINE SPEER, CPA",ASSURANCE PARTNER,4323635965,,CATHERINE.SPEER@WHITLEYPENN.COM,11/23/2021 09:49:55,,C,84,U,N,N,N,N,U,2086912,Y,,69401056,,N,N,N,N,N,N,,,11/23/2021 00:00:00,11/27/2021 01:30:03,,N,505,1,x00,11/23/2021 00:00:00,,N,"DEBORAH OTTMERS, CPA",CHIEF FINANCIAL OFFICER,11/23/2021 00:00:00,752393478,N,,N,N,,,,,Local government,UG,,11/28/2021 13:16:01,12/02/2021 06:56:23,N,G,07/01/2020 00:00:00,,,,US
1427486,1720142021,2021,172014,09/30/2021 00:00:00,S,A,,N,756000934,,N,073144941,"ECTOR COUNTY, TEXAS","1010 E EIGHTH ST., UNIT 520",,ODESSA,TX,79761,RANDY DONNER,COUNTY AUDITOR,4324984099,,RANDY.DONNER@ECTORCOUNTYTX.GOV,04/07/2022 13:30:12,RANDY DONNER-ECTOR COUNTY AUDITOR,WHITLEY PENN LLP,"7100 E. TEXAS HIGHWAY 191, STE. 400",,ODESSA,TX,79765,ROGER TOVAR,AUDIT PARTNER,4323623800,,ROGER.TOVAR@WHITLEYPENN.COM,04/19/2022 11:19:27,,O,,U,N,N,N,N,U,750000,N,,2495018,,N,N,N,N,N,N,,21,04/19/2022 00:00:00,04/21/2022 01:30:03,,N,100,1,x00,04/19/2022 00:00:00,,N,RANDY DONNER,ECTOR COUNTY AUDITOR,04/19/2022 00:00:00,752393478,N,,N,N,,,,,Local government,UG,,,,,,10/01/2020 00:00:00,,,,US
1434091,267162021,2021,26716,09/30/2021 00:00:00,S,A,,N,232041538,,N,064049547,DISABILITY RIGHTS PENNSYLVANIA,"301 CHESTNUT STREET, SUITE 300",,HARRISBURG,PA,17101,PERI JUDE RADECIC,EXECUTIVE DIRECTOR,7172368110,,PRADECIC@DISABILITYRIGHTSPA.ORG,08/16/2022 10:34:00,PERI JUDE RADECIC-CEO,"MAHER DUESSEL, CPAS","1800 LINGLESTOWN ROAD, SUITE 306",,HARRISBURG,PA,17110,LISA RITTER,ENGAGEMENT PARTNER,7172321230,,LRITTER@MD-CPAS.COM,08/16/2022 10:29:16,,O,,U,N,N,N,N,Q,750000,Y,,4591803,,N,Y,N,Y,N,N,,93,08/16/2022 00:00:00,08/19/2022 01:30:04,,N,908,1,x00x96,08/16/2022 00:00:00,,N,PERI JUDE RADECIC,CEO,08/16/2022 00:00:00,251622758,N,,N,N,,,,,Non-profit,UG,,08/19/2022 11:00:14,08/25/2022 08:25:20,N,G,10/01/2020 00:00:00,,,,US
1440957,2427572021,2021,242757,06/30/2021 00:00:00,S,A,,N,371071692,,N,193556701,HENDERSON-KNOX-MERCER-WARREN REGIONAL OFFICE OF EDUCATION #33,"105 N E STREET, SUITE 1",,MONMOUTH,IL,614621667,JULIE LANT,HEAD OF BOOKKEEPING/PAYROLL,3097157304,,JLANT@ROE33.NET,08/24/2022 15:33:36,JODI SCOTT-REGIONAL SUPERINTENDENT,ADELFIA LLC,"400 EAST RANDOLPH STREET, SUITE 700",,CHICAGO,IL,60601,STELLA MARIE SANTOS,PARTNER,3122409500,,SBSANTOS@ADELFIACPAS.COM,08/22/2022 11:09:36,,O,,U,Y,Y,N,N,,750000,N,,1145588,,N,N,N,N,N,N,,84,08/24/2022 00:00:00,08/26/2022 01:30:04,,N,888,1,x00,08/24/2022 00:00:00,,N,JODI SCOTT,REGIONAL SUPERINTENDENT,08/24/2022 00:00:00,453719567,Y,,Y,N,,,,,Non-profit,UG,,08/30/2022 11:43:39,09/01/2022 10:18:15,N,G,07/01/2020 00:00:00,,,,US
1410216,1761922021,2021,176192,06/30/2021 00:00:00,S,A,,N,546001147,,Y,056151814,"TOWN OF BLACKSTONE, VIRGINIA",100 W ELM STREET,,BLACKSTONE,VA,23824,JENNIFER HARDY,FINANCE DIRECTOR,4342927251,,JENNIFERHARDY@TOWNOFBLACKSTONEVA.COM,12/29/2021 13:09:44,JENNIFER HARDY-FINANCE DIRECTOR,"ROBINSON, FARMER, COX ASSOCIATES",401 SOUTHLAKE BLVD SUITE C-1,,NORTH CHESTERFIELD,VA,23236,"AARON HAWKINS, CPA",MEMBER,8043784200,,AHAWKINS@RFCA.COM,12/30/2021 10:11:15,,O,,U,N,N,N,N,U,750000,N,,1709747,,N,N,N,N,N,N,,97,12/30/2021 00:00:00,01/01/2022 01:30:04,,N,200,1,x00,12/30/2021 00:00:00,,N,JENNIFER HARDY,FINANCE DIRECTOR,12/30/2021 00:00:00,541896113,N,,N,N,,,,,Local government,UG,,,,,,07/01/2020 00:00:00,,,,US
1428496,2492482021,2021,249248,09/30/2021 00:00:00,S,A,,N,746001573,,N,618150460,"CITY OF LAREDO, TEXAS","1110 HOUSTON, PO BOX 579",,LAREDO,TX,780420579,JOSE F. CASTILLO,ACTING FINANCE DIRECTOR,9567917425,,JCASTILLO@CI.LAREDO.TX.US,04/20/2022 10:41:18,ADRIANA DELGADO-CHIEF ACCOUNTANT,"CANALES, GARZA, & BAUM PLLC",707 E CALTON RD. STE #201,,LAREDO,TX,78041,JUAN JOSE GARZA,CPA,9567241111,,JJGARZA@CGBCPAS.COM,04/22/2022 12:51:46,,C,20,U,N,N,N,N,U,1879225,Y,,62640849,,N,N,N,N,N,N,,,04/22/2022 00:00:00,04/25/2022 01:30:04,,N,888,1,x00,04/22/2022 00:00:00,,N,ADRIANA DELGADO,CHIEF ACCOUNTANT,04/22/2022 00:00:00,263988942,N,,N,N,,,,,Local government,UG,,,,,,10/01/2020 00:00:00,,,,US
1424477,2455432021,2021,245543,06/30/2021 00:00:00,S,A,,N,472887845,,N,877578914,WESTERN OREGON UNIVERSITY,345 MONMOUTH AVENUE N,,MONMOUTH,OR,97361,SHADRON LEHMAN,DIRECTOR OF ACCOUNTING,5038389472,,LEHMANS@WOU.EDU,03/28/2022 19:31:12,SHADRON LEHMAN-CONTROLLER,EIDE BAILLY LLP,"877 W MAIN STREET, SUITE 800",,BOISE,ID,83702,KRISTIN DIGGS,PARTNER,2083447150,,KDIGGS@EIDEBAILLY.COM,03/28/2022 19:06:14,,O,,U,N,N,N,N,U,1486318,Y,,49543949,,N,Y,N,Y,Y,Y,,84,03/28/2022 00:00:00,04/07/2022 01:30:03,,N,888,1,x84,03/23/2022 00:00:00,,N,SHADRON LEHMAN,CONTROLLER,03/28/2022 00:00:00,450250958,N,,N,N,,,,,Institution of higher education (IHE),UG,00320900,04/06/2022 12:36:03,04/07/2022 13:44:25,B,B,07/01/2020 00:00:00,,,,
1413159,2318032021,2021,231803,08/31/2021 00:00:00,S,A,,N,134305403,,N,829206056,"EASTER SEALS HOUSING SOLUTIONS, INC.",425 1ST AVE. NORTH,,GREAT FALLS,MT,59401,MARK SHERMAN,VICE PRESIDENT OF FINANCE,4067713762,,MARKS@ESGW.ORG,01/11/2022 13:16:52,MARK SHERMAN-CFO,"MADDOX & ASSOCIATES, APC","5627 BANKERS AVENUE, BUILDING 2",,BATON ROUGE,LA,708082610,BRYAN BEALE,CPA,2259263360,,MAIL@MADDOXASSOCIATES.COM,01/13/2022 08:51:15,,O,,U,N,N,N,N,U,750000,Y,,1899409,,N,N,N,N,N,N,,14,01/13/2022 00:00:00,01/16/2022 01:30:05,,N,903,1,x00,01/13/2022 00:00:00,,N,MARK SHERMAN,CFO,01/13/2022 00:00:00,721314069,N,,N,N,,,,,Non-profit,UG,,,,,,09/01/2020 00:00:00,,,,US
1404479,1412672021,2021,141267,06/30/2021 00:00:00,S,A,,N,366004326,,N,362897372,LAGRANGE SCHOOL DISTRICT 105 SOUTH,701 S. SEVENTH AVENUE,,LAGRANGE,IL,60525,SCOTT BLUMBERG,BUSINESS MANAGER,7044822700,,SBLUMBERG@D105.NET,07/26/2022 16:51:30,SCOTT BLUMBERG-BUSINESS MANAGER/CSBO,"MILLER COOPER & CO., LTD.","1751 LAKE COOK ROAD, SUITE 400",,DEERFIELD,IL,60015,BETSY ALLEN,PRINCIPAL,8472051400,,BALLEN@MILLERCOOPER.COM,07/26/2022 13:42:32,,O,,U,Y,N,N,N,U,750000,N,,1369337,,N,N,N,N,N,N,,84,07/26/2022 00:00:00,07/28/2022 01:30:04,,N,505,1,x00,07/26/2022 00:00:00,,N,SCOTT BLUMBERG,BUSINESS MANAGER/CSBO,07/26/2022 00:00:00,362897372,N,,Y,N,,,,,State,UG,,07/29/2022 11:47:42,08/04/2022 10:18:22,N,G,07/01/2020 00:00:00,,,,US
1436432,2236232021,2021,223623,12/31/2021 00:00:00,S,A,,N,223230622,,N,948345038,VILLAGE SQUARE HOUSING CORPORATION,307 CUMBERLAND AVENUE,,PORTLAND,ME,04101,ERIC BOUCHER,SENIOR VP OF FINANCE,2075537777,,EBOUCHER@AVESTAHOUSING.ORG,06/22/2022 14:09:37,ERIC BOUCHER-SVP,OTIS ATWELL,324 GANNETT DRIVE,,SOUTH PORTLAND,ME,04106,RON WORDEN,PARTNER,2077801100,,RWORDEN@OTISATWELL.COM,06/22/2022 14:50:39,,O,,U,N,N,N,N,U,750000,Y,,2726837,,N,N,N,N,N,N,,10,06/22/2022 00:00:00,06/24/2022 01:30:11,,N,903,1,x00,06/22/2022 00:00:00,,N,ERIC BOUCHER,SVP,06/22/2022 00:00:00,203690847,N,,N,N,,,,,Non-profit,UG,,,,,,01/01/2021 00:00:00,,,,US
1397018,2514762021,2021,251476,06/30/2021 00:00:00,S,A,,N,640816966,,N,061216219,TISHOMINGO COUNTY WATER DISTRICT,P O BOX 354,,IUKA,MS,38852,DONNIE CAIN,CHAIRMAN,6624233211,,TISHOMINGOCOUNTYWATERDISTRICT@YAHOO.COM,11/11/2021 14:44:49,DONNIE CAIN-DONNIE CAIN,NAIL MCKINNEY PROFESSIONAL ASSOCIATION,P O BOX 64,,AMORY,MS,38821,RODNEY SUMMERFORD,SHAREHOLDER,6622565603,,RVS@NMCPA.COM,11/10/2021 10:04:53,,O,,U,N,Y,N,N,U,750000,N,,1051375,,N,N,N,N,N,N,,10,11/12/2021 00:00:00,11/14/2021 01:30:04,,N,888,1,x00,11/12/2021 00:00:00,,N,DONNIE CAIN,DONNIE CAIN,11/12/2021 00:00:00,640760834,Y,,N,N,,,,,Local government,UG,,,,,,07/01/2020 00:00:00,,,,US
1424767,78572021,2021,7857,06/30/2021 00:00:00,S,A,,N,061307718,,N,932912991,"HILLSIDE ELDERLY HOUSING, INC",1 GLEN AYRE DR,,NEW MILFORD,CT,06776,MARIE LAPOINTE,COMPTROLLER EHM,2032304809,,MLAPOINTE@EHMCHM.ORG,03/25/2022 15:40:02,MARIE LAPOINTE-COMPTROLLER,KIRCALDIE RANDALL & MCNAB LLC,605 WASHINGTON AVENUE,,NORTH HAVEN,CT,064731187,"BRIAN S BORGERSON, CPA",PARTNER,2032304809,,BBORG@KRMCPA.COM,03/25/2022 14:51:45,,O,,U,N,N,N,N,U,750000,N,,3910996,,N,N,N,Y,Y,N,,14,03/25/2022 00:00:00,03/27/2022 01:30:05,,N,903,1,x14,03/25/2022 00:00:00,,N,MARIE LAPOINTE,COMPTROLLER,03/25/2022 00:00:00,060415530,N,,N,N,,,,,Non-profit,UG,,,,,,07/01/2020 00:00:00,,,,US
1439821,2540142021,2021,254014,12/31/2021 00:00:00,S,A,,Y,752483918,,Y,929312106,DISABILITY SERVICES OF THE SOUTHWEST,"6243 IH-10 WEST, STE. 114",,SAN ANTONIO,TX,78201,LAURIE LYSSY,CHIEF FINANCIAL OFFICER,2107980123,,LLYSSY@DSSWTX.ORG,07/22/2022 13:51:20,LAURIE LYSSY-CHIEF FINANCIAL OFFICER,"WEAVER AND TIDWELL, L.L.P.","9311 SAN PEDRO AVE, SUITE 1400",,SAN ANTONIO,TX,78216,BRETT SIEGFRIED,PARTNER,2105723745,,BRETT.SIEGFRIED@WEAVER.COM,07/22/2022 14:48:28,,O,,U,N,N,N,N,U,750000,N,,958496,,N,N,N,N,N,N,,93,07/22/2022 00:00:00,07/26/2022 01:30:04,,N,888,1,x00,07/22/2022 00:00:00,,N,LAURIE LYSSY,CHIEF FINANCIAL OFFICER,07/22/2022 00:00:00,750786316,N,,N,N,,,,,Non-profit,UG,,,,,,01/01/2021 00:00:00,,,,US
1447779,2177002021,2021,217700,12/31/2021 00:00:00,S,A,,N,341803445,,N,960848802,ALPHA TOWER,662 WOLF LEDGES PARKWAY,,AKRON,OH,44311,"DR. ALBERT A. BRAGG, PHD",EXECUTIVE DIRECTOR,3303768787,,DTRIGG@ALPHAHOMES.ORG,10/03/2022 08:06:33,DON TRIGG-CONTROLLER,"KEVIN L. PENN, INC.",11811 SHAKER BLVD.,,CLEVELAND,OH,44120,"KEVIN L. PENN, CPA",PRESIDENT,2164211000,,KLPENNCPA@AOL.COM,09/29/2022 20:35:53,,O,,U,Y,N,N,N,U,750000,Y,,1735257,,Y,N,N,Y,Y,N,,14,10/03/2022 00:00:00,10/14/2022 01:30:06,,N,903,1,x14,10/03/2022 00:00:00,,N,DON TRIGG,CONTROLLER,10/03/2022 00:00:00,341794580,N,,Y,Y,,,,,Non-profit,UG,,,,,,01/01/2021 00:00:00,,,,US
1430223,2314852021,2021,231485,12/31/2021 00:00:00,S,A,,N,204096183,,N,966920956,"FIRST RICHLAND MORROW HOUSING, INC. XI",1601 BETHEL ROAD,,COLUMBUS,OH,43220,SHELLEY DARFUS,CONTROLLER,6144519000,,SDARFUS@BARCUSCOMPANY.COM,04/28/2022 17:53:23,SHELLEY DARFUS-CONTROLLER,"STEMEN, MERTENS, STICKLER CPAS & ASSOCIATES","370 S FIFTH STREET, SUITE 1",,COLUMBUS,OH,43215,TRACIE BAUGUS,CPA,6142240955,,TBAUGUS@SMS-CPAS.COM,04/29/2022 14:35:14,,O,,U,N,N,N,N,U,750000,Y,,1403303,,N,N,N,N,N,N,,14,04/29/2022 00:00:00,05/03/2022 01:30:04,,N,903,1,x00,04/29/2022 00:00:00,,N,SHELLEY DARFUS,CONTROLLER,04/29/2022 00:00:00,205511881,N,,N,N,,,,,Non-profit,UG,,,,,,01/01/2021 00:00:00,,,,US
1429838,2438812021,2021,243881,06/30/2021 00:00:00,S,A,,N,521217106,,N,627380512,"SHELTER HOUSE, INC.","12310 PINECREST ROAD, SUITE 304",,RESTON,VA,20191,JOE MEYER,EXECUTIVE DIRECTOR,7039557966,,JOE.MEYER@SHELTERHOUSE.ORG,04/26/2022 10:15:30,JOE MEYER-4/26/22,ARONSON LLC,"111 ROCKVILLE PIKE, SUITE 600",,ROCKVILLE,MD,20850,GREG PLOTTS,PARTNER,3012316226,,GPLOTTS@ARONSONLLC.COM,04/26/2022 10:57:26,,O,,U,Y,N,N,N,U,750000,Y,,4213610,,Y,N,N,Y,N,N,,14,04/26/2022 00:00:00,04/28/2022 01:30:03,,N,888,1,x00,03/31/2022 00:00:00,,N,JOE MEYER,4/26/22,04/26/2022 00:00:00,371611326,N,,Y,Y,,,,,Non-profit,UG,,,,,,07/01/2020 00:00:00,,,,
1443200,2435262021,2021,243526,06/30/2021 00:00:00,S,A,,N,570604046,,N,,SUMTER COUNTY COMMISSION ON ALCOHOL AND DRUG ABUSE,755 ELECTRIC DRIVE,,SUMTER,SC,29150,JOYCE NESBITT,FINANCE MANAGER,8039055100,,JNESBITT@SUMTERBHS.ORG,12/19/2022 08:01:11,JOYCE NESBITT-FINANCE DIRECTOR,BROWN CPA LLC,PO BOX 3288,,IRMO,SC,29063,MATTHEW BROWN,PRINCIPAL,8033153029,,MBROWN@BROWNCPALLC.COM,09/02/2022 15:12:03,,O,,QD,Y,Y,Y,N,D,750000,N,,1198512,,N,Y,N,Y,N,N,,93,12/19/2022 00:00:00,12/22/2022 01:30:06,,N,888,1,x00,08/25/2022 00:00:00,,N,JOYCE NESBITT,FINANCE DIRECTOR,12/19/2022 00:00:00,050614390,Y,,Y,N,,,,,Local government,UG,,,,,,07/01/2020 00:00:00,,,,
1431993,1773872021,2021,177387,08/31/2021 00:00:00,S,A,,N,916001550,,N,055484455,YAKIMA SCHOOL DISTRICT NO. 7,104 N 4TH AVE,,YAKIMA,WA,98902,REBECCA NISSEN,EXECUTIVE DIRECTOR OF FINANCE,5095737045,,NISSEN.BECKY@YSD7.ORG,05/19/2022 18:51:28,BECKY NISSEN-EXECUTIVE DIRECTOR OF FINANCE,OFFICE OF THE WASHINGTON STATE AUDITOR,"230 S SECOND STREET, ROOM 204",,YAKIMA,WA,98901,ANN STRAND,AUDIT MANAGER,5094547849,,STRANDA@SAO.WA.GOV,05/19/2022 01:21:19,,O,,AS,N,N,N,N,U,955246,Y,,31841524,,N,N,N,N,N,N,,84,05/19/2022 00:00:00,05/21/2022 01:30:05,,N,505,1,x00,05/19/2022 00:00:00,,N,BECKY NISSEN,EXECUTIVE DIRECTOR OF FINANCE,05/19/2022 00:00:00,916001098,N,,N,N,REGULATORY,Y,U,,Local government,UG,,06/10/2022 12:09:20,06/16/2022 07:04:23,N,G,09/01/2020 00:00:00,,,,US
1416935,2360592021,2021,236059,06/30/2021 00:00:00,S,A,,N,272309370,,N,963638155,COSSATOT RIVER SCHOOL DISTRICT,130 SCHOOL DRIVE,,WICKES,AR,719739312,TYLER BROYLES,SUPERINTENDENT,8703857101,,LMCKENZIE@COSSATOT.US,03/15/2022 12:09:45,LEANN MCKENZIE-DISTRICT TREASURER,ARKANSAS LEGISLATIVE AUDIT,"500 WOODLANE STREET, STE 172",,LITTLE ROCK,AR,722011099,"MATT FINK, CPA",DEPUTY LEGISLATIVE AUDITOR,5016838600,,DCF@ARKLEGAUDIT.GOV,03/14/2022 08:53:39,,O,,AS,N,N,N,N,U,750000,N,,2672301,,N,N,N,N,N,N,,84,03/15/2022 00:00:00,03/17/2022 01:30:04,,N,505,1,x00,03/15/2022 00:00:00,,N,LEANN MCKENZIE,DISTRICT TREASURER,03/15/2022 00:00:00,716042275,N,,N,N,REGULATORY,Y,U,,Local government,UG,,03/16/2022 14:24:12,03/17/2022 08:13:30,N,G,07/01/2020 00:00:00,,,,US
1436185,1487262021,2021,148726,12/31/2021 00:00:00,S,A,,N,386004845,,N,088328877,"COUNTY OF JACKSON, MICHIGAN",120 W. MICHIGAN AVE,,JACKSON,MI,49201,CECILIA ANDERSON,FINANCE DIRECTOR,5177686614,,CANDERSON@MIJACKSON.ORG,06/29/2022 17:43:12,CECILIA ANDERSON-FINANCE DIRECTOR,REHMANN ROBSON LLC,675 ROBINSON ROAD,,JACKSON,MI,49203,"NATHAN C. BALDERMANN, CPA, CGFM",PRINCIPAL,5177876503,,NATHAN.BALDERMANN@REHMANN.COM,06/29/2022 17:49:24,,O,,U,N,N,N,N,U,750000,N,,12900939,,N,N,N,N,N,Y,,21,06/29/2022 00:00:00,07/01/2022 01:30:03,,N,100,1,x00,06/29/2022 00:00:00,,N,CECILIA ANDERSON,FINANCE DIRECTOR,06/29/2022 00:00:00,383635706,N,,N,N,,,,,Local government,UG,,07/10/2022 14:48:03,07/14/2022 09:39:48,,N,01/01/2021 00:00:00,,,,US
1411711,1198522021,2021,119852,06/30/2021 00:00:00,S,A,,N,942384035,,N,,MOUNT ST. JOSEPH - ST. ELIZABETH,100 MASONIC AVE.,,SAN FRANCISCO,CA,94118,SISTER BETTY MARIE DUNKEL ,EXECUTIVE DIRECTOR,4155678370,,SISTERBETTYMARIE@THEEPIPHANYCENTER.ORG,04/13/2022 13:57:23,SISTER BETTY DUNKEL-EXECUTIVE DIRECTOR,HARRINGTON GROUP,2698 MATARO STREET,,PASADENA,CA,91107,TONETTA L. CONNER,MANAGING PARTNER,6264036801,,TONETTA@NPOCPAS.COM,04/13/2022 10:07:27,,O,,U,N,N,N,N,U,750000,N,,1878950,,N,N,N,N,N,N,,93,04/13/2022 00:00:00,04/16/2022 01:30:03,,N,908,1,x00,04/13/2022 00:00:00,,N,SISTER BETTY DUNKEL,EXECUTIVE DIRECTOR,04/13/2022 00:00:00,954557617,N,,N,N,,,,,Non-profit,UG,,,,,,07/01/2020 00:00:00,,,,US
1424922,2383172021,2021,238317,06/30/2021 00:00:00,S,A,,N,953557032,,N,,FRIENDS OUTSIDE IN LOS ANGELES COUNTY,261 E COLORADO BLVD STE 217,,PASADENA,CA,91101,MARILU CLARIDGE,BOOKKEEPER,6267957607,,MCLARIDGE@FRIENDSOUTSIDELA.ORG,03/26/2022 21:55:55,MARILU CLARIDGE-MARILU CLARIDGE,"ELITE FINANCIAL SOLUTIONS, INC.",301 E FOOTHILL BLVDD STE 201,,ARCADIA,CA,91006,WILLIAM A HARRIS III,OWNER,6262561400,,BILL@ELITEFSI.COM,03/26/2022 19:36:49,,O,,U,N,N,N,N,U,750000,Y,,1257482,,N,N,N,N,N,N,,93,03/26/2022 00:00:00,03/28/2022 01:30:04,,N,888,1,x00,03/26/2022 00:00:00,,N,MARILU CLARIDGE,MARILU CLARIDGE,03/26/2022 00:00:00,208044652,N,,N,N,,,,,Non-profit,UG,,,,,,07/01/2020 00:00:00,,,,US
1431658,2289572021,2021,228957,12/31/2021 00:00:00,S,A,,N,223857312,,N,967714267,"TANNERSVILLE HOUSING DEVELOPMENT FUND COMPANY, INC.",448 MAIN STREET,,CATSKILL,NY,12414,LAWRENCE KRAJESKI,EXECUTIVE DIRECTOR,5189436700,,LARRY@CMHDC.ORG,05/11/2022 13:05:37,LAWRENCE KRAJESKI-EXECUTIVE DIRECTOR,"DIMARCO, ABIUSI & PASCARELLA, P.C.","4 CLINTON SQUARE, SUITE 104",,SYRACUSE,NY,13202,MARIA SNYDER,SHAREHOLDER,3154756954,,MSNYDER@DIMARCOCPA.COM,05/11/2022 13:10:45,,O,,U,N,N,N,N,U,750000,Y,,1489982,,N,N,N,N,N,N,,14,05/11/2022 00:00:00,05/13/2022 01:30:04,,N,903,1,x00,05/11/2022 00:00:00,,N,LAWRENCE KRAJESKI,EXECUTIVE DIRECTOR,05/11/2022 00:00:00,161427749,N,,N,N,,,,,Non-profit,UG,,,,,,01/01/2021 00:00:00,,,,US
1424137,1696482021,2021,169648,06/30/2021 00:00:00,S,A,,N,251122578,,N,039926746,NEW BRIGHTON AREA SCHOOL DISTRICT,3225 43RD STREET,,NEW BRIGHTON,PA,15066,MARYDENISE FEROCE,BUSINESS MANAGER ,7248431795,,MFEROCE@NBASD.ORG,04/04/2022 11:36:03,MARYDENISE FEROCE-BUSINESS MANAGER,MARK C TURNLEY CPA ,1000 3RD AVENUE ,,NEW BRIGHTON ,PA,15066,KIMBERLY TURNLEY ,AUDIT MANAGER ,7243123409,,K.TURNLEY@COMCAST.NET,03/28/2022 22:12:16,,O,,U,N,N,N,N,U,750000,Y,,1548493,,N,N,N,N,N,N,,84,04/04/2022 00:00:00,04/13/2022 01:30:05,,N,505,1,x00,04/04/2022 00:00:00,,N,MARYDENISE FEROCE,BUSINESS MANAGER,04/04/2022 00:00:00,251570881,N,,N,N,,,,,Local government,UG,,04/18/2022 14:16:47,04/25/2022 09:26:55,N,G,07/01/2020 00:00:00,,,,US
1421861,2469052021,2021,246905,06/30/2021 00:00:00,S,A,,N,010932846,,N,830189309,"GENESIS HEALTH CARE, INC.",3400 WEST AVENUE,,COLUMBIA,SC,29203,NATHAN PRABHAKAR,CONTROLLER,8039956995,,NATHANP@GENESISFQHC.ORG,03/10/2022 17:33:27,NATHAN PRABHAKAR-CONTROLLER,DIXON HUGHES GOODMAN ,11 BRENDAN WAY SUITE 200,,GREENVILLE,SC,29615,GREG TAYLOR,PARTNER,8642135381,,GREG.TAYLOR@DHG.COM,03/10/2022 14:29:03,,O,,U,Y,N,N,N,U,750000,N,,1816423,,Y,N,N,Y,N,N,,93,03/10/2022 00:00:00,03/12/2022 01:30:04,,N,888,1,x00x93,03/10/2022 00:00:00,,N,NATHAN PRABHAKAR,CONTROLLER,03/10/2022 00:00:00,560747981,N,,Y,Y,,,,,Non-profit,UG,,,,,,07/01/2020 00:00:00,,,,US
1443881,1858032021,2021,185803,12/31/2021 00:00:00,S,A,,Y,256001768,,N,074956863,HOUSING AUTHORITY OF THE CITY OF PITTSBURGH,200 ROSS STREET,,PITTSBURGH,PA,15219,BERNIE MCGINLEY,CHIEF FINANCIAL OFFICER,4124565022,,BERNIE.MCGINLEY@HACP.ORG,09/14/2022 11:51:38,BERNARD MCGINLEY-CHIEF FINANCIAL OFFICER,"MAHER DUESSEL, CPAS","503 MARTINDALE STREET, SUITE 600",,PITTSBURGH,PA,15212,BRIAN T. MCCALL,ENGAGEMENT PARTNER,4124715500,,BMCCALL@MD-CPAS.COM,09/12/2022 15:18:00,,C,14,U,N,N,N,N,U,3000000,N,,132837418,,N,Y,N,Y,Y,N,,,09/14/2022 00:00:00,09/16/2022 01:30:09,,N,403,1,x14,09/02/2022 00:00:00,,N,BERNARD MCGINLEY,CHIEF FINANCIAL OFFICER,09/02/2022 00:00:00,251622758,N,,N,N,,,,,Local government,UG,,,,,,01/01/2021 00:00:00,,,,
1424253,1725322021,2021,172532,09/30/2021 00:00:00,S,A,,N,746002279,,N,848509402,CITY OF SEGUIN TEXAS,205 NORTH RIVER STREET,,SEGUIN,TX,78159,SUSAN CADDELL,DIRECTOR OF FINANCE,8304012450,,SCADDELL@SEGUINTEXAS.GOV,03/24/2022 10:32:16,SUSAN CADDELL-DIRECTOR OF FINANCE,"ARMSTRONG, VAUGHAN & ASSOCIATES, P.C. ","941 WEST BYRD, SUITE 101",,UNIVERSAL CITY,TX,78148,DEBORAH F FRASER,SHAREHOLDER,2106586229,,FRASER@AVACPA.COM,03/28/2022 21:20:09,,O,,U,N,N,N,N,U,750000,Y,,2216812,,N,N,N,N,N,N,,21,03/28/2022 00:00:00,04/08/2022 01:30:03,,N,200,1,x00,03/28/2022 00:00:00,,N,SUSAN CADDELL,DIRECTOR OF FINANCE,03/28/2022 00:00:00,742662326,N,,N,N,,,,,Local government,UG,,,,,,10/01/2020 00:00:00,,,,US
1414786,2424662021,2021,242466,06/30/2021 00:00:00,S,A,,N,956000940,,N,,SANTA BARBARA COUNTY SPECIAL EDUCATION LOCAL PLAN AREA,"5385 HOLLISTER AVE., BLDG 7 BOX 107",,GOLETA,CA,93111,RACHEL WIGLE,CHIEF BUSINESS OFFICIAL,8059792135,,RWIGLE@SBCSELPA.ORG,02/07/2022 12:51:16,RACHEL WIGLE-CHIEF BUSINESS OFFICIAL,"EIDE BAILLY, LLP","10681 FOOTHILL BLVD., SUITE 300",,RANCHO CUCAMONGA,CA,91730,ROYCE TOWNSEND,PARTNER,9097552830,,RTOWNSEND@EIDEBAILLY.COM,02/07/2022 12:48:27,,O,,U,N,N,N,N,U,750000,N,,21343702,,N,N,N,N,N,N,,84,02/07/2022 00:00:00,02/09/2022 01:30:04,,N,888,1,x00,02/07/2022 00:00:00,,N,RACHEL WIGLE,CHIEF BUSINESS OFFICIAL,02/07/2022 00:00:00,450250958,N,,N,N,,,,,Local government,UG,,02/09/2022 14:45:24,02/10/2022 07:13:43,,N,07/01/2020 00:00:00,,,,US
1419181,2381552021,2021,238155,12/31/2021 00:00:00,S,A,,N,391937221,,N,607469038,"FUTURE WISCONSIN RACINE II, LLC",PO BOX 620800,,MIDDLETON,WI,535620800,JUSTIN SPAHN,SECRETARY/TREASURER,6088362925,,JSPAHN@ZMERIDIAN.COM,03/01/2022 13:52:31,JUSTIN SPAHN-TREASURER/SECRETARY,"BAKER TILLY US, LLP",PO BOX 7398,,MADISON,WI,537077398,JEFFREY BLATTNER,PARTNER,6082496622,,JEFF.BLATTNER@BAKERTILLY.COM,03/01/2022 13:57:15,,O,,U,N,N,N,N,U,750000,Y,,986257,,N,N,N,N,N,N,,14,03/01/2022 00:00:00,03/03/2022 01:30:04,,N,903,1,x00,03/01/2022 00:00:00,,N,JUSTIN SPAHN,TREASURER/SECRETARY,03/01/2022 00:00:00,390859910,N,,N,N,,,,,Non-profit,UG,,,,,,01/01/2021 00:00:00,,,,US
1420967,2265892021,2021,226589,06/30/2021 00:00:00,S,A,,N,680184712,,N,,YOUTH LEADERSHIP INSTITUTE,209 9TH ST.,,SAN FRANCISCO,CA,94103,JONINNA SIMPSON,CFO,6284009252,,CFO@YLI.ORG,03/14/2022 17:31:46,JONINNA SIMPSON-CFO,HARRINGTON GROUP,2698 MATARO STREET,,PASADENA,CA,91107,CARLOS DAVIS,PARTNER,6264036801,,CARLOS@NPOCPAS.COM,03/09/2022 13:33:45,,O,,U,N,N,N,N,U,750000,N,,1499679,,N,N,N,N,N,N,,93,03/14/2022 00:00:00,03/16/2022 01:30:04,,N,909,1,x00,03/14/2022 00:00:00,,N,JONINNA SIMPSON,CFO,03/14/2022 00:00:00,954557617,N,,N,N,,,,,Non-profit,UG,,,,,,07/01/2020 00:00:00,,,,US
1406033,186032021,2021,18603,03/31/2021 00:00:00,S,A,,N,160743940,,N,074040833,"BUFFALO URBAN LEAGUE, INC.",15 GENESEE STREET,,BUFFALO,NY,14203,THOMAS BEAUFORD,PRESIDENT & CEO,7162502403,,TBEAUFORD@BUFFALOURBANLEAGUE.ORG,12/30/2021 12:40:41,THOMAS BEAUFORD-PRESIDENT & CEO,TRONCONI SEGARRA & ASSOCIATES,8321 MAIN STREET,,WILLIAMSVILLE,NY,14221,ASHLEY,BAUER,7166331373,,ABAUER@TSACPA.COM,12/23/2021 14:54:58,,O,,U,N,N,N,N,U,750000,Y,,798449,,N,N,N,N,N,N,,17,12/30/2021 00:00:00,01/01/2022 01:30:04,,N,908,1,x00,12/30/2021 00:00:00,,N,THOMAS BEAUFORD,PRESIDENT & CEO,12/30/2021 00:00:00,043728817,N,,N,N,,,,,Non-profit,UG,,,,,,04/01/2020 00:00:00,,,,US
1402230,2312202021,2021,231220,06/30/2021 00:00:00,S,A,,N,364603478,,N,,"HENDERSON SUPPORTIVE HOUSING, INC.",2550 UNIVERSITY AVE. W. SUITE 330 N,,ST. PAUL,MN,55114,CHUCK REUTER,ACCOUNTING MANAGER,6516457271,,CREUTER@ACCESSIBLESPACE.ORG,12/14/2021 11:59:57,CHUCK REUTER-ACCOUNTING MANAGER,"HINRICHS & ASSOCIATES, LTD","1000 SHELARD PARKWAY, STE. 110",,MINNEAPOLIS,MN,55426,BOB BAKER,SHAREHOLDER,9525428010,,BOB@HINRICHSASSOCIATES.COM,12/15/2021 09:22:04,,O,,U,N,N,N,N,U,750000,N,,5211649,,N,N,N,N,N,N,,14,12/15/2021 00:00:00,12/18/2021 01:30:03,,N,903,1,x00,12/15/2021 00:00:00,,N,CHUCK REUTER,ACCOUNTING MANAGER,12/15/2021 00:00:00,411629155,N,,N,N,,,,,Non-profit,UG,,,,,,07/01/2020 00:00:00,,,,US
1416905,1939222021,2021,193922,06/30/2021 00:00:00,S,A,,N,660398333,,N,039470138,COFECC,171 AVE CARLOS CHARDON SUITE 407,,SAN JUAN,PR,009180903,GIOVANNA PIOVANETTI,EXECUTIVE PRESIDENT,7877565080,,GPIOVANETTI@COFECC.NET,02/03/2022 11:20:16,CARLOS ABREU-CONTROLLER,"GONZLEZ TORRES & CO., CPA, PSC",1250 AVE PONCE DE LEN SUITE 801,,SAN JUAN,PR,009073912,FERNANDO E. ORTIZ RAMOS,ASSURANCE & QUALITY CONTROL PARTNER,7879934360,,FORTIZ@GTCPAPR.COM,02/03/2022 15:51:11,,O,,U,N,N,N,N,U,750000,Y,,1078057,,N,N,N,N,N,N,,59,02/03/2022 00:00:00,02/05/2022 01:30:04,,N,909,1,x00,02/03/2022 00:00:00,,N,CARLOS ABREU,CONTROLLER,02/03/2022 00:00:00,660528656,N,,N,N,,,,,Non-profit,UG,,,,,,07/01/2020 00:00:00,,,,US
1413720,187342021,2021,18734,10/31/2021 00:00:00,S,A,,N,160807558,,N,074025479,"HAUPTMAN-WOODWARD MEDICAL RESEARCH INSITUTE, INC.",700 ELLICOTT STREET,,BUFFALO,NY,14203,ANNE KENT,CHIEF FINANCIAL OFFICER,7168988600,,KENT@HWI.BUFFALO.EDU,02/24/2022 14:24:44,ANNE KENT-CFO,"FREED MAXICK CPAS, P.C.",424 MAIN STREET SUITE 800,,BUFFALO,NY,14202,RYAN CASTER,DIRECTOR,7168472651,,RYAN.CASTER@FREEDMAXICK.COM,02/24/2022 16:02:42,,O,,U,N,N,N,N,U,750000,Y,,2205973,,N,N,N,N,N,N,,47,02/24/2022 00:00:00,02/26/2022 01:30:04,,N,909,1,x00,02/24/2022 00:00:00,,N,ANNE KENT,CFO,02/24/2022 00:00:00,454051133,N,,N,N,,,,,Non-profit,UG,,,,,,11/01/2020 00:00:00,,,,US
1435389,1320192021,2021,132019,06/30/2021 00:00:00,S,A,,N,956000665,,N,072955024,CITY OF ALHAMBRA,111 SOUTH FIRST STREET,,ALHAMBRA,CA,91801,DEAN JOHNSON,ASSISTANT FINANCE DIRECTOR,6265705017,,DEANJ@CITYOFALHAMBRA.ORG,07/11/2022 10:45:28,DEAN JOHNSON-ASSISTANT FINANCE DIRECTOR,CLIFTONLARSONALLEN LLP,2875 MICHELLE DRIVE,,IRVINE,CA,92606,ROBERT CALLANAN,PRINCIPAL,7149781300,,BOB.CALLANAN@CLACONNECT.COM,07/08/2022 15:36:37,,O,,U,N,N,N,N,U,750000,Y,,4785737,,N,N,N,N,Y,N,,14,07/12/2022 00:00:00,07/15/2022 01:30:04,,N,200,1,x14x00,07/12/2022 00:00:00,,N,DEAN JOHNSON,ASSISTANT FINANCE DIRECTOR,07/12/2022 00:00:00,410746749,N,,N,N,,,,,Local government,UG,,,,,,07/01/2020 00:00:00,,,,US
1435310,2471312021,2021,247131,12/31/2021 00:00:00,S,A,,N,650670031,,N,825160653,"HOPE SOUTH FLORIDA, INC.",1100 NORTH ANDREWS AVENUE,,FORT LAUDERDALE,FL,33311,"DR. TED GREER, JR.",CHIEF EXECUTIVE OFFICER,9545662311,,TGREER@HOPESOUTHFLORIDA.ORG,06/14/2022 13:19:46,TED GREER-CHIEF EXECUTIVE OFFICER,"ROBBINS AND MORONEY, PA",222 SE 10TH STREET,,FORT LAUDERDALE,FL,33316,MICHAEL ROBBINS,CPA,9544673100,,MIKE@ROBBINSANDMORONEY.COM,06/14/2022 09:43:14,,O,,U,N,N,N,N,U,750000,Y,,1194355,,N,N,N,N,N,N,,64,06/14/2022 00:00:00,06/17/2022 01:30:04,,N,888,1,x00,06/14/2022 00:00:00,,N,TED GREER,CHIEF EXECUTIVE OFFICER,06/14/2022 00:00:00,650356804,N,,N,N,,,,,Non-profit,UG,,,,,,01/01/2021 00:00:00,,,,US
1424102,2526702021,2021,252670,12/31/2021 00:00:00,S,A,,N,541492775,,N,015293089,THE FOUNDATION FOR MANAGEMENT EDUCATION IN CENTRAL AMERICA,P.O. BOX 639,,GLEN ECHO,MD,20812,LARRY SLESINGER,ADMINISTRATOR,3014042154,,LARRY@SLESINGERMANAGEMENT.COM,03/28/2022 12:07:37,LARRY SLESINGER-ADMINISTRATOR,"GELMAN, ROSENBERG & FREEDMAN","4550 MONTGOMERY AVENUE, SUITE 800 NORTH",,BETHESDA,MD,20814,JAMES LARSON,DIRECTOR,3019519090,,JLARSON@GRFCPA.COM,03/28/2022 15:14:18,,O,,U,Y,N,N,N,U,750000,N,,996689,,Y,N,N,Y,N,N,,98,03/28/2022 00:00:00,04/07/2022 01:30:03,,N,888,1,x00x98,03/28/2022 00:00:00,,N,LARRY SLESINGER,ADMINISTRATOR,03/28/2022 00:00:00,521392008,N,,Y,Y,,,,,Non-profit,UG,,,,,,01/01/2021 00:00:00,,,,US
1408087,1745222021,2021,174522,08/31/2021 00:00:00,S,A,,N,756002498,,N,091271494,SPRINGLAKE-EARTH INDEPENDENT SCHOOL DISTRICT,PO BOX 130,,EARTH,TX,79031,ROSIE DAVIS,BUSINESS MANAGER,8062573310,,RDAVIS@SPRINGLAKE-EARTH.ORG,12/14/2021 12:11:33,ROSIE DAVIS-ROSIE DAVIS,"BOLINGER, SEGARS, GILBERT, & MOSS, L.L.P.",8215 NASHVILLE AVENUE,,LUBBOCK,TX,794231954,TREY ROWE,PARTNER,8067473806,,TROWE@BSGM.COM,12/14/2021 11:58:49,,O,,U,N,N,N,N,U,750000,N,,797028,,N,N,N,N,N,N,,84,12/14/2021 00:00:00,12/17/2021 01:30:03,,N,505,1,x00,12/14/2021 00:00:00,,N,ROSIE DAVIS,ROSIE DAVIS,12/14/2021 00:00:00,750882037,N,,N,N,,,,,Local government,UG,,01/02/2022 12:34:57,01/06/2022 09:16:08,N,G,09/01/2020 00:00:00,,,,US
1443312,2544362021,2021,254436,12/31/2021 00:00:00,S,A,,N,910570840,,N,,COLUMBIA LUTHERAN MINISTRIES,4700 PHINNEY AVE N,,SEATTLE,WA,981036374,CINDY SEARS,FINANCE DIRECTOR,2066333173,,CINDYSEARS@COLUMBIALUTHERANHOME.ORG,09/13/2022 19:26:23,DAVID HEYER-PRESIDENT/ADMINISTRATOR,"PAULSEN MEGAARD & CO., PS","22232 17TH AVE SE, SUITE 310",,BOTHELL,WA,980217425,SUSAN PAULSEN,CPA,4254893416,,SLPAULSEN@PAULSENMEGAARD.COM,09/12/2022 12:30:46,,O,,U,N,N,N,N,U,750000,N,,883065,,N,N,N,N,N,N,,93,09/13/2022 00:00:00,09/15/2022 01:30:08,,N,888,1,x00,09/13/2022 00:00:00,,N,DAVID HEYER,PRESIDENT/ADMINISTRATOR,09/13/2022 00:00:00,911537851,N,,N,N,,,,,Non-profit,UG,,,,,,01/01/2021 00:00:00,,,,US
1411426,2519452021,2021,251945,06/30/2021 00:00:00,S,A,,N,460604802,,N,078870711,CANTON COLLEGE PREPARATORY SCHOOL,101 CLEVELAND AVENUE NW,,CANTON,OH,44702,DAVE MASSA,TREASURER,3305150572,,DAVE@MASSASOLUTIONSLLC.COM,01/06/2022 10:38:38,DAVE MASSA-FISCAL OFFICER,"JAMES G. ZUPKA, CPA, INC.",5240 EAST 98TH STREET,,GARFIELD HEIGHTS,OH,44125,JAMES G. ZUPKA,PRESIDENT,2164756136,,JGZ@JGZCPA.COM,01/06/2022 10:46:48,,O,,U,N,N,N,N,U,750000,N,,977318,,N,N,N,N,N,N,,84,01/06/2022 00:00:00,01/12/2022 01:30:06,,N,888,1,x00,01/06/2022 00:00:00,,N,DAVE MASSA,FISCAL OFFICER,01/06/2022 00:00:00,341413003,N,,N,N,,,,,Local government,UG,,01/16/2022 15:22:39,01/20/2022 06:36:04,N,G,07/01/2020 00:00:00,,,,US
1397743,2160802021,2021,216080,06/30/2021 00:00:00,S,A,,N,383479060,,N,624560871,DR. JOSEPH F. POLLACK ACADEMIC CENTER OF EXCELLENCE,23777 SOUTHFIELD ROAD,,SOUTHFIELD,MI,48075,JEFFERY HILL,CFO,2485691060,,JHILL@PACEK-8.ORG,10/19/2021 13:04:14,JEFFERY HILL-CHIEF FINANCIAL OFFICER,"PLANTE & MORAN, PLLC",1111 MICHIGAN AVE SUITE 100,,EAST LANSING,MI,48823,MICHAEL D FOSTER,PARTNER,5173367454,,PM.SINGLEAUDIT@PLANTEMORAN.COM,10/19/2021 10:19:01,,O,,U,N,N,N,N,U,750000,N,,976031,,N,N,N,N,N,N,,84,10/19/2021 00:00:00,10/22/2021 01:30:04,,N,505,1,x00,10/19/2021 00:00:00,,N,JEFFERY HILL,CHIEF FINANCIAL OFFICER,10/19/2021 00:00:00,381357951,N,,N,N,,,,,Local Government,UG,,10/26/2021 11:29:28,10/28/2021 07:47:56,N,G,07/01/2020 00:00:00,,,,US
1419709,1606242021,2021,160624,06/30/2021 00:00:00,S,A,,N,146001296,,N,040760977,CARMEL CENTRAL SCHOOL DISTRICT,"81 SOUTH STREET, PO BOX 296",,PATTERSON,NY,12563,LINDA HAYWOOD,TREASURER,8458782094,,LHAYWOOD@CARMELSCHOOLS.ORG,02/28/2022 12:04:31,JOHN P. FINK-JOHN P. FINK,RAYMOND G. PREUSSER,PO BOX 538,,CLAVERACK,NY,12513,SCOTT PREUSSER,AUDITOR,5188516650,,SCOTT@RGPREUSSER-CPA.COM,03/01/2022 09:40:27,,O,,U,N,N,N,N,U,750000,Y,,2223715,,N,N,N,N,N,N,,84,03/01/2022 00:00:00,03/03/2022 01:30:04,,N,505,1,x00,03/01/2022 00:00:00,,N,JOHN P. FINK,JOHN P. FINK,03/01/2022 00:00:00,141821605,N,,N,N,,,,,Local Government,UG,,03/02/2022 14:26:18,03/03/2022 09:07:59,N,G,07/01/2020 00:00:00,,,,US
1417997,1354332021,2021,135433,06/30/2021 00:00:00,S,A,,N,840531962,,N,079723458,LOGAN COUNTY SCHOOL DISTRICT NO. RE-1 VALLEY,301 HAGEN STREET,,STERLING,CO,80751,NICHOLE EASTIN,INTERIM CHIEF FINANCIAL OFFICER,9705220792,,EASTINN@RE1VALLEYSCHOOLS.ORG,02/10/2022 14:26:39,NICHOLE EASTIN-INTERIM CHIEF FINANCIAL OFFICER,"LAUER, SZABO & ASSOCIATES, P.C.",205 MAIN STREET - P.O. BOX 1886,,STERLING,CO,80751,SCOTT SZABO,CERTIFIED PUBLIC ACCOUNTANT,9705222218,,SSZABO@LAUERCPA.COM,02/10/2022 14:00:20,,O,,U,N,N,N,N,U,750000,Y,,3914354,,N,N,N,N,N,N,,21,02/10/2022 00:00:00,02/12/2022 01:30:04,,N,505,1,x00,02/10/2022 00:00:00,,N,NICHOLE EASTIN,INTERIM CHIEF FINANCIAL OFFICER,02/10/2022 00:00:00,841154648,N,,N,N,,,,,Local government,UG,,02/13/2022 15:18:38,02/17/2022 09:46:06,N,G,07/01/2020 00:00:00,,,,US
1431531,2495242021,2021,249524,12/31/2021 00:00:00,S,A,,N,261755679,,N,027729998,PRAIRIE VIEW VILLAS NO. 1,3246 VANDEVER AVENUE,,PEKIN,IL,61554,DAWN ZENKNER,CONTROLLER,6305218075,,DZENKNER@EMBRACELIVING.ORG,05/10/2022 12:53:51,DAWN ZENKNER-CONTROLLER,"HARAN & ASSOCIATES, LTD","3201 OLD GLENVIEW ROAD, STE 250",,WILMETTE,IL,60091,KEVIN COGAN,PARTNER,8478532573,,KCOGAN@HANDALTD.COM,05/10/2022 13:01:07,,O,,U,N,N,N,N,U,750000,Y,,2073147,,N,N,N,N,N,Y,,14,05/11/2022 00:00:00,05/13/2022 01:30:04,,N,888,1,x00,05/11/2022 00:00:00,,N,DAWN ZENKNER,CONTROLLER,05/11/2022 00:00:00,363097692,N,,N,N,,,,,Non-profit,UG,,,,,,01/01/2021 00:00:00,,,,US
1429269,1117832021,2021,111783,06/30/2021 00:00:00,S,A,,N,860256667,,N,611923640,"A NEW LEAF, INC AND AFFILIATES",868 E UNIVERSITY DRIVE,,MESA,AZ,85203,CATHERINE A. DYCIEWSKI,CHIEF FINANCIAL OFFICER,4804774014,,CDYCIEWSKI@TURNANEWLEAF.ORG,04/27/2022 16:21:10,CATHERINE DYCIEWSKIE-CATHERINE DYCIEWSKI,"HENRY & HORNE, LLP",2055 E. WARNER RD. STE 101,,TEMPE,AZ,85084,COLETTE KAMPS,AUDIT PARTNER,4808394900,,COLETTEK@HHCPA.COM,04/29/2022 11:36:38,,O,,U,N,N,N,N,U,750000,Y,,8543235,,N,N,N,N,N,N,,93,04/29/2022 00:00:00,05/03/2022 01:30:04,,N,908,1,x00,04/29/2022 00:00:00,,N,CATHERINE DYCIEWSKIE,CATHERINE DYCIEWSKI,04/29/2022 00:00:00,860133881,N,,N,N,,,,,Non-profit,UG,,,,,,07/01/2020 00:00:00,,,,US
1424736,2453612021,2021,245361,12/31/2021 00:00:00,S,A,,N,460788470,,N,079515922,MM NONPROFIT HOUSING CORPORATION,102 MAIN STREET,,MOUNT PLEASANT,MI,48858,JANE MACKENZIE,BOARD PRESIDENT,2315826244,,JANE@NORTHERNHOMES.ORG,04/05/2022 13:21:36,JANE MACKENZIE-PRESIDENT OF MMNPHC,MANER COSTERISAN,"2425 E. GRAND RIVER AVE., SUITE 1",,LANSING,MI,48912,SHERRIE BLANKENSHIP,PRINCIPAL,5173237500,,SBLANKENSHIP@MANERCPA.COM,04/04/2022 11:19:10,,O,,U,N,N,N,N,U,750000,Y,,1122333,,N,N,N,N,N,N,,14,04/11/2022 00:00:00,04/15/2022 01:30:03,,N,888,1,x00,04/11/2022 00:00:00,,N,JANE MACKENZIE,PRESIDENT OF MMNPHC,04/11/2022 00:00:00,382157642,N,,N,N,,,,,Non-profit,UG,,,,,,01/01/2021 00:00:00,,,,US
1416301,2322012021,2021,232201,10/31/2021 00:00:00,S,A,,N,237091370,,N,,"GARDENSIDE TERRACE, INC.",5702 KIRKPATRICK WAY,,INDIANAPOLIS,IN,46220,JOE HOLLAND,CONTROLLER,3175704358,,JHOLLAND@EKIRKPATRICK.COM,05/19/2022 11:32:36,JOE HOLLAND-CFO,"COMER NOWLING AND ASSOCIATES, PC","10475 CROSSPOINT BLVD, SUITE 200",,INDIANAPOLIS,IN,46256,GREGORY NOWLING,SHAREHOLDER,3178413393,,CLAWSON@COMERNOWLING.COM,01/31/2022 15:35:04,,O,,U,N,N,N,N,U,750000,Y,,3935779,,N,N,N,N,Y,N,,14,05/19/2022 00:00:00,05/21/2022 01:30:05,,N,903,1,x00x14,05/19/2022 00:00:00,,N,JOE HOLLAND,CFO,05/19/2022 00:00:00,352119569,N,,N,N,,,,,Non-profit,UG,,,,,,11/01/2020 00:00:00,,,,US
1416794,10542021,2021,1054,09/30/2021 00:00:00,S,A,,N,020362579,,N,005905067,COOPERATIVE ALLIANCE FOR SEACOAST TRANSPORTATION,42 SUMNER DRIVE,,DOVER,NH,038205451,RAD NICHOLS,EXECUTIVE DIRECTOR,6037435777,,RNICHOLS@COASTBUS.ORG,02/03/2022 12:43:31,RAD NICHOLS-EXECUTIVE DIRECTOR,"F.G. BRIGGS, JR., CPA PROFESSIONAL ASSOCIATION",98 SALMON STREET,,MANCHESTER,NH,031043126,ABBY T. DAWSON,PARTNER,6036681340,,ABBY@FGBRIGGSJRCPA.COM,02/03/2022 12:31:33,,O,,U,N,N,N,N,U,750000,Y,,4824057,,N,N,N,N,N,N,,20,02/03/2022 00:00:00,02/05/2022 01:30:04,,N,906,1,x00,02/03/2022 00:00:00,,N,RAD NICHOLS,EXECUTIVE DIRECTOR,02/03/2022 00:00:00,020381649,N,,N,N,,,,,Non-profit,UG,,,,,,10/01/2020 00:00:00,,,,US
1414575,2360702021,2021,236070,06/30/2021 00:00:00,S,A,,N,371346397,,N,834889362,COURAGE CONNECTION,1304 E MAIN ST,,URBANA,IL,61802,ELIZABETH COOK,CEO,2178401858,,ECOOK@COURAGECONNECTION.ORG,01/20/2022 15:26:47,ELIZABETH COOK-CEO,MARTIN HOOD LLC,2507 SOUTH NEIL ST,,CHAMPAIGN,IL,61820,GREG DOUGLAS,DIRECTOR,2173512000,,GREG.DOUGLAS@MARTINHOOD.COM,01/20/2022 15:36:09,,O,,U,N,N,N,N,U,750000,Y,,1218895,,N,N,N,N,N,N,,16,01/24/2022 00:00:00,02/01/2022 15:00:08,,N,909,1,x00,01/24/2022 00:00:00,,N,ELIZABETH COOK,CEO,01/24/2022 00:00:00,371119790,N,,N,N,,,,,Non-profit,UG,,,,,,07/01/2020 00:00:00,,,,US
1402520,1741082021,2021,174108,08/31/2021 00:00:00,S,A,,N,756000897,,N,100074442,CROCKETT COUNTY CONSOLIDATED COMMON SCHOOL DISTRICT,P.O. BOX 400,,OZONA,TX,769430400,RAUL CHAVARRIA,SUPERINTENDENT,3253925177,,RAUL.CHAVARRIA@OZONASCHOOLS.NET,01/21/2022 15:42:08,RAUL.CHAVARRIA-SUPERINTENDENT OF SCHOOLS,"ECKERT & COMPANY, LLP",P.O. BOX 5821,,SAN ANGELO,TX,769025821,MICHAEL E. OLIPHANT,CPA,3259443571,,MIKEO@ECKERTCPA.COM,01/21/2022 15:46:07,,O,,U,N,N,Y,N,U,750000,N,,1185848,,N,N,N,N,N,N,,84,01/21/2022 00:00:00,02/01/2022 15:00:08,,N,505,1,x00,01/21/2022 00:00:00,,N,RAUL.CHAVARRIA,SUPERINTENDENT OF SCHOOLS,01/21/2022 00:00:00,751318848,N,,N,N,,,,,Local government,UG,,01/31/2022 11:37:23,02/03/2022 07:06:10,N,G,09/01/2020 00:00:00,,,,US
1442848,2390982021,2021,239098,12/31/2021 00:00:00,S,A,,N,911018182,,N,081931347,BENTON-FRANKLIN HEALTH DISTRICT,7102 W OKANOGAN PLACE,,KENNEWICK,WA,99336,JEFF JONES,SR. FINANCE/BUSINESS SERVICES MANAGER,5094604590,,JEFFJ@BFHD.WA.GOV,09/22/2022 18:14:04,JEFF JONES-SR. MANAGER - FINANCE/BUSINESS SERVICES,OFFICE OF THE WASHINGTON STATE AUDITOR,100 N MORAIN ST SUITE 216,,KENNEWICK,WA,99336,JUAN BARRAGAN,ASSISTANT AUDIT MANAGER,5095175629,,BARRAGANJ@SAO.WA.GOV,09/22/2022 18:06:32,,O,,AS,N,N,N,N,U,750000,N,,10195261,,N,Y,N,Y,N,N,,93,09/22/2022 00:00:00,09/24/2022 01:30:08,,N,888,1,x00,09/22/2022 00:00:00,,N,JEFF JONES,SR. MANAGER - FINANCE/BUSINESS SERVICES,09/22/2022 00:00:00,916001098,N,,N,N,REGULATORY,N,U,,Local government,UG,,,,,,01/01/2021 00:00:00,,,,US
1445857,2547822021,2021,254782,06/30/2021 00:00:00,S,A,,N,390806429,,N,030176028,LANGLADE HOSPITAL - HOTEL DIEU OF ST JOSEPH OF ANTIGO WISCONSIN,112 E FIFTH AVENUE,,ANTIGO,WI,54409,TYLER HACK,VP FINANCE,7156232331,,TYLER.HACK@ASPIRUS.ORG,09/27/2022 12:11:53,"TYLER HACK-VP - FINANCE, NORTH WI REGION",WIPFLI LLP,"11 SCOTT STREET, SUITE 400",,WAUSAU,WI,54403,JOSH BOYLE,PARTNER,7158438374,,JBOYLE@WIPFLI.COM,09/27/2022 13:09:08,,O,,U,N,N,N,N,U,750000,N,,7363905,,N,N,N,N,N,N,,93,09/27/2022 00:00:00,09/29/2022 01:30:06,,N,888,1,x00,09/27/2022 00:00:00,,N,TYLER HACK,"VP - FINANCE, NORTH WI REGION",09/27/2022 00:00:00,390758449,N,,N,N,,,,,Non-profit,UG,,,,,,07/01/2020 00:00:00,,,,US
1414351,1609592021,2021,160959,06/30/2021 00:00:00,S,A,,N,566000276,,N,,BERTIE COUNTY,P.O. BOX 530,,WINDSOR,NC,27983,WILLIAM ROBERSON,FINANCE OFFICER,2527945327,,WILLIAM.ROBERSON@BERTIE.NC.GOV,03/22/2022 11:40:16,WILLIAM ROBERSON-FINANCE DIRECTOR,"THOMPSON, PRICE, SCOTT, ADAMS & CO., P.A.",4024 OLEANDER DRIVE SUITE 3,,WILMINGTON,NC,28403,GREGORY ADAMS,CPA,9107994872,,GSADAMS@TPSA.CO,03/05/2022 06:56:41,,O,,U,Y,N,N,N,U,750000,N,,4273790,,Y,N,N,Y,Y,N,,93,03/22/2022 00:00:00,03/24/2022 01:30:03,,N,100,1,x93x00,03/22/2022 00:00:00,,N,WILLIAM ROBERSON,FINANCE DIRECTOR,03/22/2022 00:00:00,561824665,N,,Y,Y,,,,,Local government,UG,,,,,,07/01/2020 00:00:00,,,,US
1448296,1526082021,2021,152608,06/30/2021 00:00:00,S,A,,N,646000500,,N,078565413,ITAWAMBA COMMUNITY COLLEGE,602 WEST HILL STREET,,FULTON,MS,38843,SANDRA SOUTH,EXECUTIVE DIRECTOR OF FINANCE,6628628956,,SSSOUTH@ICCMS.EDU,09/30/2022 20:27:58,SANDRA SOUTH-VP OF BUSINESS SERVICES,"FRANKS, FRANKS, WILEMON & HAGOOD, P.A.",PO BOX 355,,FULTON,MS,38843,JONATHAN HAGOOD,CPA,6628624967,,JHAGOOD@FFWHCPA.COM,09/30/2022 20:19:47,,O,,U,Y,N,N,N,U,824456,Y,,27512979,,N,N,N,N,N,N,,84,09/30/2022 00:00:00,10/11/2022 01:30:12,,N,505,1,x00,09/30/2022 00:00:00,,N,SANDRA SOUTH,VP OF BUSINESS SERVICES,09/30/2022 00:00:00,640736635,N,,Y,N,,,,,Institution of higher education (IHE),UG,00240900,10/12/2022 11:54:49,10/13/2022 09:11:38,N,B,07/01/2020 00:00:00,,,,US
1419972,1082432021,2021,108243,06/30/2021 00:00:00,S,A,,N,810382167,,N,144175163,DISTRICT 6 HUMAN RESOURCES DEVELOPMENT COUNCIL,330 FIRST AVENUE NORTH,,LEWISTOWN,MT,59457,CATHY SEILSTAD,FISCAL OFFICER,4065357488,,CSEILSTAD@HRDC6.ORG,03/02/2022 12:06:08,CATHY SEILSTAD-EXECUTIVE DIRECTOR,"ANDERSON ZURMUEHLEN & CO., P.C.","129 W PARK ST, STE 300",,BUTTE,MT,59701,ANNETTE HILL,"CPA, SHAREHOLDER",4067820451,,AHILL@AZWORLD.COM,03/02/2022 12:04:31,,O,,U,N,N,N,N,U,750000,Y,,894219,,N,N,N,N,N,N,,93,03/02/2022 00:00:00,03/05/2022 01:30:04,,N,908,1,x00,03/02/2022 00:00:00,,N,CATHY SEILSTAD,EXECUTIVE DIRECTOR,03/02/2022 00:00:00,810385940,N,,N,N,,,,,Non-profit,UG,,03/07/2022 10:33:59,03/10/2022 06:15:26,,N,07/01/2020 00:00:00,,,,US
1426145,554652021,2021,55465,12/31/2021 00:00:00,S,A,,N,381794361,,N,020899480,"COMMUNITY ACTION AGENCY OF SOUTH CENTRAL MICHIGAN, INC.",175 MAIN STREET,,BATTLE CREEK,MI,49014,KATHERINE MCNALLY,DIRECTOR OF FINANCE,2694411614,,KATHERINEM@CAASCM.ORG,05/16/2022 12:26:59,KATHERINE MCNALLY-DIRECTOR OF FINANCE,REHMANN ROBSON LLC,675 ROBINSON ROAD,,JACKSON,MI,49203,"NATHAN C. BALDERMANN, CPA, CGFM",PRINCIPAL,5178414235,,NATHAN.BALDERMANN@REHMANN.COM,05/02/2022 12:03:13,,O,,U,N,N,N,N,U,750000,Y,,17499371,,N,N,N,N,N,N,,93,05/16/2022 00:00:00,05/18/2022 01:30:04,,N,908,1,x00,05/16/2022 00:00:00,,N,KATHERINE MCNALLY,DIRECTOR OF FINANCE,05/16/2022 00:00:00,383635706,N,,N,N,,,,,Non-profit,UG,,,,,,01/01/2021 00:00:00,,,,US
1423195,2436512021,2021,243651,12/31/2021 00:00:00,S,A,,N,621369655,,N,,MARYVILLE TOWERS AFFORDABLE HOUSING CORP,311 ATLANTIC AVE,,MARYVILLE,TN,37801,NANCY BURNETTE,EXECUTIVE DIRECTOR,8659864958,,NBURNETTE@MHATN.COM,04/05/2022 13:53:49,BONITA MORRIS-CHIEF FINANCIAL OFFICER,SMITH MARION & CO,"5141 VIRGINIA WAY, SUITE 400",,BRENTWOOD,TN,37027,CHAD PORTER,PARTNER,9098256600,,CPORTER@SMCO.CPA,04/01/2022 14:40:35,,O,,U,N,N,N,N,U,750000,Y,,3522386,,N,N,N,N,N,N,,14,04/05/2022 00:00:00,04/13/2022 01:30:05,,N,888,1,x00,04/05/2022 00:00:00,,N,BONITA MORRIS,CHIEF FINANCIAL OFFICER,04/05/2022 00:00:00,831445511,N,,N,N,,,,,Non-profit,UG,,,,,,01/01/2021 00:00:00,,,,US
1422203,1302522021,2021,130252,06/30/2021 00:00:00,S,A,,Y,866000256,,Y,030002236,"CITY OF PHOENIX, ARIZONA",251 W WASHINGTON STREET,,PHOENIX,AZ,85003,JOHN GAMBLE,DEPUTY FINANCE DIRECTOR,6024954957,,JOHN.GAMBLE@PHOENIX.GOV,04/01/2022 13:42:42,JOHN GAMBLE-DEPUTY FINANCE DIRECTOR,"BKD, LLP","14241 DALLAS PARKWAY, SUITE 1100",,DALLAS,TX,75254,RACHEL ORMSBY,DIRECTOR,9727028262,,RORMSBY@BKD.COM,03/31/2022 16:57:54,,C,14,U,N,N,N,N,U,3432324,N,,1144107948,,N,N,N,N,Y,Y,,,04/01/2022 00:00:00,04/13/2022 01:30:05,,N,200,1,x00x20,04/01/2022 00:00:00,,N,JOHN GAMBLE,DEPUTY FINANCE DIRECTOR,04/01/2022 00:00:00,440160260,N,,N,N,,,,,Local government,UG,,,,,,07/01/2020 00:00:00,,,,US
1425973,2475912021,2021,247591,12/31/2021 00:00:00,S,A,,N,931159972,,N,068203228,SPYGLASS RIDGE,PO BOX 1457,,NEWPORT,OR,97365,SHEILA STILEY,EXECUTIVE DIRECTOR,5415740320,,NWCOASTALHOUSING@GMAIL.COM,04/29/2022 19:10:25,SHEILA STILEY-EXECUTIVE DIRECTOR,GRIMSTAD & ASSOCIATES,PO BOX 1930,,NEWPORT,OR,97365,SIGNE GRIMSTAD,CPA,5412655411,,SGRIMSTAD@GRIMSTAD-ASSOC.COM,04/29/2022 18:43:19,,O,,U,Y,Y,Y,N,U,750000,Y,,5025824,,Y,Y,Y,Y,N,N,,14,04/29/2022 00:00:00,05/04/2022 01:30:03,,N,888,1,x00x10x14,04/29/2022 00:00:00,,N,SHEILA STILEY,EXECUTIVE DIRECTOR,04/29/2022 00:00:00,931041672,Y,,Y,Y,,,,,Non-profit,UG,,,,,,01/01/2021 00:00:00,,,,US
1485003,2579552021,2021,257955,06/30/2021 00:00:00,S,A,,N,946000537,,N,078839100,COUNTY OF SISKIYOU STAGE FUND,190 GREENHORN ROAD,,YREKA,CA,96097,ANGIE STUMBAUGH,TRANSPORTATION MANAGER,5308428297,,ASTUMBAUGH@CO.SISKIYOU.CA.US,04/14/2023 10:30:34,ANGELA STUMBAUGH-TRANSPORTATION MANAGER,"CHARLES W PILLON, CPA",4685 PLEASANT HILLS DRIVE,,ANDERSON,CA,96007,CHARLES PILLON,OWNER,5309494177,,CHARLIE@CHARLESPILLONCPA.COM,04/07/2023 11:55:51,,O,,U,N,Y,N,N,U,750000,N,,2119036,,N,N,N,N,N,N,,20,04/14/2023 00:00:00,04/18/2023 01:30:05,,N,888,1,x00,04/14/2023 00:00:00,,N,ANGELA STUMBAUGH,TRANSPORTATION MANAGER,04/14/2023 00:00:00,680307559,Y,,N,N,,,,,Local government,UG,,,,,,07/01/2020 00:00:00,,,,US
1398498,906102021,2021,90610,06/30/2021 00:00:00,S,A,,N,592779192,,N,,"ST. MARY TOWERS, INC. (HUD PROJECT NO. 066-11085)","11410 N. KENDALL DRIVE, SUITE 306",,MIAMI,FL,33176,DAVID D'AMICO,CHIEF FINANCIAL OFFICER,9544841515,,,10/16/2021 06:58:14,DAVID D'QMICO-CFO,"VERDEJA, DE ARMAS & TRUJILLO, LLP","255 ALHAMBRA CIRCLE, 560",,CORAL GABLES,FL,33134,PEDRO M. DE ARMAS,PARTNER,3054463177,,PDEARMAS@VDTCPA.COM,10/19/2021 12:24:34,,O,,U,N,N,N,N,U,750000,Y,,4714911,,N,N,N,N,N,N,,14,10/19/2021 00:00:00,10/22/2021 01:30:04,,N,903,1,x00,10/19/2021 00:00:00,,N,DAVID D'QMICO,CFO,10/19/2021 00:00:00,204989621,N,,N,N,,,,,Non-profit,UG,,,,,,07/01/2020 00:00:00,,,,US
1405785,2311992021,2021,231199,06/30/2021 00:00:00,S,A,,N,416002916,,N,,INDEPENDENT SCHOOL DISTRICT NO. 547,411 SOUTH OTTER AVE,,PARKERS PRAIRIE,MN,56361,TAMMY LARSON,BUSINESS MANAGER,2133386011,,TLARSON@PP.K12.MN.US,12/15/2021 11:37:37,TAMMY LARSON-BUSINESS MANAGER,EIDE BAILLY LLP,4310 17TH AVE S,,FARGO,ND,581033339,DEREK FLANAGAN,PARTNER,7014768825,,DFLANAGAN@EIDEBAILLY.COM,12/15/2021 08:27:31,,O,,U,N,Y,N,N,U,750000,N,,846380,,N,N,N,N,N,N,,84,12/15/2021 00:00:00,12/17/2021 01:30:03,,N,505,1,x00,12/15/2021 00:00:00,,N,TAMMY LARSON,BUSINESS MANAGER,12/15/2021 00:00:00,450250958,Y,,N,N,,,,,Local government,UG,,01/02/2022 13:59:48,01/06/2022 09:16:08,N,G,07/01/2020 00:00:00,,,,US
1437791,1527982021,2021,152798,12/31/2021 00:00:00,S,A,,N,446000535,,N,029132144,"JOHNSON COUNTY, MISSOURI",300 N. HOLDEN,,WARRENSBURG,MO,64093,CHAD DAVIS,AUDITOR,6607472112,,CDAVIS@JOCOAUDITOR.COM,09/23/2022 15:03:09,CHAD DAVIS-JOHNSON COUNTY AUDITOR,"GERDING, KORTE & CHITWOOD, PC",723 MAIN ST,,BOONVILLE,MO,65233,"JEFFREY CHITWOOD, CPA",PARTNER,6608827000,,JEFF@GKCCPAS.COM,09/23/2022 12:57:01,,O,,S,N,N,N,N,U,750000,N,,3844679,,N,N,N,N,N,N,,21,09/23/2022 00:00:00,09/27/2022 01:30:09,,N,100,1,x00,09/23/2022 00:00:00,,N,CHAD DAVIS,JOHNSON COUNTY AUDITOR,09/23/2022 00:00:00,431260512,N,,N,N,CASH,N,U,,Local government,UG,,,,,,01/01/2021 00:00:00,,,,US
1403353,56552021,2021,5655,06/30/2021 00:00:00,S,A,,Y,046197938,,N,037682044,"MENTAL HEALTH ASSOCIATION, INC - AND AFFILIATES",995 WORTHINGTON STREET,,SPRINGFIELD,MA,01109,SARAH SMITH,VICE PRESIDENT OF FINANCE,4137345376,,SJSMITH@MHAINC.ORG,12/13/2021 14:05:52,SARAH SMITH-VP OF FINANCE,"MEYERS BROTHERS KALICKA, PC","330 WHITNEY AVENUE, SUITE 800",,HOLYOKE,MA,01040,RUDY D'AGOSTINO,PARTNER,4135368510,,RDAGOSTINO@MBKCPA.COM,12/13/2021 16:04:11,,O,,U,N,N,N,N,U,750000,Y,,9971488,,N,N,N,N,N,N,,14,12/13/2021 00:00:00,12/17/2021 01:30:03,,N,903,1,x00,12/13/2021 00:00:00,,N,SARAH SMITH,VP OF FINANCE,12/13/2021 00:00:00,042713795,N,,N,N,,,,,Non-profit,UG,,,,,,07/01/2020 00:00:00,,,,US
1435191,66802021,2021,6680,12/31/2021 00:00:00,S,A,,N,060646780,,N,010139210,"THE JOHN B. PIERCE LABORATORY, INC.",290 CONGRESS AVENUE,,NEW HAVEN,CT,06519,CAROLINE KESTER,BUSINESS MANAGER,2035629901,,CKESTER@JBPIERCE.ORG,06/13/2022 11:41:58,CAROLINE KESTER-BUSINESS MANAGER,SEWARD AND MONDE CPA'S,296 STATE STREET,,NORTH HAVEN ,CT,06473,ATHANASIOS PARTALAS,PARTNER,2032489341,,APARTALAS@SEWARDMONDE.COM,06/13/2022 08:42:21,,O,,Q,N,N,N,N,U,750000,Y,,4622682,,N,N,N,N,N,N,,93,06/13/2022 00:00:00,06/15/2022 01:30:05,,N,909,1,x00,06/13/2022 00:00:00,,N,CAROLINE KESTER,BUSINESS MANAGER,06/13/2022 00:00:00,060530830,N,,N,N,,,,,Non-profit,UG,,,,,,01/01/2021 00:00:00,,,,US
1411298,1918862021,2021,191886,06/30/2021 00:00:00,S,A,,N,204957175,,N,800332897,SOUTH FLORIDA WORKFORCE INVESTMENT BOARD DBA CAREERSOURCE SOUTH FLORID,"7300 CORPORATE CENTER DRIVE, SUITE 500",,MIAMI,FL,33126,RENEE BENNETT,ASSISTANT CONTROLLER,3059291577,,RENEE.BENNETT@CAREERSOURCESFL.COM,01/05/2022 15:55:53,RENEE BENNETT-ASSISTANT CONTROLLER,ANTHONY BRUNSON P.A.,"3350 SW 148TH AVENUE, SUITE 110",,MIRAMAR,FL,33027,ANTHONY BRUNSON,PRESIDENT,9548741721,,ABRUNSON@ABCPASOLUTIONS.COM,01/05/2022 18:11:38,,O,,U,N,N,N,N,U,1210870,Y,,40362333,,N,N,N,N,N,N,,17,01/05/2022 00:00:00,01/08/2022 01:30:06,,N,909,1,x00,01/05/2022 00:00:00,,N,RENEE BENNETT,ASSISTANT CONTROLLER,01/05/2022 00:00:00,650321690,N,,N,N,,,,,Local government,UG,,,,,,07/01/2020 00:00:00,,,,US
1436924,2538022021,2021,253802,09/30/2021 00:00:00,S,A,,N,646001528,,N,075082032,WAYNE GENERAL HOSPITAL,950 MATTHEW DR,,WAYNESBORO,MS,393672567,KATHY WADDELL,ADMINISTRATOR,6017357100,,KWADDELL@WAYNEGENERALHOSPITAL.ORG,06/30/2022 11:35:58,LINDA ANDERSON-CFO,"CARR, RIGGS & INGRAM, LLC","22 MILLBRANCH ROAD, SUITE 400",,HATTIESBURG,MS,39402,LEANNE CROSS,PARTNER,6014261881,,LEANNE.CROSS@CRICPA.COM,06/30/2022 10:43:29,,O,,U,Y,N,N,N,U,750000,N,,11031613,,N,N,N,N,N,N,,93,06/30/2022 00:00:00,07/07/2022 01:30:04,,N,888,1,x00,06/30/2022 00:00:00,,N,LINDA ANDERSON,CFO,06/30/2022 00:00:00,721396621,N,,Y,N,,,,,Local government,UG,,,,,,10/01/2020 00:00:00,,,,US
1403139,1642002021,2021,164200,06/30/2021 00:00:00,S,A,,N,346002104,,N,097625842,ORANGE CITY SCHOOL DISTRICT,32000 CHAGRIN BOULEVARD,,PEPPER PIKE,OH,44124,TODD PUSTER,TREASURER,2168318600,,TPUSTER@ORANGECSD.ORG,01/11/2022 09:05:49,TODD PUSTER-TREASURER/CFO,OHIO AUDITOR OF STATE KEITH FABER,88 EAST BROAD STREET,,COLUMBUS,OH,43215,ANDREA ZAPACH,SENIOR AUDIT MANAGER,2167873665,,ALZAPACH@OHIOAUDITOR.GOV,01/11/2022 07:41:25,,O,,U,N,N,N,N,U,750000,Y,,1435796,,N,N,N,N,N,N,,84,01/11/2022 00:00:00,01/14/2022 01:30:07,,N,505,1,x00,01/11/2022 00:00:00,,N,TODD PUSTER,TREASURER/CFO,01/11/2022 00:00:00,311334820,N,,N,N,,,,,Local government,UG,,01/19/2022 16:20:34,01/20/2022 06:36:04,N,G,07/01/2020 00:00:00,,,,US
1399228,2048372021,2021,204837,06/30/2021 00:00:00,S,A,,N,571006495,,N,137356312,"SOUTH CAROLINA OFFICE OF RURAL HEALTH, INC.",107 SALUDA POINTE DRIVE,,LEXINGTON,SC,29072,STEPHANIE GIBBS,DIRECTOR OF FINANCE AND HUMAN RESOURCES,8034543850,,STEPHANIE@SCORH.NET,10/27/2021 10:37:32,STEPHANIE GIBBS-CFO,"THE HOBBS GROUP, P.A.",1704 LAUREL STREET,,COLUMBIA,SC,29201,EVAN HOBBS,SHAREHOLDER,8037990555,,EVAN@HOBBSCPA.COM,10/22/2021 08:41:31,,O,,U,N,N,N,N,U,750000,Y,,3815114,,N,N,N,N,N,N,,93,10/27/2021 00:00:00,10/30/2021 01:30:03,,N,009,1,x00,10/27/2021 00:00:00,,N,STEPHANIE GIBBS,CFO,10/27/2021 00:00:00,570957419,N,,N,N,,,,,Non-profit,UG,,,,,,07/01/2020 00:00:00,,,,US
1443906,2554412021,2021,255441,06/30/2021 00:00:00,S,A,,N,930425580,,N,049803760,GOOD SHEPHERD HEALTH CARE SYSTEM,610 NW 11TH ST,,HERMISTON,OR,97838,JAN PETER,CFO,5416673612,,JPETER@GSHEALTH.ORG,09/30/2022 15:16:01,JASON STANEK-CONTROLLER,"DINGUS, ZARECOR & ASSOCIATES PLLC",12015 EAST MAIN AVENUE,,SPOKANE VALLEY,WA,99206,KAMI MATZEK,OWNER,5092420874,,KMATZEK@DZACPA.COM,09/30/2022 15:02:55,,O,,U,N,N,N,N,U,750000,N,,13091904,,N,N,N,N,N,N,,93,09/30/2022 00:00:00,10/11/2022 01:30:12,,N,888,1,x00,09/30/2022 00:00:00,,N,JASON STANEK,CONTROLLER,09/30/2022 00:00:00,200079326,N,,N,N,,,,,Non-profit,UG,,,,,,07/01/2020 00:00:00,,,,US
1412650,1372252021,2021,137225,06/30/2021 00:00:00,S,A,,N,586000639,,N,080940869,"CITY OF PERRY, GEORGIA",1211 WASHINGTON STREET,,PERRY,GA,31069,MITCHELL,WORTHINGTON,4789882709,,MITCHELL.WORTHINGTON@PERRY-GA.GOV,01/07/2022 10:54:38,MITCHELL WORTHINGTON-FINANCE DIRECTOR,MAULDIN & JENKINS LLC,"300 MULBERRY STREET, SUITE 300",,MACON,GA,31202,MILLER EDWARDS,PARTNER,4784648000,,MEDWARDS@MJCPA.COM,01/10/2022 09:08:52,,O,,U,N,N,N,N,U,750000,N,,3449636,,N,N,N,N,N,N,,66,01/10/2022 00:00:00,01/13/2022 01:30:03,,N,200,1,x00,01/10/2022 00:00:00,,N,MITCHELL WORTHINGTON,FINANCE DIRECTOR,01/10/2022 00:00:00,580692043,N,,N,N,,,,,Local government,UG,,,,,,07/01/2020 00:00:00,,,,US
1419756,1377272021,2021,137727,06/30/2021 00:00:00,S,A,,N,586000258,,N,075918607,HARALSON COUNTY BOARD OF EDUCATION,299 ROBERTSON AVENUE,,TALLAPOOSA,GA,30176,ANGIE CAMPBELL,CHIEF FINANCIAL OFFICER,7705742500,,ANGIE.CAMPBELL@HARALSON.K12.GA.US,05/06/2022 07:44:04,ANGIE R. CAMPBELL-ANGIE R. CAMPBELL,GEORGIA DEPARTMENT OF AUDITS AND ACCOUNTS,270 WASHINGTON STREET S. W. SUITE 4-101,,ATLANTA,GA,30334,KAREN RODGERS,SENIOR AUDITOR,4046515397,,RODGERSK@AUDITS.GA.GOV,05/05/2022 13:20:00,,O,,U,N,N,N,N,U,750000,Y,,6241256,,N,N,N,N,N,N,,84,05/06/2022 00:00:00,05/11/2022 01:30:04,,N,505,1,x00,05/06/2022 00:00:00,,N,ANGIE R. CAMPBELL,ANGIE R. CAMPBELL,05/06/2022 00:00:00,586002005,N,,N,N,,,,,Local government,UG,,05/10/2022 13:12:00,05/12/2022 07:23:29,N,G,07/01/2020 00:00:00,,,,US
1429607,1421192021,2021,142119,06/30/2021 00:00:00,S,A,,N,376005207,,N,097324735,EL PASO GRIDLEY CUSD NO. 11,97 WEST FIFTH ST,,EL PASO,IL,61738,BRIAN KURZ,SUPERINTENDENT,3095274410,,BRIAN.KURZ@UNIT11.ORG,04/25/2022 14:10:15,BRIAN KURZ-BRIAN KURZ,PHILLIPS & ASSOCIATES CPAS PC,"1600 HUNT DR, STE  B",,NORMAL,IL,61761,RICHARD W PHILLIPS,PRESIDENT,3094522417,,RWP6505@AOL.COM,04/25/2022 12:45:06,,O,,AS,N,N,N,N,U,750000,N,,1403691,,N,N,N,N,N,N,,84,04/25/2022 00:00:00,04/27/2022 01:30:04,,N,505,1,x00,04/25/2022 00:00:00,,N,BRIAN KURZ,BRIAN KURZ,04/25/2022 00:00:00,371381289,N,,N,N,CASH,N,U,,Local government,UG,,05/02/2022 15:34:28,05/05/2022 06:50:45,N,G,07/01/2020 00:00:00,,,,US
1422086,729222021,2021,72922,06/30/2021 00:00:00,S,A,,N,520591546,,N,082607797,"FAMILY AND CHILDREN'S SERVICES OF CENTRAL MARYLAND, INC.",4623 FALLS ROAD,,BALTIMORE,MD,21209,F.T. BURDEN,CEO,4103661980,,FTBURDEN@FCSMD.ORG,03/17/2022 10:25:02,FT BURDEN-CHIEF EXECUTIVE OFFICER,ELLIN & TUCKER,"400 PRATT STREET, SUITE 200",,BALTIMORE,MD,21202,MICHAEL STRAUSS,DIRECTOR,4107275735,,MSTRAUSS@ELLINANDTUCKER.COM,03/18/2022 16:09:39,,O,,U,N,N,N,N,U,750000,Y,,3962302,,N,N,N,N,N,N,,16,03/18/2022 00:00:00,03/23/2022 01:30:03,,N,908,1,x00,03/18/2022 00:00:00,,N,FT BURDEN,CHIEF EXECUTIVE OFFICER,03/18/2022 00:00:00,520959934,N,,N,N,,,,,Non-profit,UG,,,,,,07/01/2020 00:00:00,,,,US
1421943,1208172021,2021,120817,06/30/2021 00:00:00,S,A,,N,942823126,,N,155961410,"CENTRAL VALLEY REGIONAL CENTER, INC.",4615 N. MARTY AVE.,,FRESNO,CA,93722,JOSHUA CARRILLO,CHIEF FINANCIAL OFFICER,5592764316,,JCARRILLO@CVRC.ORG,03/15/2022 14:10:59,JOSHUA CARRILLO-CFO,"WINDES, INC.","3780 KILROY AIRPORT WAY, SUITE 600",,LONG BEACH,CA,90806,TOM HUEY,PARTNER,5624351191,,THUEY@WINDES.COM,03/10/2022 19:24:42,,O,,U,N,N,N,N,U,750000,Y,,3804827,,N,N,N,N,N,N,,84,03/15/2022 00:00:00,03/17/2022 01:30:04,,N,908,1,x00,03/15/2022 00:00:00,,N,JOSHUA CARRILLO,CFO,03/15/2022 00:00:00,953001179,N,,N,N,,,,,Non-profit,UG,,03/16/2022 14:12:24,03/17/2022 08:13:30,,N,07/01/2020 00:00:00,,,,US
1406135,554622021,2021,55462,09/30/2021 00:00:00,S,A,,N,381792679,,N,039630793,HUMAN DEVELOPMENT COMMISSION,429 MONTAGUE AVENUE,,CARO,MI,48723,MARYANNE EAGLE,INTERNAL SERVICES DIRECTOR,9896734121,,MARYANNEE@HDC-CARO.ORG,12/16/2021 17:08:39,MARYANNE EAGLE-FINANCE DIRECTOR,"YEO & YEO, P.C.","5300 BAY ROAD, SUITE 100",,SAGINAW,MI,48604,BRIAN DIXON,PRINCIPAL,9897939830,,BRIDIX@YEOANDYEO.COM,12/16/2021 10:28:38,,O,,U,N,N,N,N,U,750000,Y,,6448342,,N,N,N,N,N,N,,93,12/16/2021 00:00:00,12/19/2021 01:30:03,,N,908,1,x00,12/16/2021 00:00:00,,N,MARYANNE EAGLE,FINANCE DIRECTOR,12/16/2021 00:00:00,382706146,N,,N,N,,,,,Non-profit,UG,,,,,,10/01/2020 00:00:00,,,,US
1399739,2246292021,2021,224629,06/30/2021 00:00:00,S,A,,N,640150802,,N,,EAST MISSISSIPPI ELECTRIC POWER ASSOCIATION,2211 A STREET,,MERIDIAN,MS,39301,MARK BIGGS JR,DIRECTOR OF FINANCE & ACCOUNTING,6015818600,,KHEDGPETH@EMEPA.COM,10/26/2021 09:36:47,KEVIN HEDGPETH-DIRECTOR OF ACCOUNTING,CORBIN & BIGGS PLLC,385 B HIGHLAND COLONY PARKWAY #500,,RIDGELAND,MS,39157,GEORGE M BIGGS JR,PARTNER,6019572001,,MARK.BIGGS@CORBINBIGGS.COM,10/25/2021 15:26:18,,O,,U,N,N,N,N,U,750000,N,,6062891,,N,N,N,N,N,N,,21,10/26/2021 00:00:00,10/29/2021 01:30:04,,N,907,1,x00,10/26/2021 00:00:00,,N,KEVIN HEDGPETH,DIRECTOR OF ACCOUNTING,10/26/2021 00:00:00,853667394,N,,N,N,,,,,Non-profit,UG,,,,,,07/01/2020 00:00:00,,,,US
1394432,1299212021,2021,129921,06/30/2021 00:00:00,S,A,,N,926000100,,N,100642065,HOONAH CITY SCHOOL DISTRICT,P.O. BOX 157,,HOONAH,AK,99829,AMY STEVENSON,BUSINESS MANAGER,9079453611,,STEVENSONA@HOONAHSCHOOLS.ORG,09/30/2021 12:12:10,AMY STEVENSON-BUSINESS MANAGER,"ALTMAN, ROGERS & CO.","3000 C ST. N., SUITE 201",,ANCHORAGE,AK,99503,JOSEPH V. BERGENE,PRINCIPAL,9072742992,,FEDCENSUS@ALTROGCO.COM,09/29/2021 18:54:57,,O,,U,N,N,N,N,U,750000,Y,,1252553,,N,N,N,N,N,N,,84,09/30/2021 00:00:00,10/07/2021 01:30:03,,N,205,1,x00,09/30/2021 00:00:00,,N,AMY STEVENSON,BUSINESS MANAGER,09/30/2021 00:00:00,920143182,N,,N,N,,,,,Local government,UG,,10/08/2021 11:16:13,10/14/2021 07:29:22,N,G,07/01/2020 00:00:00,,,,US
1380557,2270662021,2021,227066,03/31/2021 00:00:00,S,A,,N,760775911,,N,799228627,"SALEM RHF HOUSING, INC. DBA PROVIDENCE PLACE 126-EE049",911 NORTH STUDEBAKER ROAD,,LONG BEACH,CA,90815,CHRISTOPHER PURCELL,CONTROLLER,5622575100,,CHRISTOPHER.PURCELL@RHF.ORG,07/26/2021 14:09:04,CHRISTOPHER PURCELL-CONTROLLER,"DAUBY O'CONNOR & ZALESKI, LLC",501 CONGRESSIONAL BLVD.,,CARMEL,IN,46032,HEATHER PERRY,MEMBER,3178485700,,HPERRY@DOZ.NET,07/26/2021 15:27:37,,O,,U,N,N,N,N,U,750000,N,,6211191,,N,N,N,N,N,N,,14,07/26/2021 00:00:00,07/28/2021 01:30:05,,N,903,1,x00,07/26/2021 00:00:00,,N,CHRISTOPHER PURCELL,CONTROLLER,07/26/2021 00:00:00,351750664,N,,N,N,,,,,Non-profit,UG,,,,,,04/01/2020 00:00:00,,,,US
1413442,1858852021,2021,185885,06/30/2021 00:00:00,S,A,,N,431518761,,N,964888239,"NBA/GPVA ACCESSIBLE HOUSING, INC.",1425 S. 18TH ST,,ST. LOUIS,MO,63104,CYNTHIA DUFFE,EXECUTIVE DIRECTOR,3145717660,,CYNTHIA@GATEWAYHOUSINGFIRST.ORG,02/11/2022 10:34:08,CYNTHIA DUFFE-EXECUTIVE DIRECTOR,"DAUBY O'CONNOR & ZALESKI, LLC",501 CONGRESSIONAL BLVD.,,CARMEL,IN,46032,RYAN STRUTZ,MEMBER,3178485700,,RSTRUTZ@DOZLLC.COM,02/11/2022 13:26:55,,O,,U,N,N,N,N,Q,750000,Y,,2389930,,Y,N,Y,Y,N,N,,14,02/11/2022 00:00:00,02/16/2022 01:30:03,,N,903,1,x00x14,02/11/2022 00:00:00,,N,CYNTHIA DUFFE,EXECUTIVE DIRECTOR,02/11/2022 00:00:00,351750664,N,,N,Y,,,,,Non-profit,UG,,,,,,07/01/2020 00:00:00,,,,US
1413552,1611962021,2021,161196,06/30/2021 00:00:00,S,A,,N,566001128,,N,,WASHINGTON COUNTY BOARD OF EDUCATION,802 WASHINGTON STREET,,PLYMOUTH,NC,27962,JOLANDA JORDAN,CHIEF FINANCE OFFICER,2527935171,,JJORDAN@WCSNC.ORG,01/13/2022 11:15:31,JOLANDA JORDAN-CFO,"DONNA H. WINBORNE, CPA, P.C.","1393 NORTH BROAD STREET, PO BOX 567",,EDENTON,NC,27932,DONNA WINBORNE,PRESIDENT,2524828461,,DONNA@WINBORNECPA.COM,01/13/2022 11:03:51,,O,,U,N,Y,Y,N,U,750000,Y,,3273262,,N,Y,N,Y,N,N,,84,01/13/2022 00:00:00,01/16/2022 01:30:05,,N,105,1,x00,01/13/2022 00:00:00,,N,JOLANDA JORDAN,CFO,01/13/2022 00:00:00,541430243,Y,,N,N,,,,,State,UG,,01/23/2022 15:21:52,01/27/2022 06:33:19,G,G,07/01/2020 00:00:00,,,,US
1437305,1703382021,2021,170338,03/31/2021 00:00:00,S,A,,N,050340114,,N,093202174,NORTH PROVIDENCE HOUSING AUTHORITY,945 CHARLES STREET,,NORTH PROVIDENCE,RI,029045647,MARILEE ARSENAULT,EXECUTIVE DIRECTOR,4017280930,,MARSENAULT@NPHOUSING.ORG,06/28/2022 13:52:41,MARILEE ARSENAULT-MARILEE ARSENAULT,RONALD CARMARK CPA,225 NEWMAN AVENUE,,RUMFORD,RI,029161218,RONALD CARMARK,CERTIFIED PUBLIC ACCOUNTANT,4013833665,,RCARMARKCPA@GMAIL.COM,06/28/2022 12:24:50,,O,,U,N,N,N,N,U,750000,Y,,2901963,,N,N,N,N,N,N,,14,06/28/2022 00:00:00,06/30/2022 01:30:04,,N,403,1,x00,06/28/2022 00:00:00,,N,MARILEE ARSENAULT,MARILEE ARSENAULT,06/28/2022 00:00:00,510502585,N,,N,N,,,,,Local government,UG,,,,,,04/01/2020 00:00:00,,,,US
1487653,1900342021,2021,190034,09/30/2021 00:00:00,S,A,,N,630648603,,N,126280635,BIRMINGHAM JEFFERSON COUNTY TRANSIT AUTHORITY,1801 MORRIS AVENUE,,BIRMINGHAM,AL,35203,GLENN DICKERSON,CFO,2058423146,,GDICKERSON@BJCTA.ORG,05/25/2023 12:24:02,GLENN DICKERSON-CHIEF FINANCIAL OFFICER,WARREN AVERETT,2500 ACTON ROAD #200,,BIRMINGHAM,AL,35243,CAROL PHILLIPS,MEMBER,2057693347,,CAROL.PHILLIPS@WARRENAVERETT.COM,05/25/2023 14:37:12,,O,,U,Y,N,N,N,U,750000,N,,16520939,,Y,N,N,Y,Y,N,,20,05/25/2023 00:00:00,05/31/2023 01:30:05,,N,406,1,x20,05/25/2023 00:00:00,,N,GLENN DICKERSON,CHIEF FINANCIAL OFFICER,05/25/2023 00:00:00,454084437,N,,Y,Y,,,,,Local government,UG,,,,,,10/01/2020 00:00:00,,,,US
1421639,2146192021,2021,214619,06/30/2021 00:00:00,S,A,,N,010671144,,N,121245075,WASHINGTON DRUG & ALCOHOL COMMISSION,"90 WEST CHESTNUT STREET, SUITE 310",,WASHINGTON,PA,15301,CHERYL ANDREWS,EXECUTIVE DIRECTOR,7242231181,,CHERYLA@WDACINC.ORG,03/20/2022 21:02:05,CHERYL ANDREWS-EXECUTIVE DIRECTOR,"MCCALL SCANLON & TICE, LLC","480 JOHNSON ROAD, SUITE 240",,WASHINGTON,PA,15301,KATHY HOUSTON,PRINCIPAL,7242239465,,KHOUSTON@CPA-HA.COM,03/21/2022 07:52:08,,O,,U,N,N,N,N,U,750000,Y,,1208880,,N,N,N,N,N,N,,93,03/21/2022 00:00:00,03/23/2022 01:30:03,,N,908,1,x00,03/21/2022 00:00:00,,N,CHERYL ANDREWS,EXECUTIVE DIRECTOR,03/21/2022 00:00:00,262728289,N,,N,N,,,,,Non-profit,UG,,,,,,07/01/2020 00:00:00,,,,US
1428629,12602021,2021,1260,12/31/2021 00:00:00,S,A,,N,026019560,,N,929540540,"HEARTHSTONE HOMES OF WOLFEBORO, INC.",67 CENTER STREET,,WOLFEBORO,NH,03894,DANIEL HOTCHKISS,CONTROLLER,6032249221,,DHOTCHKISS@HODGESCOMPANIES.COM,04/15/2022 13:13:43,DANIEL HOTCHKISS-MANAGEMENT AGENT,"LEONE, MCDONNELL & ROBERTS, PA",61 SOUTH MAIN STREET,,WOLFEBORO,NH,03894,EVAN STOWELL,SHAREHOLDER,6035691953,,ESTOWELL@LMRPA.COM,05/04/2022 09:23:42,,O,,U,N,N,N,N,U,750000,Y,,2611913,,N,N,N,Y,N,N,,10,05/04/2022 00:00:00,05/06/2022 01:30:02,,N,903,1,x14x00,04/07/2022 00:00:00,,N,DANIEL HOTCHKISS,MANAGEMENT AGENT,05/04/2022 00:00:00,020417217,N,,N,N,,,,,Non-profit,UG,,,,,,01/01/2021 00:00:00,,,,
1434111,1522052021,2021,152205,09/30/2021 00:00:00,S,A,,N,646001025,,N,098170970,"RANKIN COUNTY, MISSISSIPPI",211 E GOVERNMENT ST,,BRANDON,MS,39042,KEITH HICKS,COUNTY ADMINISTRATOR,6018251475,,KHICKS@RANKINCOUNTY.ORG,10/04/2022 15:48:41,KEITH HICKS-COUNTY ADMINISTRATOR,MS OFFICE OF THE STATE AUDITOR,PO BOX 956,,JACKSON,MS,39205,JOE MCKNIGHT,"DIRECTOR, COUNTY AUDIT SECTION",6015762800,,JOE.MCKNIGHT@OSA.MS.GOV,10/05/2022 08:39:24,,O,,UQA,N,Y,N,N,U,750000,N,,755452,,N,N,N,N,N,N,,16,10/05/2022 00:00:00,10/15/2022 01:30:07,,N,100,1,x00,10/05/2022 00:00:00,,N,KEITH HICKS,COUNTY ADMINISTRATOR,10/05/2022 00:00:00,646000742,Y,,N,N,,,,,Local government,UG,,,,,,10/01/2020 00:00:00,,,,US
1440778,2292442021,2021,229244,06/30/2021 00:00:00,S,A,,N,232142317,,N,,HISPANIC ASSOCIATION OF CONTRACTORS & ENTERPRISES,167 WEST ALLEGHENY AVENUE,,PHILADELPHIA,PA,19140,HARRY TAPIA,DIRECTOR OF OPERATIONS,2154268025,,HTAPIA@HACECDC.ORG,08/17/2022 10:16:24,HARRY TAPIA-DIRECTOR OF OPERATIONS,J. MILLER & ASSOCIATES,1617 JOHN F. KENNEDY BLVD.  SUITE 1210,,PHILADELPHIA,PA,19103,SUSAN JOSEPH,MANAGER,2156001701,,SJOSEPH@NONPROFITCPAS.NET,08/18/2022 13:43:56,,O,,U,N,N,N,N,U,750000,N,,848979,,N,N,N,N,N,N,,14,08/18/2022 00:00:00,08/20/2022 01:30:05,,N,909,1,x00,03/30/2022 00:00:00,,N,HARRY TAPIA,DIRECTOR OF OPERATIONS,03/30/2022 00:00:00,272001590,N,,N,N,,,,,Non-profit,UG,,,,,,07/01/2020 00:00:00,,,,
1474991,2364222021,2021,236422,12/31/2021 00:00:00,S,A,,N,221923893,,N,016175379,HUDSON REGIONAL HEALTH COMMISSION,"595 COUNTY AVE, BLDG 1",,SECAUCUS,NJ,07094,CARRIE NAWROCKI,EXECUTIVE DIRECTOR,2012231133,,CNAWROCKI@HUDSONREIONAL.GOV,02/24/2023 15:32:06,CARRIE NAWROCKI-CARRIE NAWROCKI,DESENA & COMPANY CPA'S LLC,100 EAGLE ROCK AVE STE 110,,EAST HANOVER,NJ,07936,JOHN DESENA,CPA,9736023305,,JOHN@DESENACPA.COM,02/24/2023 15:16:45,,O,,U,N,N,N,N,U,750000,Y,,2286568,,N,N,N,N,N,N,,21,02/24/2023 00:00:00,03/02/2023 01:30:07,,N,909,1,x00,02/24/2023 00:00:00,,N,CARRIE NAWROCKI,CARRIE NAWROCKI,02/24/2023 00:00:00,200609534,N,,N,N,,,,,Local government,UG,,,,,,01/01/2021 00:00:00,,,,US
1417733,1374402021,2021,137440,06/30/2021 00:00:00,S,A,,Y,586002838,,N,072486046,ATHENS HOUSING AUTHORITY,300 S. ROCKSPRINGS STREET,,ATHENS,GA,30603,JANE SMITH,CFO,7064255300,,JSMITH@ATHENSHOUSING.ORG,02/09/2022 10:50:20,JANE SMITH-CHIEF FINANCIAL OFFICER,"RUBINO AND COMPANY, CHARTERED",6903 ROCKLEDGE DRIVE SUITE 300,,BETHESDA,MD,20817,ALLAN KITCHEN,ENGAGEMENT DIRECTOR,3015643636,,AKITCHEN@RUBINO.COM,02/09/2022 10:40:30,,O,,U,N,N,N,N,U,750000,Y,,7173697,,N,N,N,N,N,N,,14,02/09/2022 00:00:00,02/12/2022 01:30:04,,N,403,1,x00,02/09/2022 00:00:00,,N,JANE SMITH,CHIEF FINANCIAL OFFICER,02/09/2022 00:00:00,521186096,N,,N,N,,,,,Local government,UG,,,,,,07/01/2020 00:00:00,,,,US
1401555,1235032021,2021,123503,06/30/2021 00:00:00,S,A,,N,951643389,,N,072505746,UNIVERSITY OF REDLANDS,1200 EAST COLTON AVENUE,,REDLANDS,CA,92373,KEVIN DYERLY,VP FOR FINANCE/CFO,9097488174,,KEVIN_DYERLY@REDLANDS.EDU,11/17/2021 19:08:01,KEVIN DYERLY-VP OF FINANCE,MOSS ADAMS LLP,"2040 MAIN STREET, SUITE 900",,IRVINE,CA,92614,MATT PARSONS,PARTNER,9492214093,,MATT.PARSONS@MOSSADAMS.COM,11/22/2021 12:50:23,,C,84,U,N,N,N,N,U,750000,Y,,51924810,,Y,N,N,Y,N,N,,,11/22/2021 00:00:00,11/24/2021 01:30:03,,N,904,1,x84x00,11/22/2021 00:00:00,,N,KEVIN DYERLY,VP OF FINANCE,11/22/2021 00:00:00,910189318,N,,N,Y,,,,,Institution of higher education (IHE),UG,00132200,11/28/2021 12:34:41,12/02/2021 06:56:23,S,B,07/01/2020 00:00:00,,,,US
1427168,1991792021,2021,199179,12/31/2021 00:00:00,S,A,,N,391940292,,N,135418635,"SAFE & SOUND, INC.",801 W MICHIGAN STREET,,MILWAUKEE,WI,53233,BRIDGET ROBINSON-WHITAKER,DEPUTY EXECUTIVE DIRECTOR,4142204798,,BRIDGET@SAFESOUND.ORG,05/26/2022 11:17:54,BRIDGET ROBINSON-WHITAKER-EXECUTIVE DIRECTOR,"REILLY, PENNER & BENTON, LLP","1233 N MAYFAIR ROAD, SUITE 302",,MILWAUKEE,WI,532263255,DAVID GROTKIN,DGROTKIN@RPBLLP.COM,4142717800,,DGROTKIN@RPBLLP.COM,05/25/2022 14:27:45,,O,,U,N,N,N,N,U,750000,Y,,1121694,,N,N,N,N,N,N,,95,05/26/2022 00:00:00,05/28/2022 01:30:05,,N,908,1,x00,05/26/2022 00:00:00,,N,BRIDGET ROBINSON-WHITAKER,EXECUTIVE DIRECTOR,05/26/2022 00:00:00,390747409,N,,N,N,,,,,Non-profit,UG,,,,,,01/01/2021 00:00:00,,,,US
1445999,2216072021,2021,221607,12/31/2021 00:00:00,S,A,,N,550765059,,N,623467870,MAIN STREET APARTMENTS CORPORATION,500 VIRGINIA STREET EAST SUITE 1000,,CHARLESTON,WV,25301,KIM WILLIAMS,MANAGEMENT AGENT,3043424169,,KIM@ELLISCPA.COM,09/26/2022 14:38:55,ANGELA PHILLIPS-MANAGEMENT AGENT,"GRAY, GRIFFITH & MAYS, A.C.","707 VIRGINIA ST. EAST, SUITE 400",,CHARLESTON,WV,25301,KEVIN MANN,DIRECTOR,3043459400,,KMANN@GGMCPA.NET,09/26/2022 15:22:15,,O,,U,N,N,N,N,U,750000,Y,,897963,,N,N,N,N,N,N,,14,09/26/2022 00:00:00,09/28/2022 01:30:09,,N,903,1,x00,09/26/2022 00:00:00,,N,ANGELA PHILLIPS,MANAGEMENT AGENT,09/26/2022 00:00:00,550621482,N,,N,N,,,,,Non-profit,UG,,,,,,01/01/2021 00:00:00,,,,US
1428134,685052021,2021,68505,12/31/2021 00:00:00,S,A,,N,450333497,,N,108665829,COMMUNITY ACTION REGION VI,PO BOX 507,,JAMESTOWN,ND,584020507,KRISTINA BROWNELL,EXECUTIVE DIRECTOR,7012521821,,KRISTINA@CAP6.COM,05/23/2022 16:41:26,"KRISTINA BROWNELL, CPA-EXECUTIVE DIRECTOR","BRADY, MARTZ & ASSOCIATES, P.C.",207 E BROADWAY AVE,,BISMARCK,ND,585021297,"MINDY PIATZ, CPA",SHAREHOLDER,7012231717,,MINDY.PIATZ@BRADYMARTZ.COM,05/23/2022 14:41:09,,O,,U,Y,N,N,N,U,750000,Y,,3758899,,N,N,N,N,N,N,,93,05/23/2022 00:00:00,05/26/2022 01:30:04,,N,908,1,x00,05/23/2022 00:00:00,,N,"KRISTINA BROWNELL, CPA",EXECUTIVE DIRECTOR,05/23/2022 00:00:00,450310328,N,,Y,N,,,,,Non-profit,UG,,,,,,01/01/2021 00:00:00,,,,US
1401737,36422021,2021,3642,06/30/2021 00:00:00,S,A,,N,042609177,,N,038338109,"HEALTH IMPERATIVES, INC.","942 WEST CHESTNUT STREET, 2ND FLOOR",,BROCKTON,MA,02301,JUSTINE CORDEIRO,CHIEF FINANCIAL OFFICER,5085833005,,JCORDEIRO@HEALTHIMPERATIVES.ORG,11/24/2021 08:52:05,JUSTINE CORDEIRO-CHIEF FINANCIAL OFFICER,"AAFCPAS, INC.",50 WASHINGTON STREET,,WESTBOROUGH,MA,01581,SORIE KABA,PARTNER,5083669100,,SKABA@AAFCPA.COM,11/17/2021 22:11:51,,O,,U,N,N,N,N,U,750000,Y,,4030677,,N,N,N,N,N,N,,10,11/24/2021 00:00:00,11/27/2021 01:30:03,,N,908,1,x00,11/24/2021 00:00:00,,N,JUSTINE CORDEIRO,CHIEF FINANCIAL OFFICER,11/24/2021 00:00:00,042571780,N,,N,N,,,,,Non-profit,UG,,,,,,07/01/2020 00:00:00,,,,US
1435815,1302292021,2021,130229,06/30/2021 00:00:00,S,A,,N,866000244,,N,088302625,"CITY OF FLAGSTAFF, ARIZONA",211 W. ASPEN AVENUE,,FLAGSTAFF,AZ,86001,HEIDI DERRYBERRY,ASSISTANT FINANCE DIRECTOR,9282132215,,HDERRYBERRY@FLAGSTAFFAZ.GOV,06/23/2022 14:44:29,HEIDI DERRYBERRY-ASSISTANT FINANCE DIRECTOR,CLIFTONLARSONALLEN LLP,"20 EAST THOMAS ROAD, SUITE 2300",,PHOENIX,AZ,85012,DENNIS J. OSUCH,PRINCIPAL,6026043630,,DENNIS.OSUCH@CLACONNECT.COM,06/16/2022 20:07:44,,O,,U,N,N,N,N,U,750000,N,,15362728,,N,N,N,N,N,N,,14,06/23/2022 00:00:00,06/28/2022 01:30:04,,N,200,1,x00,06/23/2022 00:00:00,,N,HEIDI DERRYBERRY,ASSISTANT FINANCE DIRECTOR,06/23/2022 00:00:00,410746749,N,,N,N,,,,,Local government,UG,,,,,,07/01/2020 00:00:00,,,,US
1435758,2128052021,2021,212805,12/31/2021 00:00:00,S,A,,N,570751835,,N,165914102,"LOWCOUNTRY FOOD BANK, INC",2864 AZALEA DRIVE,,CHARLESTON,SC,29405,NICHOLAS OSBORNE,CEO,8437478146,,NOSBORNE@LCFBANK.ORG,07/01/2022 09:18:04,NICHOLAS OSBORNE-PRESIDENT AND CEO,"FORVIS, LLP",11 BRENDAN WAY ,,GREENVILLE,SC,29615,SABRINA PRESTON,MANAGING DIRECTOR,8642134031,,SABRINA.PRESTON@DHG.COM,07/01/2022 08:57:11,,O,,U,N,N,N,N,U,750000,Y,,11864369,,N,N,N,N,N,N,,10,07/01/2022 00:00:00,07/08/2022 01:30:03,,N,908,1,x00,07/01/2022 00:00:00,,N,NICHOLAS OSBORNE,PRESIDENT AND CEO,07/01/2022 00:00:00,440160260,N,,N,N,,,,,Non-profit,UG,,,,,,01/01/2021 00:00:00,,,,US
1396815,2177422021,2021,217742,06/30/2021 00:00:00,S,A,,N,311758337,,N,154695832,"FLOYD-KRESS HOMES, INC (052-HD043)",P.O. BOX 3734,,FREDERICK,MD,21705,SARAH NORMAN,PRESIDENT,4104539553,,SARAH.NORMAN@SHEPPARDPRATT.ORG,10/28/2021 16:12:10,CAROL REED-GRANTS & ACCOUNTING MANAGER,"DELEON & STANG, CPAS AND ADVISORS",150 S. EAST STREET,,FREDERICK,MD,21701,"MICHELE R. MILLS, CPA",PRINCIPAL,3012507401,,MICHELE@DELEONANDSTANG.COM,10/28/2021 10:56:24,,O,,U,N,N,N,N,U,750000,Y,,760394,,N,N,N,N,N,N,,14,10/28/2021 00:00:00,11/01/2021 01:30:03,,N,908,1,x00,10/28/2021 00:00:00,,N,CAROL REED,GRANTS & ACCOUNTING MANAGER,10/28/2021 00:00:00,521373858,N,,N,N,,,,,Non-profit,UG,,,,,,07/01/2020 00:00:00,,,,US
1396768,2022682021,2021,202268,06/30/2021 00:00:00,S,A,,N,311522612,,N,,"ACCESSIBLE COUNTRY TRAIL II, INC./ SWAN CREEK APTS 042-HD055","5555 AIRPORT HIGHWAY, SUITE 145",,TOLEDO,OH,43615,BRENDA YOUNG,FINANCE DIRECTOR,4192449609,,BYOUNG@PREFERRED-PROPERTIES.ORG,12/20/2021 09:38:21,BRENDA YOUNG-FINANCE DIRECTOR,GILMORE JASION MAHLER,1785 INDIAN WOOD CIRCLE DRIVE,,MAUMEE,OH,43537,ALEX SPIEKER,MANAGER,4197942000,,ASPIEKER@GJMLTD.COM,10/06/2021 04:47:40,,O,,U,N,N,N,N,U,750000,Y,,1212564,,N,N,N,N,N,N,,14,12/20/2021 00:00:00,12/22/2021 01:30:03,,N,908,1,x00,12/20/2021 00:00:00,,N,BRENDA YOUNG,FINANCE DIRECTOR,12/20/2021 00:00:00,341827159,N,,N,N,,,,,Non-profit,UG,,,,,,07/01/2020 00:00:00,,,,US
1414175,1341992021,2021,134199,06/30/2021 00:00:00,S,A,,N,952939365,,N,,SAN MARCOS UNIFIED SCHOOL DISTRICT,255 PICO AVENUE STE 250,,SAN MARCOS,CA,92069,LOURDES HERNANDEZ,EXECUTIVE DIRECTOR OF FINANCE,7607521260,,LOURDES.HERNANDEZ@SMUSD.ORG,01/18/2022 18:28:17,"LOURDES HERNANDEZ-EXECUTIVE DIRECTOR, FINANCE",CHRISTY WHITE INC,348 OLIVE ST,,SAN DIEGO,CA,92103,JOHN WHITEHOUSE,PARTNER,6192708222,,JWHITEHOUSE@CHRISTYWHITE.COM,01/18/2022 18:55:53,,O,,U,N,N,N,N,U,940301,Y,,31343370,,N,N,N,N,N,N,,84,01/18/2022 00:00:00,01/21/2022 01:30:03,,N,505,1,x00,01/18/2022 00:00:00,,N,LOURDES HERNANDEZ,"EXECUTIVE DIRECTOR, FINANCE",01/18/2022 00:00:00,272956198,N,,N,N,,,,,Local government,UG,,01/25/2022 13:01:50,01/27/2022 06:33:19,N,G,07/01/2020 00:00:00,,,,US
1419912,649242021,2021,64924,06/30/2021 00:00:00,S,A,,N,421104234,,N,156225898,SAFEPLACE,"1723 GRANDVIEW BLVD, PO BOX 1565",,SIOUX CITY,IA,51102,ROBIN MCGINTY,EXECUTIVE DIRECTOR,7122770131,,ROBIN@SAFEPLACESIOUXLAND.ORG,02/25/2022 16:58:09,ROBIN MCGINTY-EXECUTIVE DIRECTOR,"HENJES, CONNER & WILLIAMS, PC",801 STEVENS PORT DRIVE P.O. BOX 1937,,DAKOTA DUNES,SD,57049,DONALD L KLYNSMA,SHAREHOLDER,6052423900,,DKLYNSMA@HCWCPA.COM,02/25/2022 17:01:07,,O,,U,N,N,N,N,U,750000,N,,908771,,N,N,N,N,Y,N,,16,02/25/2022 00:00:00,02/27/2022 01:30:03,,N,908,1,x16x00,02/25/2022 00:00:00,,N,ROBIN MCGINTY,EXECUTIVE DIRECTOR,02/25/2022 00:00:00,481292483,N,,N,N,,,,,Non-profit,UG,,,,,,07/01/2020 00:00:00,,,,US
1411339,1667142021,2021,166714,06/30/2021 00:00:00,S,A,,N,936000928,,N,,MILTON-FREEWATER UNIFIED SCHOOL DISTRICT,1020 SOUTH MILL ST,,MILTON-FREEWATER,OR,97862,DENYCE KELLY,DIRECTOR OF BUSINESS SERVICES,5419663216,,DENYCE.KELLY@IMESD.K12.OR.US,12/31/2021 10:15:58,DENYCE KELLY-BUSINESS MANAGER/DIRECTOR PROGRAM RESOURCES,"PAULY, ROGERS, CO., P.C.",12700 SW 72ND AVE,,TIGARD,OR,97223,TARA KAMP,PARTNER,5036202632,,TARAK@RASCPAS.COM,01/04/2022 11:07:39,,O,,U,N,N,N,N,U,750000,Y,,2805657,,N,N,N,N,N,N,,84,01/04/2022 00:00:00,01/07/2022 01:30:04,,N,505,1,x00,01/04/2022 00:00:00,,N,DENYCE KELLY,BUSINESS MANAGER/DIRECTOR PROGRAM RESOURCES,01/04/2022 00:00:00,930936123,N,,N,N,,,,,Local government,UG,,01/12/2022 14:45:40,01/13/2022 10:51:06,N,G,07/01/2020 00:00:00,,,,US
1435803,2535692021,2021,253569,06/30/2021 00:00:00,S,A,,N,931192100,,N,,ASIAN HEALTH & SERVICE CENTER INC,9035 SE FOSTER RD,,PORTALND,OR,97266,SARAH CHENG,CONTROLLER,5038728822,,SCHENG@AHSCPDX.ORG,06/16/2022 20:16:53,SARAH CHENG-CONTROLLER,"HOFFMAN, STEWART & SCHMIDT, PC","3 CENTERPOINTE DRIVE, SUITE 300",,LAKE OSWEGO,OR,970358663,TODD MASSINGER,SHAREHOLDER,5032205900,,TODD@HSS-CPAS.COM,06/22/2022 16:57:10,,O,,U,N,N,N,N,U,750000,N,,1055053,,N,N,N,N,N,N,,21,06/22/2022 00:00:00,06/24/2022 01:30:11,,N,888,1,x00,06/22/2022 00:00:00,,N,SARAH CHENG,CONTROLLER,06/22/2022 00:00:00,930743240,N,,N,N,,,,,Non-profit,UG,,,,,,07/01/2020 00:00:00,,,,US
1439986,2528312021,2021,252831,12/31/2021 00:00:00,S,A,,N,822081292,,N,,"CARE PLUS BERGEN, INC.",230 EAST RIDGEWOOD AVENUE,,PARAMUS,NJ,07652,RALPH IADAROLA,CHIEF FINANCIAL OFFICER,2019674000,,RIADAROLA@NEWBRIDGEHEALTH.ORG,08/31/2022 13:57:48,RALPH IADAROLA-RALPH IADAROLA,"BDO USA, LLP",622 THIRD AVE #3100,,NEW YORK,NY,10017,MICHAEL KLINGELE,PARTNER,7327341043,,MKLINGELE@BDO.COM,08/03/2022 15:04:15,,C,93,U,N,N,N,N,U,1583814,N,,52793814,,N,N,N,N,N,N,,,08/31/2022 00:00:00,09/02/2022 01:30:05,,N,888,1,x00,08/31/2022 00:00:00,,N,RALPH IADAROLA,RALPH IADAROLA,08/31/2022 00:00:00,135381590,N,,N,N,,,,,Non-profit,UG,,,,,,01/01/2021 00:00:00,,,,US
1444829,1413842021,2021,141384,06/30/2021 00:00:00,S,A,,N,376002714,,N,046588984,ARTHUR CUSD #305,301 EAST COLUMBIA,,ARTHUR,IL,61911,SHANNON CHEEK,DISTRICT SUPERINTENDENT,2175432511,,CHEEKS@CUSD305.ORG,09/22/2022 13:53:02,SHANNON CHEEK-SUPERINTENDENT,"MOSE, YOCKEY, BROWN & KULL, LLC","230 N MORGAN, PO BOX 317",,SHELBYVILLE,IL,62565,ROBIN YOCKEY,MEMBER,2177749587,,MYBKRRY@CONSOLIDATED.NET,09/22/2022 12:52:44,,O,,AS,N,N,Y,N,U,750000,N,,1498729,,Y,Y,Y,Y,N,N,,84,09/22/2022 00:00:00,09/24/2022 01:30:08,,N,505,1,x00,09/22/2022 00:00:00,,N,SHANNON CHEEK,SUPERINTENDENT,09/22/2022 00:00:00,371409895,N,,N,Y,REGULATORY,Y,Q,,Local government,UG,,09/23/2022 14:13:34,09/29/2022 09:43:46,N,G,07/01/2020 00:00:00,,,,US
1433991,2534042021,2021,253404,12/31/2021 00:00:00,S,A,,N,720947563,,N,111173055,"ATLANTA WATER SYSTEM, INC.",2925 PACTON ALEXANDRIA ROAD,,WINNFIELD,LA,71483,"W.C. MCCARTY, JR.",PRESIDENT,3186480409,,ATLANTAWATERSYSTEM@GMAIL.COM,06/03/2022 09:32:15,"W.C. MCCARTY, JR.-PRESIDENT","SHANNA JONES, CPA",795 BIG CREEK RD,,WINNFIELD,LA,71483,SHANNA JONES,CPA,3187928544,,SHANNA@SJONES.CPA,06/03/2022 10:03:23,,O,,U,N,N,N,N,Q,750000,N,,780666,,N,Y,N,Y,Y,N,,66,06/03/2022 00:00:00,06/09/2022 17:55:48,,N,888,1,x66x00,06/03/2022 00:00:00,,N,"W.C. MCCARTY, JR.",PRESIDENT,06/03/2022 00:00:00,260143942,N,,N,N,,,,,Non-profit,UG,,,,,,01/01/2021 00:00:00,,,,US
1419679,643422021,2021,64342,05/31/2021 00:00:00,S,A,,N,420680408,,N,054234752,"CLARKE UNIVERSITY OF DUBUQUE, IOWA",1550 CLARKE AVENUE,,DUBUQUE,IA,52001,TAMI LANSING,CONTROLLER,5635886303,,TAMI.LANSING@CLARKE.EDU,02/28/2022 09:09:05,TAMI LANSING-CONTROLLER,EIDE BAILLY LLP,"1545 ASSOCIATES DRIVE, SUITE 101",,DUBUQUE,IA,52002,JOY FEIGE,PARTNER,5635561790,,JFEIGE@EIDEBAILLY.COM,02/27/2022 16:20:02,,O,,U,N,N,N,N,Q,750000,Y,,13423403,,Y,Y,Y,Y,Y,N,,84,02/28/2022 00:00:00,03/02/2022 01:30:04,,N,904,1,x93x84,02/28/2022 00:00:00,,N,TAMI LANSING,CONTROLLER,02/28/2022 00:00:00,450250958,N,,N,Y,,,,,Institution of higher education (IHE),UG,00185200,03/02/2022 15:03:56,03/03/2022 09:07:59,B,B,06/01/2020 00:00:00,,,,US
1432813,229062021,2021,22906,09/30/2021 00:00:00,S,A,,N,222630127,,N,131267549,MAINE PRIMARY CARE ASSOCIATION,73 WINTHROP STREET,,AUGUSTA,ME,04330,KEITH GIBSON,DIRECTOR OF FINANCE & OPERATIONS,2076210677,,KGIBSON@MEPCA.ORG,05/25/2022 08:59:38,KEITH GIBSON-CFO,"EDWARDS, FAUST & SMITH","15 COLUMBIA STREET, SUITE 201",,BANGOR,ME,04401,NICK SCHILLER,PARTNER,2079474575,,NICK@EFSCPA.COM,05/25/2022 09:53:40,,O,,U,N,N,N,N,U,750000,Y,,2131706,,N,N,N,N,N,N,,93,05/25/2022 00:00:00,05/27/2022 01:30:03,,N,908,1,x00,05/25/2022 00:00:00,,N,KEITH GIBSON,CFO,05/25/2022 00:00:00,010463272,N,,N,N,,,,,Non-profit,UG,,,,,,10/01/2020 00:00:00,,,,US
1436556,1949142021,2021,194914,12/31/2021 00:00:00,S,A,,N,346000745,,N,020636569,COLUMBIANA COUNTY,105 SOUTH MARKET STREET,,LISBON,OH,44432,NANCY MILLIKEN,COUNTY AUDITOR,3304249515,,NMILLIKEN@COLUMBIANACNTYAUDITOR.ORG,07/22/2022 08:06:18,NANCY MILLIKEN-AUDITOR,CLARK SCHAEFER HACKETT,"4449 EASTON WAY, SUITE 400",,COLUMBUS,OH,43219,BRIAN MOSIER,SHAREHOLDER,6148852208,,BMOSIER@CSHCO.COM,07/21/2022 15:09:49,,O,,U,Y,N,N,N,Q,750000,N,,11090793,,N,Y,N,Y,N,N,,93,07/22/2022 00:00:00,07/26/2022 01:30:04,,N,888,1,x00x21,07/22/2022 00:00:00,,N,NANCY MILLIKEN,AUDITOR,07/22/2022 00:00:00,310800053,N,,Y,N,,,,,Local government,UG,,,,,,01/01/2021 00:00:00,,,,US
1426666,949872021,2021,94987,06/30/2021 00:00:00,S,A,,N,630740961,,N,082143496,COMMUNITY ACTION COMMITTEE OF CHAMBERS TALLAPOOSA COOSA INC,172 S BROADNAX ST,,DADEVILLE,AL,36853,MACK BRADLEY,CFO,2568254287,,CACCTCBRADLEY@GMAIL.COM,03/31/2022 20:47:44,MACK BRADLEY-CFO,VANCE CPA LLC,706  S THORNTON AVE,,DALTON,GA,30720,BENJAMIN VANCE,CPA,7064423084,,BEN@VANCECPA.COM,03/31/2022 20:48:17,,O,,U,N,Y,N,N,U,750000,N,,6295825,,N,Y,Y,Y,N,N,,93,03/31/2022 00:00:00,04/11/2022 01:30:04,,N,908,1,x93x00,03/31/2022 00:00:00,,N,MACK BRADLEY,CFO,03/31/2022 00:00:00,631284602,Y,,N,N,,,,,Non-profit,UG,,,,,,07/01/2020 00:00:00,,,,US
1411816,270152021,2021,27015,09/30/2021 00:00:00,S,A,,N,232162041,,N,020401423,SAINT JOSEPH HSG CORP DBA BETHLEHEM RETIREMENT VILLAGE 034-EH206-WAH,100 W. WISSAHICKON AVE,,FLOURTOWN,PA,190311805,SISTER MARIE O'BRIEN,TREASURER,2152330998,,MOBRIEN@SSJPHILA.ORG,01/04/2022 12:04:30,SISTER MARIE O'BRIEN-TREASURER,"MAZARS USA, LLP","501 OFFICE CENTER DRIVE, SUITE 300",,FORT WASHINGTON,PA,19034,"KIRK J. ELDRIDGE, CPA",AUDIT PARTNER,2152591000,,KIRK.ELDRIDGE@MAZARSUSA.COM,01/04/2022 17:16:19,,O,,U,N,N,N,N,U,750000,Y,,5180113,,N,N,N,N,N,N,,14,01/05/2022 00:00:00,01/08/2022 01:30:06,,N,903,1,x00,01/05/2022 00:00:00,,N,SISTER MARIE O'BRIEN,TREASURER,01/05/2022 00:00:00,131459550,N,,N,N,,,,,Non-profit,UG,,,,,,10/01/2020 00:00:00,,,,US
1389159,2227782021,2021,222778,06/30/2021 00:00:00,S,A,,N,300036447,,N,,HARMONY VILLAGE SENIOR DBA THE VILLAGE OF HARMONY MANOR 044-EE076,"26200 LAHSER RD, SUITE 300",,SOUTHFIELD,MI,480337157,DAVID CUNNINGHAM,VP OF FINANCE,2482812020,,DCUNNINGHAM@PVM.ORG,09/27/2021 08:35:44,DAVID CUNNINGHAM-VICE PRESIDENT OF FINANCE,"PLANTE & MORAN, PLLC","2601 CAMBRIDGE COURT, SUITE 500",,AUBURN HILLS,MI,48326,LINDA YUDASZ,PARTNER,2483757100,,PM.SINGLEAUDIT@PLANTEMORAN.COM,09/24/2021 17:37:53,,O,,U,N,N,N,N,U,750000,N,,3721493,,N,N,N,N,N,N,,14,09/27/2021 00:00:00,09/29/2021 01:30:03,,N,903,1,x00,09/27/2021 00:00:00,,N,DAVID CUNNINGHAM,VICE PRESIDENT OF FINANCE,09/27/2021 00:00:00,381357951,N,,N,N,,,,,Non-profit,UG,,,,,,07/01/2020 00:00:00,,,,US
1410190,2404082021,2021,240408,06/30/2021 00:00:00,S,A,,N,680172229,,N,,ST. MARY'S CENTER,925 BROCKHURST STREET,,OAKLAND,CA,94623,GABRIEL GLENDENNING,CONTROLLER - FINANCE AND ADMINISTRATION,4159710960,,GGLENDENNING@STMARYSCENTER.ORG,12/23/2021 14:40:57,GABRIEL GLENDENNING-CONTROLLER,ARMANINO LLP,"44 MONTGOMERY STREET, SUITE 900",,SAN FRANCISCO,CA,94104,GRANT LAM,PARTNER,4155683291,,GRANT.LAM@ARMANINOLLP.COM,12/23/2021 17:47:56,,O,,U,N,N,N,N,U,750000,N,,1904079,,N,N,N,N,N,N,,93,12/23/2021 00:00:00,12/28/2021 01:30:03,,N,888,1,x00,12/23/2021 00:00:00,,N,GABRIEL GLENDENNING,CONTROLLER,12/23/2021 00:00:00,946214841,N,,N,N,,,,,Non-profit,UG,,,,,,07/01/2020 00:00:00,,,,US
1435864,2538222021,2021,253822,09/30/2021 00:00:00,P,A,,Y,592645139,,N,,"CATHOLIC HEALTH SERVICES, INC.",4790 N. STATE ROAD 7,,LAUDERDALE LAKES,FL,33319,LAURA WILSON,DIRECTOR FINANCE,9547346681,,LWILSON@CHSFLA.COM,06/30/2022 14:04:17,DAVID D'AMICO-CFO,DELOITTE & TOUCHE LLP,"333 SOUTHEAST 2ND AVENUE, SUITE 3600",,MIAMI,FL,33131,JIM MINESSALE,AUDIT PARTNER,3058082532,,JMINESSALE@DELOITTE.COM,06/30/2022 14:21:38,,O,,U,N,N,N,N,U,750000,N,,4499044,,N,N,N,N,N,N,,93,06/30/2022 00:00:00,07/07/2022 01:30:04,,N,888,1,x00,06/30/2022 00:00:00,,N,DAVID D'AMICO,CFO,06/30/2022 00:00:00,133891517,N,,N,N,,,,,Non-profit,UG,,,,,,10/01/2020 00:00:00,,,,US
1486669,1526092021,2021,152609,06/30/2021 00:00:00,S,A,,N,640618618,,N,,MOSS POINT SCHOOL DISTRICT,4924 CHURCH STREET,,MOSS POINT,MS,39563,TRAVIS HART,BUSINESS MANAGER,2282852050,,THART@MPSDNOW.ORG,04/26/2023 14:58:25,TRAVIS HART-CHIEF FINANCIAL OFFICER,"FORTENBERRY & BALLARD, PC","1048 GLUCKSTADT RD, STE B",,MADISON,MS,39110,BRENT BALLARD,SHAREHOLDER,6019925292,,BRENT@FORTCPA.COM,04/27/2023 03:23:32,,O,,U,Y,N,N,N,U,750000,N,,5516481,,N,N,N,N,N,N,,84,04/27/2023 00:00:00,04/29/2023 01:30:05,,N,505,1,x00,04/27/2023 00:00:00,,N,TRAVIS HART,CHIEF FINANCIAL OFFICER,04/27/2023 00:00:00,640887736,N,,Y,N,,,,,Local government,UG,,05/05/2023 14:18:51,05/11/2023 09:07:18,N,G,07/01/2020 00:00:00,,,,US
1412791,2520162021,2021,252016,06/30/2021 00:00:00,S,A,,N,454893943,,N,,PAZLO EDUCATION FOUNDATION,1309 N. WILTON PLACE ROOM 321,,LOS ANGELES,CA,90028,CESAR LOPEZ,EXECUTIVE DIRECTOR ,8006036035,,CLOPEZ@APEXACADEMYHS.INFO,01/12/2022 15:21:25,CESAR LOPEZ-CESAR LOPEZ,CHRISTY WHITE INC.,348 OLIVE ST.,,SAN DIEGO,CA,92103,MARCY KEARNEY,PARTNER,6192708222,,MKEARNEY@CHRISTYWHITE.COM,01/12/2022 17:18:26,,O,,U,N,N,N,N,U,750000,N,,798313,,N,N,N,N,N,N,,21,01/12/2022 00:00:00,01/15/2022 01:30:03,,N,888,1,x00,01/12/2022 00:00:00,,N,CESAR LOPEZ,CESAR LOPEZ,01/12/2022 00:00:00,272956198,N,,N,N,,,,,Non-profit,UG,,01/22/2022 14:59:44,01/27/2022 06:33:19,,N,07/01/2020 00:00:00,,,,US
1423048,2320432021,2021,232043,06/30/2021 00:00:00,S,A,,N,364652384,,N,,REGIONAL SCHOOL UNIT NO. 13,28 LINCOLN STREET,,ROCKLAND,ME,04841,PETER ORNE,BUSINESS MANAGER,2075933642,,PETER.ORNE@RSU13.ORG,03/18/2022 06:07:40,PETER ORNE-PETER K ORNE,RHR SMITH & COMPANY,3 OLD ORCHARD ROAD,,BUXTON,ME,04093,KIM WALL,QUALITY CONTROL SPECIALIST,2079294606,,KWALL@RHRSMITH.COM,03/17/2022 16:31:43,,O,,U,N,N,N,N,Q,750000,N,,5465765,,Y,N,N,Y,Y,N,,21,03/18/2022 00:00:00,03/23/2022 01:30:03,,N,505,1,x00x84,03/18/2022 00:00:00,,N,PETER ORNE,PETER K ORNE,03/18/2022 00:00:00,043383155,N,,N,Y,,,,,Local government,UG,,03/23/2022 13:32:12,03/24/2022 10:10:28,N,G,07/01/2020 00:00:00,,,,US
1444641,2065012021,2021,206501,09/30/2021 00:00:00,S,A,,N,990073540,,N,074629460,"THE SALVATION ARMY USA WESTERN TERRITORY, HAWAIIAN AND PACIFIC ISLANDS",2950 MANOA ROAD,,HONOLULU,HI,96822,MENRIT FRANCIS,FINANCE DIRECTOR,8084401835,,MENRIT.FRANCIS@USW.SALVATIONARMY.ORG,10/01/2022 01:28:07,MENRIT FRANCIS-DIVISIONAL FINANCE DIRECTOR,THE SALVATION ARMY,DELOITTE & TOUCHE LLP,,HONOLULU,HI,96813,JOANNA OSHIRO,AUDIT DIRECTOR,8085430807,,JOSHIRO@DELOITTE.COM,10/01/2022 03:06:27,,O,,U,N,N,N,N,U,750000,Y,,5150189,,N,N,N,N,N,N,,93,10/02/2022 00:00:00,10/14/2022 01:30:06,,N,908,1,x00,10/02/2022 00:00:00,,N,MENRIT FRANCIS,DIVISIONAL FINANCE DIRECTOR,10/02/2022 00:00:00,133891517,N,,N,N,,,,,Non-profit,UG,,,,,,10/01/2020 00:00:00,,,,US
1425050,2103732021,2021,210373,06/30/2021 00:00:00,S,A,,N,592610345,,N,557010543,"AMERICA'S SECOND HARVEST OF THE BEND BEND, INC.",4446 ENTREPOT BLVD,,TALLAHASSEE,FL,32310,IMMANUEL DHANARAJAN,CFO,8505623033,,ARUN@FIGHTINGHUNGER.ORG,04/04/2022 14:31:47,MONIQUE VAN PELT-CHIEF EXECUTIVE OFFICER,"CARR RIGGS & INGRAM, LLC",2633 CENTENNIAL BOULEVARD STE200,,TALLAHASSEE,FL,32308,JEANNINE BUSCH,PARTNER,8508788777,,JBUSCH@CRICPA.COM,03/31/2022 09:15:52,,O,,U,N,N,N,N,U,750000,Y,,13331576,,N,N,N,N,N,N,,10,04/04/2022 00:00:00,04/13/2022 01:30:05,,N,908,1,x00,04/04/2022 00:00:00,,N,MONIQUE VAN PELT,CHIEF EXECUTIVE OFFICER,04/04/2022 00:00:00,731396621,N,,N,N,,,,,Non-profit,UG,,,,,,07/01/2020 00:00:00,,,,US
1443724,2288762021,2021,228876,12/31/2021 00:00:00,S,A,,N,300303186,,N,011009845,ST LUKE'S SENIOR HOUSING INC,120 GOFFE ST,,NEW HAVEN,CT,065113373,MATTHEW FONTAINE,"CONTROLLER, DEMARCO MGMT",8609519411,,MFONTAINE@DEMARCOMC.COM,09/30/2022 16:18:35,JEFFREY ANDRUS-TREASURER,BAILEY MOORE GLAZER SCHAEFER & PROTO LLP,16 LUNAR DR,,WOODBRIDGE,CT,065252322,"BRIAN S BORGERSON, CPA",PARTNER,2033977700,,BBORG@BAILEYMOORE.COM,09/30/2022 00:09:56,,O,,U,N,N,N,N,U,750000,Y,,3326284,,N,N,N,N,N,N,,14,09/30/2022 00:00:00,10/11/2022 01:30:12,,N,903,1,x00,09/30/2022 00:00:00,,N,JEFFREY ANDRUS,TREASURER,09/30/2022 00:00:00,060674931,N,,N,N,,,,,Non-profit,UG,,,,,,01/01/2021 00:00:00,,,,US
1409517,1795282021,2021,179528,06/30/2021 00:00:00,S,A,,N,391086910,,N,068315183,NICOLET AREA TECHNICAL COLLEGE DISTRICT,PO BOX 518,,RHINELANDER,WI,54501,JOHN VAN DE LOO,CHIEF FINANCIAL OFFICER,7153654553,,VANDELOO@NICOLETCOLLEGE.EDU,12/22/2021 15:12:51,JOHN VAN DE LOO-VP OF FINANCE AND ADMINISTRATION,"WIPFLI, LLP","4890 OWEN AYRES COURT, SUITE 200",,EAU CLAIRE,WI,54701,ROB GANSCHOW,PARTNER,7158586642,,RGANSCHOW@WIPFLI.COM,12/22/2021 15:23:14,,O,,U,N,N,N,N,U,750000,Y,,4906386,,N,N,N,N,N,N,,84,12/22/2021 00:00:00,12/27/2021 01:30:03,,N,504,1,x00,12/22/2021 00:00:00,,N,JOHN VAN DE LOO,VP OF FINANCE AND ADMINISTRATION,12/22/2021 00:00:00,390758449,N,,N,N,,,,,Institution of higher education (IHE),UG,00538400,01/09/2022 16:08:52,01/13/2022 10:51:06,N,B,07/01/2020 00:00:00,,,,US
1448024,2430392021,2021,243039,12/31/2021 00:00:00,S,A,,N,570477907,,N,069310381,THE ALSTON WILKES SOCIETY,516 WOTAN ROAD,,COLUMBIA,SC,29229,ANNE WALKER,CHIEF EXECUTIVE DIRECTOR,8037992490,,ANNEWALKER@SC.RR.COM,06/05/2023 13:18:47,ANNE WALKER-PRESIDENT & CEO,"HAMILTON MCKINNEY & MOSS, CPAS",5 CALENDAR CT SUITE 201-C,,COLUMBIA,SC,29206,FOSTER MCKINNEY,PARTNER,8038655255,,FMCKINNEY@SC.RR.COM,06/07/2023 13:06:33,,O,,U,Y,N,N,N,U,750000,N,,3211937,,N,N,N,N,N,N,,64,06/07/2023 00:00:00,06/09/2023 01:30:04,,N,888,1,x00,06/07/2023 00:00:00,,N,ANNE WALKER,PRESIDENT & CEO,06/07/2023 00:00:00,134133118,N,,Y,N,,,,,Non-profit,UG,,,,,,01/01/2021 00:00:00,,,,US
1409784,1971942021,2021,197194,06/30/2021 00:00:00,S,A,,N,756002700,,N,,VAN INDEPENDENT SCHOOL DISTICT,P O BOX 697,,VAN,TX,75790,DANIEL MORROW,CFO,9039638328,,DANIEL.MORROW@VANISD.ORG,12/23/2021 15:44:52,DANNY MORROW-CFO,"RUTHERFORD, TAYLOR & COMPANY, PC",3500 JOE RAMSEY BLVD E,,GREENVILLE,TX,75401,ROBERT LAKE,CPA,9034556252,,RLAKE@RUTHERFORDTAYLOR.COM,12/21/2021 11:01:00,,O,,U,N,N,N,N,U,750000,Y,,2642639,,N,N,N,N,N,N,,84,12/23/2021 00:00:00,12/28/2021 01:30:03,,N,505,1,x00,12/23/2021 00:00:00,,N,DANNY MORROW,CFO,12/23/2021 00:00:00,751688042,N,,N,N,,,,,Local government,UG,,01/10/2022 11:53:02,01/13/2022 10:51:06,N,G,07/01/2020 00:00:00,,,,US
1445774,2161372021,2021,216137,12/31/2021 00:00:00,S,A,,N,311717824,,N,,PARK PLACE RHF HOUSING,911 STUDEBAKER ROAD,,LONG BEACH,CA,90815,CHRISTOPHER PURCELL,CONTROLLER,5622575324,,CHRISTOPHER.PURCELL@RHF.ORG,09/25/2022 14:25:12,CHRISTOPHER PURCELL-CONTROLLER,CLIFTONLARSONALLEN LLP,"20 E. THOMAS RD., SUITE 2300",,PHOENIX,AZ,85012,"CHAD D. KUNZE, CPA",PRINCIPAL,6309548166,,CHAD.KUNZE@CLACONNECT.COM,09/25/2022 14:39:43,,O,,U,N,N,N,N,U,750000,Y,,15781941,,N,N,N,N,N,N,,14,09/25/2022 00:00:00,09/27/2022 01:30:09,,N,903,1,x00,09/25/2022 00:00:00,,N,CHRISTOPHER PURCELL,CONTROLLER,09/25/2022 00:00:00,410746749,N,,N,N,,,,,Non-profit,UG,,,,,,01/01/2021 00:00:00,,,,US
1432469,2042812021,2021,204281,06/30/2021 00:00:00,S,A,,N,116000369,,N,047840772,ISLAND PARK UNION FREE SCHOOL DISTRICT,99 RADCLIFFE ROAD,,ISLAND PARK,NY,11558,IDOWU OGUNDIPE,SCHOOL BUSINESS ADMINISTRATOR,5164342600,,IOGUNDIPE@ISLANDPARKSCHOOLS.ORG,06/01/2022 15:08:01,IDOWU OGUNDIPE-SCHOOL BUSINESS ADMINISTRATOR,"R.S. ABRAMS & CO., LLP","3033 EXPRESS DRIVE NORTH, SUITE 100",,ISLANDIA,NY,11749,"ALEXANDRIA BATTAGLIA, CPA",PARTNER,6312344444,,ABATTAGLIA@RSABRAMS.COM,06/01/2022 10:01:20,,O,,U,N,N,N,N,U,750000,N,,833135,,Y,N,N,Y,N,N,,84,06/01/2022 00:00:00,06/03/2022 01:30:04,,N,505,1,x00,06/01/2022 00:00:00,,N,IDOWU OGUNDIPE,SCHOOL BUSINESS ADMINISTRATOR,06/01/2022 00:00:00,113350452,N,,N,Y,,,,,Local government,UG,,06/15/2022 12:03:14,06/16/2022 07:04:23,N,G,07/01/2020 00:00:00,,,,US
1392031,1711842021,2021,171184,06/30/2021 00:00:00,S,A,,N,466001276,,N,159430479,MCINTOSH SCHOOL DISTRICT NO.15-1,PO BOX 80,,MCINTOSH,SD,57641,KATHY SIECK-CHASE,BUSINESS MANAGER,6052734227,,KATHY.CHASE@K12.SD.US,03/29/2022 13:45:36,KATHY SIECK-CHASE-KATHY SIECK CHASE,"KOHLMAN, BIERSCHBACH, & ANDERSON LLP",PO BOX 460,,MOBRIDGE,SD,57601,CHRISTINE OLSEN,CPA - PARTNER,6058453658,,CHRISTINE.OLSEN@KBACPAS.COM,03/29/2022 11:38:34,,O,,U,N,Y,N,N,U,750000,N,,2431039,,N,N,N,N,N,N,,84,03/29/2022 00:00:00,04/08/2022 01:30:03,,N,505,1,x00,03/29/2022 00:00:00,,N,KATHY SIECK-CHASE,KATHY SIECK CHASE,03/29/2022 00:00:00,460283230,Y,,N,N,,,,,Local government,UG,,04/11/2022 13:55:44,04/14/2022 06:56:27,N,G,07/01/2020 00:00:00,,,,US
1410976,2441242021,2021,244124,09/30/2021 00:00:00,S,A,,N,454945583,,N,078717315,SIERRA GATEWAY SENIOR RESIDENCE II,"6120 STONERIDGE MALL RD., 1ST FLOOR",,PLEASANTON ,CA,94588,BETH BURKE,ASSISTANT CONTROLLER,8186384502,,BETH.BURKE@HUMANGOOD.ORG,01/05/2022 14:27:25,ANDREW J. MCDONALD-CFO,"DAUBY O'CONNOR & ZALESKI, LLC",501 CONGRESSIONAL BLVD.,,CARMEL,IN,46032,CHRISTOPHER J. PETESCH,PRINCIPAL,3178485700,,CPETESCH@DOZLLC.COM,01/05/2022 14:57:36,,O,,U,N,N,N,N,U,750000,Y,,9749413,,N,N,N,N,N,N,,14,01/05/2022 00:00:00,01/07/2022 01:30:04,,N,888,1,x00,01/05/2022 00:00:00,,N,ANDREW J. MCDONALD,CFO,01/05/2022 00:00:00,351750664,N,,N,N,,,,,Non-profit,UG,,,,,,10/01/2020 00:00:00,,,,US
1446469,2554062021,2021,255406,12/31/2021 00:00:00,S,A,,N,263064869,,N,966286283,"NEBRASKA PEDIATRIC PRACTICE, INC.",8200 DODGE STREET,,OMAHA,NE,68114,MINDY STETSON,DIRECTOR OF ACCOUNTING,4029556765,,MSTETSON@CHILDRENSOMAHA.ORG,09/30/2022 12:34:47,"LAURISA JACKSON-VICE PRESIDENT, FINANCE","KPMG, INC.",1212 N 96TH STREET STE 300,,OMAHA,NE,68114,ERIN TRACY,MANAGING DIRECTOR,4026615225,,ETRACY@KPMG.COM,09/30/2022 12:48:12,,O,,U,N,N,N,N,U,750000,N,,1034583,,N,N,N,N,N,N,,93,09/30/2022 00:00:00,10/11/2022 01:30:12,,N,888,1,x00,09/30/2022 00:00:00,,N,LAURISA JACKSON,"VICE PRESIDENT, FINANCE",09/30/2022 00:00:00,135565207,N,,N,N,,,,,Non-profit,UG,,,,,,01/01/2021 00:00:00,,,,US
